STATION,DATE,REPORT_TYPE,SOURCE,AWND,BackupDirection,BackupDistance,BackupDistanceUnit,BackupElements,BackupElevation,BackupElevationUnit,BackupEquipment,BackupLatitude,BackupLongitude,BackupName,CDSD,CLDD,DSNW,DYHF,DYTS,DailyAverageDewPointTemperature,DailyAverageDryBulbTemperature,DailyAverageRelativeHumidity,DailyAverageSeaLevelPressure,DailyAverageStationPressure,DailyAverageWetBulbTemperature,DailyAverageWindSpeed,DailyCoolingDegreeDays,DailyDepartureFromNormalAverageTemperature,DailyHeatingDegreeDays,DailyMaximumDryBulbTemperature,DailyMinimumDryBulbTemperature,DailyPeakWindDirection,DailyPeakWindSpeed,DailyPrecipitation,DailySnowDepth,DailySnowfall,DailySustainedWindDirection,DailySustainedWindSpeed,DailyWeather,HDSD,HTDD,HourlyAltimeterSetting,HourlyDewPointTemperature,HourlyDryBulbTemperature,HourlyPrecipitation,HourlyPresentWeatherType,HourlyPressureChange,HourlyPressureTendency,HourlyRelativeHumidity,HourlySeaLevelPressure,HourlySkyConditions,HourlyStationPressure,HourlyVisibility,HourlyWetBulbTemperature,HourlyWindDirection,HourlyWindGustSpeed,HourlyWindSpeed,MonthlyAverageRH,MonthlyDaysWithGT001Precip,MonthlyDaysWithGT010Precip,MonthlyDaysWithGT32Temp,MonthlyDaysWithGT90Temp,MonthlyDaysWithLT0Temp,MonthlyDaysWithLT32Temp,MonthlyDepartureFromNormalAverageTemperature,MonthlyDepartureFromNormalCoolingDegreeDays,MonthlyDepartureFromNormalHeatingDegreeDays,MonthlyDepartureFromNormalMaximumTemperature,MonthlyDepartureFromNormalMinimumTemperature,MonthlyDepartureFromNormalPrecipitation,MonthlyDewpointTemperature,MonthlyGreatestPrecip,MonthlyGreatestPrecipDate,MonthlyGreatestSnowDepth,MonthlyGreatestSnowDepthDate,MonthlyGreatestSnowfall,MonthlyGreatestSnowfallDate,MonthlyMaxSeaLevelPressureValue,MonthlyMaxSeaLevelPressureValueDate,MonthlyMaxSeaLevelPressureValueTime,MonthlyMaximumTemperature,MonthlyMeanTemperature,MonthlyMinSeaLevelPressureValue,MonthlyMinSeaLevelPressureValueDate,MonthlyMinSeaLevelPressureValueTime,MonthlyMinimumTemperature,MonthlySeaLevelPressure,MonthlyStationPressure,MonthlyTotalLiquidPrecipitation,MonthlyTotalSnowfall,MonthlyWetBulb,NormalsCoolingDegreeDay,NormalsHeatingDegreeDay,REM,REPORT_TYPE2,SOURCE3,ShortDurationEndDate005,ShortDurationEndDate010,ShortDurationEndDate015,ShortDurationEndDate020,ShortDurationEndDate030,ShortDurationEndDate045,ShortDurationEndDate060,ShortDurationEndDate080,ShortDurationEndDate100,ShortDurationEndDate120,ShortDurationEndDate150,ShortDurationEndDate180,ShortDurationPrecipitationValue005,ShortDurationPrecipitationValue010,ShortDurationPrecipitationValue015,ShortDurationPrecipitationValue020,ShortDurationPrecipitationValue030,ShortDurationPrecipitationValue045,ShortDurationPrecipitationValue060,ShortDurationPrecipitationValue080,ShortDurationPrecipitationValue100,ShortDurationPrecipitationValue120,ShortDurationPrecipitationValue150,ShortDurationPrecipitationValue180,Sunrise,Sunset,WindEquipmentChangeDate
72278023183,01-08-2024 00:51,FM-15,7,,N,0.5,mi,"TEMP, PRECIP",1107,,"MXMN, SRG",33.4442,-112.0247,CONTRACTOR,,,,,,,,,,,,,,,,,,,,,,,,,,,,29.91,59,89,0,,,,36,29.84,BKN:07 150 BKN:07 210 OVC:08 230,28.73,10,70,170,,8,,,,,,,,,,,,,,,,,,,,,,,,,,,,,,,,,,,,,MET15008/01/24 00:51:02 METAR KPHX 010751Z 17007KT 10SM BKN150 BKN210 OVC230 32/15 A2991 RMK AO2 SLP105 FRQ LTGCGIC DSNT SE-S CB DSNT SE-S T03170150 $ (GEH),FM-15,7,,,,,,,,,,,,,,,,,,,,,,,,,,,03-04-2007 00:00
72278023183,01-08-2024 01:51,FM-15,7,,N,0.5,mi,"TEMP, PRECIP",1107,,"MXMN, SRG",33.4442,-112.0247,CONTRACTOR,,,,,,,,,,,,,,,,,,,,,,,,,,,,29.91,60,89,0,,-0.01,1,38,29.84,BKN:07 160 BKN:07 210 OVC:08 230,28.73,10,70,130,,9,,,,,,,,,,,,,,,,,,,,,,,,,,,,,,,,,,,,,MET15108/01/24 01:51:02 METAR KPHX 010851Z 13008KT 10SM BKN160 BKN210 OVC230 32/16 A2991 RMK AO2 SLP105 CONS LTGCGIC DSNT S CB DSNT S T03170156 51002 $ (GEH),FM-15,7,,,,,,,,,,,,,,,,,,,,,,,,,,,03-04-2007 00:00
72278023183,01-08-2024 02:00,FM-12,4,,N,0.5,mi,"TEMP, PRECIP",1107,,"MXMN, SRG",33.4442,-112.0247,CONTRACTOR,,,,,,,,,,,,,,,,,,,,,,,,,,,,,60,89,,,-0.01,1,38,29.84,,28.74,9.94,70,130,,9,,,,,,,,,,,,,,,,,,,,,,,,,,,,,,,,,,,,,SYN06472278 32966 81308 10317 20156 39731 40105 51002 90851 555 90109=,FM-12,4,,,,,,,,,,,,,,,,,,,,,,,,,,,03-04-2007 00:00
72278023183,01-08-2024 02:51,FM-15,7,,N,0.5,mi,"TEMP, PRECIP",1107,,"MXMN, SRG",33.4442,-112.0247,CONTRACTOR,,,,,,,,,,,,,,,,,,,,,,,,,,,,29.9,62,89,0,,,,41,29.83,FEW:02 60 SCT:04 110 BKN:07 150,28.72,10,71,0,,0,,,,,,,,,,,,,,,,,,,,,,,,,,,,,,,,,,,,,MET14308/01/24 02:51:02 METAR KPHX 010951Z 00000KT 10SM FEW060 SCT110 BKN150 32/17 A2990 RMK AO2 SLP102 OCNL LTGIC DSNT S CB DSNT S T03170167 $ (GEH),FM-15,7,,,,,,,,,,,,,,,,,,,,,,,,,,,03-04-2007 00:00
72278023183,01-08-2024 03:51,FM-15,7,,N,0.5,mi,"TEMP, PRECIP",1107,,"MXMN, SRG",33.4442,-112.0247,CONTRACTOR,,,,,,,,,,,,,,,,,,,,,,,,,,,,29.9,61,89,0,,,,39,29.83,FEW:02 110 BKN:07 150 BKN:07 230,28.72,10,71,30,,10,,,,,,,,,,,,,,,,,,,,,,,,,,,,,,,,,,,,,MET11508/01/24 03:51:02 METAR KPHX 011051Z 03009KT 10SM FEW110 BKN150 BKN230 32/16 A2990 RMK AO2 SLP102 T03170161 $ (GEH),FM-15,7,,,,,,,,,,,,,,,,,,,,,,,,,,,03-04-2007 00:00
72278023183,01-08-2024 04:51,FM-15,7,,N,0.5,mi,"TEMP, PRECIP",1107,,"MXMN, SRG",33.4442,-112.0247,CONTRACTOR,,,,,,,,,,,,,,,,,,,,,,,,,,,,29.94,62,89,0,,-0.03,3,41,29.87,SCT:04 130 BKN:07 150 BKN:07 190,28.76,10,71,170,,9,,,,,,,,,,,,,,,,,,,,,,,,,,,,,,,,,,,,,MET13308/01/24 04:51:02 METAR KPHX 011151Z 17008KT 10SM SCT130 BKN150 BKN190 32/17 A2994 RMK AO2 SLP115 T03170167 10328 20317 53010 $ (GEH),FM-15,7,,,,,,,,,,,,,,,,,,,,,,,,,,,03-04-2007 00:00
72278023183,01-08-2024 05:00,FM-12,4,,N,0.5,mi,"TEMP, PRECIP",1107,,"MXMN, SRG",33.4442,-112.0247,CONTRACTOR,,,,,,,,,,,,,,,,,,,,,,,,,,,,,62,89,,,-0.03,3,41,29.87,,28.77,9.94,71,170,,9,,,,,,,,,,,,,,,,,,,,,,,,,,,,,,,,,,,,,SYN08072278 32966 61708 10317 20167 39741 40115 53010 91151 333 10433 20317 555 90112=,FM-12,4,,,,,,,,,,,,,,,,,,,,,,,,,,,03-04-2007 00:00
72278023183,01-08-2024 05:51,FM-15,7,,N,0.5,mi,"TEMP, PRECIP",1107,,"MXMN, SRG",33.4442,-112.0247,CONTRACTOR,,,,,,,,,,,,,,,,,,,,,,,,,,,,29.96,63,88,0,,,,43,29.89,BKN:07 140 BKN:07 190 BKN:07 240,28.78,10,71,180,,7,,,,,,,,,,,,,,,,,,,,,,,,,,,,,,,,,,,,,MET11508/01/24 05:51:02 METAR KPHX 011251Z 18006KT 10SM BKN140 BKN190 BKN240 31/17 A2996 RMK AO2 SLP123 T03110172 $ (GEH),FM-15,7,,,,,,,,,,,,,,,,,,,,,,,,,,,03-04-2007 00:00
72278023183,01-08-2024 06:51,FM-15,7,,N,0.5,mi,"TEMP, PRECIP",1107,,"MXMN, SRG",33.4442,-112.0247,CONTRACTOR,,,,,,,,,,,,,,,,,,,,,,,,,,,,29.99,63,89,0,,,,42,29.92,BKN:07 140 BKN:07 190 BKN:07 250,28.81,10,72,160,,5,,,,,,,,,,,,,,,,,,,,,,,,,,,,,,,,,,,,,MET11408/01/24 06:51:02 METAR KPHX 011351Z 16004KT 10SM BKN140 BKN190 BKN250 32/17 A2999 RMK AO2 SLP133 T03170172 $ (SH),FM-15,7,,,,,,,,,,,,,,,,,,,,,,,,,,,03-04-2007 00:00
72278023183,01-08-2024 07:51,FM-15,7,,N,0.5,mi,"TEMP, PRECIP",1107,,"MXMN, SRG",33.4442,-112.0247,CONTRACTOR,,,,,,,,,,,,,,,,,,,,,,,,,,,,30,64,89,0,,-0.06,1,43,29.93,SCT:04 130 SCT:04 190 BKN:07 250,28.82,10,72,150,,5,,,,,,,,,,,,,,,,,,,,,,,,,,,,,,,,,,,,,MET12008/01/24 07:51:02 METAR KPHX 011451Z 15004KT 10SM SCT130 SCT190 BKN250 32/18 A3000 RMK AO2 SLP137 T03170178 51020 $ (SH),FM-15,7,,,,,,,,,,,,,,,,,,,,,,,,,,,03-04-2007 00:00
72278023183,01-08-2024 08:00,FM-12,4,,N,0.5,mi,"TEMP, PRECIP",1107,,"MXMN, SRG",33.4442,-112.0247,CONTRACTOR,,,,,,,,,,,,,,,,,,,,,,,,,,,,,64,89,,,-0.06,1,43,29.93,,28.82,9.94,72,150,,5,,,,,,,,,,,,,,,,,,,,,,,,,,,,,,,,,,,,,SYN06472278 32966 61504 10317 20178 39761 40137 51020 91451 555 90115=,FM-12,4,,,,,,,,,,,,,,,,,,,,,,,,,,,03-04-2007 00:00
72278023183,01-08-2024 08:51,FM-15,7,,N,0.5,mi,"TEMP, PRECIP",1107,,"MXMN, SRG",33.4442,-112.0247,CONTRACTOR,,,,,,,,,,,,,,,,,,,,,,,,,,,,30,61,94,0,,,,33,29.94,FEW:02 130 SCT:04 190 BKN:07 250,28.82,10,72,VRB,,3,,,,,,,,,,,,,,,,,,,,,,,,,,,,,,,,,,,,,MET11208/01/24 08:51:02 METAR KPHX 011551Z VRB03KT 10SM FEW130 SCT190 BKN250 34/16 A3000 RMK AO2 SLP138 T03440161 (SH),FM-15,7,,,,,,,,,,,,,,,,,,,,,,,,,,,03-04-2007 00:00
72278023183,01-08-2024 09:51,FM-15,7,,N,0.5,mi,"TEMP, PRECIP",1107,,"MXMN, SRG",33.4442,-112.0247,CONTRACTOR,,,,,,,,,,,,,,,,,,,,,,,,,,,,30,60,95,0,,,,31,29.93,FEW:02 130 FEW:02 190 SCT:04 250,28.82,10,72,0,,0,,,,,,,,,,,,,,,,,,,,,,,,,,,,,,,,,,,,,MET11408/01/24 09:51:02 METAR KPHX 011651Z 00000KT 10SM FEW130 FEW190 SCT250 35/16 A3000 RMK AO2 SLP137 T03500156 $ (SH),FM-15,7,,,,,,,,,,,,,,,,,,,,,,,,,,,03-04-2007 00:00
72278023183,01-08-2024 10:51,FM-15,7,,N,0.5,mi,"TEMP, PRECIP",1107,,"MXMN, SRG",33.4442,-112.0247,CONTRACTOR,,,,,,,,,,,,,,,,,,,,,,,,,,,,30,60,99,0,,0,8,28,29.93,FEW:02 130 FEW:02 190 SCT:04 250,28.82,10,73,230,,8,,,,,,,,,,,,,,,,,,,,,,,,,,,,,,,,,,,,,MET13008/01/24 10:51:02 METAR KPHX 011751Z 23007KT 10SM FEW130 FEW190 SCT250 37/16 A3000 RMK AO2 SLP136 T03720156 10378 20306 58000 (SH),FM-15,7,,,,,,,,,,,,,,,,,,,,,,,,,,,03-04-2007 00:00
72278023183,01-08-2024 11:00,FM-12,4,,N,0.5,mi,"TEMP, PRECIP",1107,,"MXMN, SRG",33.4442,-112.0247,CONTRACTOR,,,,,,,,,,,,,,,,,,,,,,,,,,,,,60,99,,,0,7,28,29.93,,28.82,9.94,73,230,,8,,,,,,,,,,,,,,,,,,,,,,,,,,,,,,,,,,,,,SYN08072278 32966 42307 10372 20156 39761 40136 58000 91751 333 10378 20306 555 90118=,FM-12,4,,,,,,,,,,,,,,,,,,,,,,,,,,,03-04-2007 00:00
72278023183,01-08-2024 11:51,FM-15,7,,N,0.5,mi,"TEMP, PRECIP",1107,,"MXMN, SRG",33.4442,-112.0247,CONTRACTOR,,,,,,,,,,,,,,,,,,,,,,,,,,,,29.98,60,101,0,,,,26,29.91,FEW:02 150 FEW:02 250 SCT:04 290,28.8,10,73,260,17,10,,,,,,,,,,,,,,,,,,,,,,,,,,,,,,,,,,,,,MET11508/01/24 11:51:02 METAR KPHX 011851Z 26009G15KT 10SM FEW150 FEW250 SCT290 38/16 A2998 RMK AO2 SLP130 T03830156 (SH),FM-15,7,,,,,,,,,,,,,,,,,,,,,,,,,,,03-04-2007 00:00
72278023183,01-08-2024 12:51,FM-15,7,,N,0.5,mi,"TEMP, PRECIP",1107,,"MXMN, SRG",33.4442,-112.0247,CONTRACTOR,,,,,,,,,,,,,,,,,,,,,,,,,,,,29.97,59,101,0,,,,25,29.9,FEW:02 80 FEW:02 150 SCT:04 250,28.79,10,73,VRB,,6,,,,,,,,,,,,,,,,,,,,,,,,,,,,,,,,,,,,,MET11208/01/24 12:51:02 METAR KPHX 011951Z VRB05KT 10SM FEW080 FEW150 SCT250 38/15 A2997 RMK AO2 SLP126 T03830150 (SH),FM-15,7,,,,,,,,,,,,,,,,,,,,,,,,,,,03-04-2007 00:00
72278023183,01-08-2024 13:51,FM-15,7,,N,0.5,mi,"TEMP, PRECIP",1107,,"MXMN, SRG",33.4442,-112.0247,CONTRACTOR,,,,,,,,,,,,,,,,,,,,,,,,,,,,29.95,59,105,0,,0.05,8,22,29.88,FEW:02 80 FEW:02 150 SCT:04 250,28.77,10,74,270,18,11,,,,,,,,,,,,,,,,,,,,,,,,,,,,,,,,,,,,,MET12108/01/24 13:51:02 METAR KPHX 012051Z 27010G16KT 10SM FEW080 FEW150 SCT250 41/15 A2995 RMK AO2 SLP118 T04060150 58017 (SH),FM-15,7,,,,,,,,,,,,,,,,,,,,,,,,,,,03-04-2007 00:00
72278023183,01-08-2024 14:00,FM-12,4,,N,0.5,mi,"TEMP, PRECIP",1107,,"MXMN, SRG",33.4442,-112.0247,CONTRACTOR,,,,,,,,,,,,,,,,,,,,,,,,,,,,,59,105,,,0.05,8,22,29.88,74,28.77,9.94,74,270,,11,,,,,,,,,,,,,,,,,,,,,,,,,,,,,,,,,,,,,SYN07472278 32866 62710 10406 20150 39744 40118 58017 92051 333 91016 555 90121=,FM-12,4,,,,,,,,,,,,,,,,,,,,,,,,,,,03-04-2007 00:00
72278023183,01-08-2024 14:37,FM-16,7,,N,0.5,mi,"TEMP, PRECIP",1107,,"MXMN, SRG",33.4442,-112.0247,CONTRACTOR,,,,,,,,,,,,,,,,,,,,,,,,,,,,29.93,60,105,,,,,23,,FEW:02 80 FEW:02 150 SCT:04 250,28.75,10,74,260,22,10,,,,,,,,,,,,,,,,,,,,,,,,,,,,,,,,,,,,,MET12008/01/24 14:37:02 SPECI KPHX 012137Z 26009G19KT 10SM FEW080 FEW150 SCT250 41/16 A2993 RMK AO2 WSHFT 2117 T04060156 (ANH),FM-16,7,,,,,,,,,,,,,,,,,,,,,,,,,,,03-04-2007 00:00
72278023183,01-08-2024 14:51,FM-15,7,,N,0.5,mi,"TEMP, PRECIP",1107,,"MXMN, SRG",33.4442,-112.0247,CONTRACTOR,,,,,,,,,,,,,,,,,,,,,,,,,,,,29.92,60,105,0,,,,23,29.85,FEW:02 80 FEW:02 150 SCT:04 200,28.74,10,74,320,28,13,,,,,,,,,,,,,,,,,,,,,,,,,,,,,,,,,,,,,MET12708/01/24 14:51:02 METAR KPHX 012151Z 32011G24KT 10SM FEW080 FEW150 SCT200 41/16 A2992 RMK AO2 WSHFT 2117 SLP110 T04060156 (ANH),FM-15,7,,,,,,,,,,,,,,,,,,,,,,,,,,,03-04-2007 00:00
72278023183,01-08-2024 15:51,FM-15,7,,N,0.5,mi,"TEMP, PRECIP",1107,,"MXMN, SRG",33.4442,-112.0247,CONTRACTOR,,,,,,,,,,,,,,,,,,,,,,,,,,,,29.9,58,105,0,,,,21,29.83,FEW:02 80 SCT:04 150 SCT:04 200,28.72,10,74,VRB,21,8,,,,,,,,,,,,,,,,,,,,,,,,,,,,,,,,,,,,,MET11608/01/24 15:51:02 METAR KPHX 012251Z 34007G18KT 10SM FEW080 SCT150 SCT200 41/14 A2990 RMK AO2 SLP103 T04060144 (ANH),FM-15,7,,,,,,,,,,,,,,,,,,,,,,,,,,,03-04-2007 00:00
72278023183,01-08-2024 16:51,FM-15,7,,N,0.5,mi,"TEMP, PRECIP",1107,,"MXMN, SRG",33.4442,-112.0247,CONTRACTOR,,,,,,,,,,,,,,,,,,,,,,,,,,,,29.89,58,104,0,,0.05,6,22,29.83,FEW:02 80 SCT:04 150 SCT:04 200,28.71,10,73,VRB,,7,,,,,,,,,,,,,,,,,,,,,,,,,,,,,,,,,,,,,MET14208/01/24 16:51:02 METAR KPHX 012351Z VRB06KT 10SM FEW080 SCT150 SCT200 40/14 A2989 RMK AO2 SLP100 CB DSNT SE T04000144 10417 20367 56018 (ANH),FM-15,7,,,,,,,,,,,,,,,,,,,,,,,,,,,03-04-2007 00:00
72278023183,01-08-2024 17:00,FM-12,4,,N,0.5,mi,"TEMP, PRECIP",1107,,"MXMN, SRG",33.4442,-112.0247,CONTRACTOR,,,,,,,,,,,,,,,,,,,,,,,,,,,,,58,104,,,0.05,6,22,29.83,74,28.72,9.94,73,,,7,,,,,,,,,,,,,,,,,,,,,,,,,,,,,,,,,,,,,SYN08072278 32866 6//06 10400 20144 39725 40100 56018 92351 333 10417 20317 555 90200=,FM-12,4,,,,,,,,,,,,,,,,,,,,,,,,,,,03-04-2007 00:00
72278023183,01-08-2024 17:51,FM-15,7,,N,0.5,mi,"TEMP, PRECIP",1107,,"MXMN, SRG",33.4442,-112.0247,CONTRACTOR,,,,,,,,,,,,,,,,,,,,,,,,,,,,29.89,58,104,0,,,,22,29.82,FEW:02 80 FEW:02 150 SCT:04 200,28.71,10,73,290,,7,,,,,,,,,,,,,,,,,,,,,,,,,,,,,,,,,,,,,MET10708/01/24 17:51:01 METAR KPHX 020051Z 29006KT 10SM FEW080 FEW150 SCT200 40/14 A2989 RMK AO2 SLP098 T04000144,FM-15,7,,,,,,,,,,,,,,,,,,,,,,,,,,,03-04-2007 00:00
72278023183,01-08-2024 18:51,FM-15,7,,N,0.5,mi,"TEMP, PRECIP",1107,,"MXMN, SRG",33.4442,-112.0247,CONTRACTOR,,,,,,,,,,,,,,,,,,,,,,,,,,,,29.9,57,103,0,,,,22,29.83,FEW:02 100 SCT:04 160 BKN:07 250,28.72,10,73,210,,3,,,,,,,,,,,,,,,,,,,,,,,,,,,,,,,,,,,,,MET10708/01/24 18:51:01 METAR KPHX 020151Z 21003KT 10SM FEW100 SCT160 BKN250 39/14 A2990 RMK AO2 SLP103 T03940139,FM-15,7,,,,,,,,,,,,,,,,,,,,,,,,,,,03-04-2007 00:00
72278023183,01-08-2024 19:51,FM-15,7,,N,0.5,mi,"TEMP, PRECIP",1107,,"MXMN, SRG",33.4442,-112.0247,CONTRACTOR,,,,,,,,,,,,,,,,,,,,,,,,,,,,29.92,57,103,0,,-0.02,3,22,29.85,FEW:02 100 SCT:04 160 BKN:07 210,28.74,10,73,290,,13,,,,,,,,,,,,,,,,,,,,,,,,,,,,,,,,,,,,,MET11308/01/24 19:51:02 METAR KPHX 020251Z 29011KT 10SM FEW100 SCT160 BKN210 39/14 A2992 RMK AO2 SLP108 T03940139 53008,FM-15,7,,,,,,,,,,,,,,,,,,,,,,,,,,,03-04-2007 00:00
72278023183,01-08-2024 20:00,FM-12,4,,N,0.5,mi,"TEMP, PRECIP",1107,,"MXMN, SRG",33.4442,-112.0247,CONTRACTOR,,,,,,,,,,,,,,,,,,,,,,,,,,,,,57,103,,,-0.02,3,22,29.85,,28.74,9.94,73,290,,13,,,,,,,,,,,,,,,,,,,,,,,,,,,,,,,,,,,,,SYN06472278 32966 62911 10394 20139 39734 40108 53008 90251 555 90203=,FM-12,4,,,,,,,,,,,,,,,,,,,,,,,,,,,03-04-2007 00:00
72278023183,01-08-2024 20:51,FM-15,7,,N,0.5,mi,"TEMP, PRECIP",1107,,"MXMN, SRG",33.4442,-112.0247,CONTRACTOR,,,,,,,,,,,,,,,,,,,,,,,,,,,,29.94,57,102,0,,,,23,29.88,FEW:02 100 FEW:02 160 SCT:04 210,28.76,10,72,280,,13,,,,,,,,,,,,,,,,,,,,,,,,,,,,,,,,,,,,,MET10708/01/24 20:51:02 METAR KPHX 020351Z 28011KT 10SM FEW100 FEW160 SCT210 39/14 A2994 RMK AO2 SLP117 T03890139,FM-15,7,,,,,,,,,,,,,,,,,,,,,,,,,,,03-04-2007 00:00
72278023183,01-08-2024 21:51,FM-15,7,,N,0.5,mi,"TEMP, PRECIP",1107,,"MXMN, SRG",33.4442,-112.0247,CONTRACTOR,,,,,,,,,,,,,,,,,,,,,,,,,,,,29.95,57,100,0,,,,24,29.89,FEW:02 100 BKN:07 150 BKN:07 220,28.77,10,72,280,,13,,,,,,,,,,,,,,,,,,,,,,,,,,,,,,,,,,,,,MET13808/01/24 21:51:02 METAR KPHX 020451Z 28011KT 10SM FEW100 BKN150 BKN220 38/14 A2995 RMK AO2 SLP121 FRQ LTGCGIC DSNT NW CB DSNT NW T03780139,FM-15,7,,,,,,,,,,,,,,,,,,,,,,,,,,,03-04-2007 00:00
72278023183,01-08-2024 22:51,FM-15,7,,N,0.5,mi,"TEMP, PRECIP",1107,,"MXMN, SRG",33.4442,-112.0247,CONTRACTOR,,,,,,,,,,,,,,,,,,,,,,,,,,,,29.96,57,100,0,,-0.04,1,24,29.89,BKN:07 150 BKN:07 220,28.78,10,72,300,,9,,,,,,,,,,,,,,,,,,,,,,,,,,,,,,,,,,,,,MET11808/01/24 22:51:02 METAR KPHX 020551Z 30008KT 10SM BKN150 BKN220 38/14 A2996 RMK AO2 SLP122 T03780139 10411 20378 51015,FM-15,7,,,,,,,,,,,,,,,,,,,,,,,,,,,03-04-2007 00:00
72278023183,01-08-2024 23:00,FM-12,4,,N,0.5,mi,"TEMP, PRECIP",1107,,"MXMN, SRG",33.4442,-112.0247,CONTRACTOR,,,,,,,,,,,,,,,,,,,,,,,,,,,,,57,100,,,-0.04,1,24,29.89,,28.79,9.94,72,300,,9,,,,,,,,,,,,,,,,,,,,,,,,,,,,,,,,,,,,,SYN08072278 32966 63008 10378 20139 39748 40122 51015 90551 333 10411 20317 555 90206=,FM-12,4,,,,,,,,,,,,,,,,,,,,,,,,,,,03-04-2007 00:00
72278023183,01-08-2024 23:51,FM-15,7,,N,0.5,mi,"TEMP, PRECIP",1107,,"MXMN, SRG",33.4442,-112.0247,CONTRACTOR,,,,,,,,,,,,,,,,,,,,,,,,,,,,29.97,58,99,0,,,,26,29.9,FEW:02 110 SCT:04 150 SCT:04 200,28.79,10,72,310,,10,,,,,,,,,,,,,,,,,,,,,,,,,,,,,,,,,,,,,MET11708/01/24 23:51:02 METAR KPHX 020651Z 31009KT 10SM FEW110 SCT150 SCT200 37/14 A2997 RMK AO2 SLP124 T03720144 404170306,FM-15,7,,,,,,,,,,,,,,,,,,,,,,,,,,,03-04-2007 00:00
72278023183,01-08-2024 23:59,SOD  ,6,,N,0.5,mi,"TEMP, PRECIP",1107,,"MXMN, SRG",33.4442,-112.0247,CONTRACTOR,,,,,,60,97,30,29.88,28.76,72,7.8,32,2.7,0,107,87,320,28,0,,,270,20,,,,,,,,,,,,,,,,,,,,,,,,,,,,,,,,,,,,,,,,,,,,,,,,,,,,,,,,SOD73924 HR PRECIPITATION (IN): 0.00 SNOW DEPTH (IN):0     24 HR SNOWFALL (IN):0.0  24 HR MAX TEMP (F):10724 HR MIN TEMP (F): 87AVERAGE STATION PRESSURE:28.760 MINIMUM SEA LEVEL PRESSURE:29.82 TIME OF OCCURRENCE:1811 PEAK WIND SPEED (MPH): 27 PEAK WIND DIR (DEG):340 PEAK WIND TIME (LST):      FASTEST 2MIN SPEED (MPH): 20FASTEST 2MIN DIR (DEG):270 FASTEST 2MIN TIME (LST):     AVERAGE WIND SPEED (MPH): 7.8 24 HR AVG TEMP (F): 97DEPART FROM NORMAL:  2  HEATING DEGREE DAYS:  0 COOLING DEGREE DAYS: 32 LATEST DAY MAX TEMP (0700-1900 LST):107 LATEST NIGHT MIN TEMP(1900-0800 LST):87 HOURLY INCREMENTAL PRECIPITATION VALUES (IN):.00 0.00 0.00 0.00 0.00 0.00 0.00 0.00 0.00 0.00 0.00 0.00 0.00 0.00 0.00 0.00 0.00 0.00 0.00 0.00 0.00 0.00 0.00 0.00,SOD  ,6,,,,,,,,,,,,,,,,,,,,,,,,,541,1927,03-04-2007 00:00
72278023183,02-08-2024 00:51,FM-15,7,,N,0.5,mi,"TEMP, PRECIP",1107,,"MXMN, SRG",33.4442,-112.0247,CONTRACTOR,,,,,,,,,,,,,,,,,,,,,,,,,,,,29.97,58,98,0,,,,26,29.91,SCT:04 120 BKN:07 150 BKN:07 200,28.79,10,72,270,,6,,,,,,,,,,,,,,,,,,,,,,,,,,,,,,,,,,,,,MET11308/02/24 00:51:02 METAR KPHX 020751Z 27005KT 10SM SCT120 BKN150 BKN200 37/14 A2997 RMK AO2 SLP127 T03670144 (GEH),FM-15,7,,,,,,,,,,,,,,,,,,,,,,,,,,,03-04-2007 00:00
72278023183,02-08-2024 01:51,FM-15,7,,N,0.5,mi,"TEMP, PRECIP",1107,,"MXMN, SRG",33.4442,-112.0247,CONTRACTOR,,,,,,,,,,,,,,,,,,,,,,,,,,,,29.97,58,97,0,,-0.01,0,27,29.9,SCT:04 120 SCT:04 150,28.79,10,71,340,,5,,,,,,,,,,,,,,,,,,,,,,,,,,,,,,,,,,,,,MET11208/02/24 01:51:02 METAR KPHX 020851Z 34004KT 10SM SCT120 SCT150 36/14 A2997 RMK AO2 SLP125 T03610144 50003 (GEH),FM-15,7,,,,,,,,,,,,,,,,,,,,,,,,,,,03-04-2007 00:00
72278023183,02-08-2024 02:00,FM-12,4,,N,0.5,mi,"TEMP, PRECIP",1107,,"MXMN, SRG",33.4442,-112.0247,CONTRACTOR,,,,,,,,,,,,,,,,,,,,,,,,,,,,,58,97,,,0.01,9,27,29.9,,28.79,9.94,71,340,,5,,,,,,,,,,,,,,,,,,,,,,,,,,,,,,,,,,,,,SYN06472278 32966 43404 10361 20144 39751 40125 50003 90851 555 90209=,FM-12,4,,,,,,,,,,,,,,,,,,,,,,,,,,,03-04-2007 00:00
72278023183,02-08-2024 02:51,FM-15,7,,N,0.5,mi,"TEMP, PRECIP",1107,,"MXMN, SRG",33.4442,-112.0247,CONTRACTOR,,,,,,,,,,,,,,,,,,,,,,,,,,,,29.97,60,95,0,,,,31,29.91,FEW:02 120 SCT:04 150 SCT:04 200,28.79,10,72,260,,6,,,,,,,,,,,,,,,,,,,,,,,,,,,,,,,,,,,,,MET11308/02/24 02:51:02 METAR KPHX 020951Z 26005KT 10SM FEW120 SCT150 SCT200 35/16 A2997 RMK AO2 SLP127 T03500156 (GEH),FM-15,7,,,,,,,,,,,,,,,,,,,,,,,,,,,03-04-2007 00:00
72278023183,02-08-2024 03:51,FM-15,7,,N,0.5,mi,"TEMP, PRECIP",1107,,"MXMN, SRG",33.4442,-112.0247,CONTRACTOR,,,,,,,,,,,,,,,,,,,,,,,,,,,,29.98,61,95,0,,,,32,29.91,FEW:02 120 FEW:02 150,28.8,10,72,0,,0,,,,,,,,,,,,,,,,,,,,,,,,,,,,,,,,,,,,,MET10608/02/24 03:51:02 METAR KPHX 021051Z 00000KT 10SM FEW120 FEW150 35/16 A2998 RMK AO2 SLP129 T03500161 (GEH),FM-15,7,,,,,,,,,,,,,,,,,,,,,,,,,,,03-04-2007 00:00
72278023183,02-08-2024 04:51,FM-15,7,,N,0.5,mi,"TEMP, PRECIP",1107,,"MXMN, SRG",33.4442,-112.0247,CONTRACTOR,,,,,,,,,,,,,,,,,,,,,,,,,,,,29.99,59,93,0,,-0.02,3,32,29.92,FEW:02 120 FEW:02 150,28.81,10,71,110,,3,,,,,,,,,,,,,,,,,,,,,,,,,,,,,,,,,,,,,MET12408/02/24 04:51:02 METAR KPHX 021151Z 11003KT 10SM FEW120 FEW150 34/15 A2999 RMK AO2 SLP133 T03390150 10378 20339 53008 (GEH),FM-15,7,,,,,,,,,,,,,,,,,,,,,,,,,,,03-04-2007 00:00
72278023183,02-08-2024 05:00,FM-12,4,,N,0.5,mi,"TEMP, PRECIP",1107,,"MXMN, SRG",33.4442,-112.0247,CONTRACTOR,,,,,,,,,,,,,,,,,,,,,,,,,,,,,59,93,,,-0.02,3,32,29.92,,28.81,9.94,71,110,,3,,,,,,,,,,,,,,,,,,,,,,,,,,,,,,,,,,,,,SYN08072278 32966 21103 10339 20150 39757 40133 53008 91151 333 10417 20339 555 90212=,FM-12,4,,,,,,,,,,,,,,,,,,,,,,,,,,,03-04-2007 00:00
72278023183,02-08-2024 05:51,FM-15,7,,N,0.5,mi,"TEMP, PRECIP",1107,,"MXMN, SRG",33.4442,-112.0247,CONTRACTOR,,,,,,,,,,,,,,,,,,,,,,,,,,,,30,59,93,0,,,,32,29.93,FEW:02 70 FEW:02 120 FEW:02 150,28.82,10,71,0,,0,,,,,,,,,,,,,,,,,,,,,,,,,,,,,,,,,,,,,MET13908/02/24 05:51:02 METAR KPHX 021251Z 00000KT 10SM FEW070 FEW120 FEW150 34/15 A3000 RMK AO2 SLP137 CB DSNT W VIRGA DSNT E-SE T03390150 (GEH),FM-15,7,,,,,,,,,,,,,,,,,,,,,,,,,,,03-04-2007 00:00
72278023183,02-08-2024 06:51,FM-15,7,,N,0.5,mi,"TEMP, PRECIP",1107,,"MXMN, SRG",33.4442,-112.0247,CONTRACTOR,,,,,,,,,,,,,,,,,,,,,,,,,,,,30,62,94,0,,,,35,29.93,FEW:02 70 FEW:02 120 SCT:04 200,28.82,10,73,320,,7,,,,,,,,,,,,,,,,,,,,,,,,,,,,,,,,,,,,,MET11308/02/24 06:51:02 METAR KPHX 021351Z 32006KT 10SM FEW070 FEW120 SCT200 34/17 A3000 RMK AO2 SLP136 T03440167 (GEH),FM-15,7,,,,,,,,,,,,,,,,,,,,,,,,,,,03-04-2007 00:00
72278023183,02-08-2024 07:51,FM-15,7,,N,0.5,mi,"TEMP, PRECIP",1107,,"MXMN, SRG",33.4442,-112.0247,CONTRACTOR,,,,,,,,,,,,,,,,,,,,,,,,,,,,30.02,63,96,0,,-0.02,3,34,29.95,FEW:02 70 FEW:02 120 SCT:04 170,28.84,10,74,VRB,,3,,,,,,,,,,,,,,,,,,,,,,,,,,,,,,,,,,,,,MET11808/02/24 07:51:02 METAR KPHX 021451Z VRB03KT 10SM FEW070 FEW120 SCT170 36/17 A3002 RMK AO2 SLP142 T03560172 53008 (SH),FM-15,7,,,,,,,,,,,,,,,,,,,,,,,,,,,03-04-2007 00:00
72278023183,02-08-2024 08:00,FM-12,4,,N,0.5,mi,"TEMP, PRECIP",1107,,"MXMN, SRG",33.4442,-112.0247,CONTRACTOR,,,,,,,,,,,,,,,,,,,,,,,,,,,,,63,96,,,-0.02,3,34,29.95,74,28.84,9.94,74,,,3,,,,,,,,,,,,,,,,,,,,,,,,,,,,,,,,,,,,,SYN06472278 32866 6//03 10356 20172 39767 40142 53008 91451 555 90215=,FM-12,4,,,,,,,,,,,,,,,,,,,,,,,,,,,03-04-2007 00:00
72278023183,02-08-2024 08:51,FM-15,7,,N,0.5,mi,"TEMP, PRECIP",1107,,"MXMN, SRG",33.4442,-112.0247,CONTRACTOR,,,,,,,,,,,,,,,,,,,,,,,,,,,,30.01,60,98,0,,,,28,29.95,FEW:02 70 FEW:02 120 FEW:02 170,28.83,10,73,70,,9,,,,,,,,,,,,,,,,,,,,,,,,,,,,,,,,,,,,,MET11208/02/24 08:51:02 METAR KPHX 021551Z 07008KT 10SM FEW070 FEW120 FEW170 37/16 A3001 RMK AO2 SLP141 T03670156 (SH),FM-15,7,,,,,,,,,,,,,,,,,,,,,,,,,,,03-04-2007 00:00
72278023183,02-08-2024 09:51,FM-15,7,,N,0.5,mi,"TEMP, PRECIP",1107,,"MXMN, SRG",33.4442,-112.0247,CONTRACTOR,,,,,,,,,,,,,,,,,,,,,,,,,,,,30.01,60,102,0,,,,25,29.94,FEW:02 70 FEW:02 120 FEW:02 170,28.83,10,74,140,,8,,,,,,,,,,,,,,,,,,,,,,,,,,,,,,,,,,,,,MET11208/02/24 09:51:02 METAR KPHX 021651Z 14007KT 10SM FEW070 FEW120 FEW170 39/16 A3001 RMK AO2 SLP140 T03890156 (SH),FM-15,7,,,,,,,,,,,,,,,,,,,,,,,,,,,03-04-2007 00:00
72278023183,02-08-2024 10:51,FM-15,7,,N,0.5,mi,"TEMP, PRECIP",1107,,"MXMN, SRG",33.4442,-112.0247,CONTRACTOR,,,,,,,,,,,,,,,,,,,,,,,,,,,,30.01,60,103,0,,0.01,8,24,29.94,FEW:02 70 FEW:02 120 FEW:02 170,28.83,10,74,VRB,,6,,,,,,,,,,,,,,,,,,,,,,,,,,,,,,,,,,,,,MET13008/02/24 10:51:02 METAR KPHX 021751Z VRB05KT 10SM FEW070 FEW120 FEW170 39/16 A3001 RMK AO2 SLP139 T03940156 10394 20339 58002 (SH),FM-15,7,,,,,,,,,,,,,,,,,,,,,,,,,,,03-04-2007 00:00
72278023183,02-08-2024 11:00,FM-12,4,,N,0.5,mi,"TEMP, PRECIP",1107,,"MXMN, SRG",33.4442,-112.0247,CONTRACTOR,,,,,,,,,,,,,,,,,,,,,,,,,,,,,60,103,,,0.01,8,24,29.94,74,28.83,9.94,74,,,6,,,,,,,,,,,,,,,,,,,,,,,,,,,,,,,,,,,,,SYN08072278 32866 6//05 10394 20156 39764 40139 58002 91751 333 10394 20339 555 90218=,FM-12,4,,,,,,,,,,,,,,,,,,,,,,,,,,,03-04-2007 00:00
72278023183,02-08-2024 11:51,FM-15,7,,N,0.5,mi,"TEMP, PRECIP",1107,,"MXMN, SRG",33.4442,-112.0247,CONTRACTOR,,,,,,,,,,,,,,,,,,,,,,,,,,,,30,60,103,0,,,,24,29.93,FEW:02 70 FEW:02 120 BKN:07 170,28.82,10,74,VRB,,5,,,,,,,,,,,,,,,,,,,,,,,,,,,,,,,,,,,,,MET11208/02/24 11:51:02 METAR KPHX 021851Z VRB04KT 10SM FEW070 FEW120 BKN170 39/16 A3000 RMK AO2 SLP135 T03940156 (SH),FM-15,7,,,,,,,,,,,,,,,,,,,,,,,,,,,03-04-2007 00:00
72278023183,02-08-2024 12:51,FM-15,7,,N,0.5,mi,"TEMP, PRECIP",1107,,"MXMN, SRG",33.4442,-112.0247,CONTRACTOR,,,,,,,,,,,,,,,,,,,,,,,,,,,,29.97,59,107,0,,,,21,29.9,FEW:02 70 FEW:02 120 SCT:04 170,28.79,10,75,VRB,,3,,,,,,,,,,,,,,,,,,,,,,,,,,,,,,,,,,,,,MET13008/02/24 12:51:02 METAR KPHX 021951Z VRB03KT 10SM FEW070 FEW120 SCT170 42/15 A2997 RMK AO2 SLP124 CB DSNT NE AND NW T04170150 (SH),FM-15,7,,,,,,,,,,,,,,,,,,,,,,,,,,,03-04-2007 00:00
72278023183,02-08-2024 13:51,FM-15,7,,N,0.5,mi,"TEMP, PRECIP",1107,,"MXMN, SRG",33.4442,-112.0247,CONTRACTOR,,,,,,,,,,,,,,,,,,,,,,,,,,,,29.94,58,108,0,,0.07,8,19,29.86,FEW:02 70 FEW:02 170 FEW:02 200,28.76,10,74,,,,,,,,,,,,,,,,,,,,,,,,,,,,,,,,,,,,,,,,MET14208/02/24 13:51:02 METAR KPHX 022051Z      KT 10SM FEW070 FEW170 FEW200 42/14 A2994 RMK AO2 SLP113 CB DSNT N-NE S W AND NW T04220144 58024 (SH),FM-15,7,,,,,,,,,,,,,,,,,,,,,,,,,,,03-04-2007 00:00
72278023183,02-08-2024 13:54,FM-16,7,,N,0.5,mi,"TEMP, PRECIP",1107,,"MXMN, SRG",33.4442,-112.0247,CONTRACTOR,,,,,,,,,,,,,,,,,,,,,,,,,,,,29.94,58,108,,,,,19,,FEW:02 70 FEW:02 170 FEW:02 200,28.76,10,74,250,,5,,,,,,,,,,,,,,,,,,,,,,,,,,,,,,,,,,,,,MET12908/02/24 13:54:02 SPECI KPHX 022054Z 25004KT 10SM FEW070 FEW170 FEW200 42/14 A2994 RMK AO2 CB DSNT N-NE S W AND NW T04220144 (SH),FM-16,7,,,,,,,,,,,,,,,,,,,,,,,,,,,03-04-2007 00:00
72278023183,02-08-2024 14:51,FM-15,7,,N,0.5,mi,"TEMP, PRECIP",1107,,"MXMN, SRG",33.4442,-112.0247,CONTRACTOR,,,,,,,,,,,,,,,,,,,,,,,,,,,,29.89,56,108,0,,,,18,29.82,FEW:02 70 FEW:02 170 FEW:02 200,28.71,10,73,VRB,,5,,,,,,,,,,,,,,,,,,,,,,,,,,,,,,,,,,,,,MET13608/02/24 14:51:02 METAR KPHX 022151Z VRB04KT 10SM FEW070 FEW170 FEW200 42/13 A2989 RMK AO2 SLP099 CB DSNT N-NE SW AND NW T04220133 (ADH),FM-15,7,,,,,,,,,,,,,,,,,,,,,,,,,,,03-04-2007 00:00
72278023183,02-08-2024 15:51,FM-15,7,,N,0.5,mi,"TEMP, PRECIP",1107,,"MXMN, SRG",33.4442,-112.0247,CONTRACTOR,,,,,,,,,,,,,,,,,,,,,,,,,,,,29.87,55,111,0,,,,16,29.8,FEW:02 80 FEW:02 170 SCT:04 250,28.69,10,74,VRB,,3,,,,,,,,,,,,,,,,,,,,,,,,,,,,,,,,,,,,,MET11308/02/24 15:51:02 METAR KPHX 022251Z VRB03KT 10SM FEW080 FEW170 SCT250 44/13 A2987 RMK AO2 SLP090 T04390128 (ADH),FM-15,7,,,,,,,,,,,,,,,,,,,,,,,,,,,03-04-2007 00:00
72278023183,02-08-2024 16:51,FM-15,7,,N,0.5,mi,"TEMP, PRECIP",1107,,"MXMN, SRG",33.4442,-112.0247,CONTRACTOR,,,,,,,,,,,,,,,,,,,,,,,,,,,,29.85,56,110,0,,0.08,6,17,29.78,FEW:02 80 FEW:02 170 SCT:04 250,28.68,10,74,150,,10,,,,,,,,,,,,,,,,,,,,,,,,,,,,,,,,,,,,,MET14108/02/24 16:51:02 METAR KPHX 022351Z 15009KT 10SM FEW080 FEW170 SCT250 43/13 A2985 RMK AO2 SLP085 CB DSNT N T04330133 10444 20389 56028 (ADH),FM-15,7,,,,,,,,,,,,,,,,,,,,,,,,,,,03-04-2007 00:00
72278023183,02-08-2024 17:00,FM-12,4,,N,0.5,mi,"TEMP, PRECIP",1107,,"MXMN, SRG",33.4442,-112.0247,CONTRACTOR,,,,,,,,,,,,,,,,,,,,,,,,,,,,,56,110,,,0.08,6,17,29.78,74,28.68,9.94,74,150,,10,,,,,,,,,,,,,,,,,,,,,,,,,,,,,,,,,,,,,SYN08072278 32866 41509 10433 20133 39712 40085 56028 92351 333 10444 20339 555 90300=,FM-12,4,,,,,,,,,,,,,,,,,,,,,,,,,,,03-04-2007 00:00
72278023183,02-08-2024 17:51,FM-15,7,,N,0.5,mi,"TEMP, PRECIP",1107,,"MXMN, SRG",33.4442,-112.0247,CONTRACTOR,,,,,,,,,,,,,,,,,,,,,,,,,,,,29.84,57,108,0,,,,19,29.77,FEW:02 80 FEW:02 170 SCT:04 250,28.66,10,74,300,,8,,,,,,,,,,,,,,,,,,,,,,,,,,,,,,,,,,,,,MET11808/02/24 17:51:01 METAR KPHX 030051Z 30007KT 10SM FEW080 FEW170 SCT250 42/14 A2984 RMK AO2 SLP081 CB DSNT NW T04220139,FM-15,7,,,,,,,,,,,,,,,,,,,,,,,,,,,03-04-2007 00:00
72278023183,02-08-2024 18:51,FM-15,7,,N,0.5,mi,"TEMP, PRECIP",1107,,"MXMN, SRG",33.4442,-112.0247,CONTRACTOR,,,,,,,,,,,,,,,,,,,,,,,,,,,,29.84,56,108,0,,,,18,29.77,FEW:02 80 FEW:02 170 SCT:04 250,28.66,10,73,0,,0,,,,,,,,,,,,,,,,,,,,,,,,,,,,,,,,,,,,,MET10708/02/24 18:51:01 METAR KPHX 030151Z 00000KT 10SM FEW080 FEW170 SCT250 42/13 A2984 RMK AO2 SLP081 T04220133,FM-15,7,,,,,,,,,,,,,,,,,,,,,,,,,,,03-04-2007 00:00
72278023183,02-08-2024 19:51,FM-15,7,,N,0.5,mi,"TEMP, PRECIP",1107,,"MXMN, SRG",33.4442,-112.0247,CONTRACTOR,,,,,,,,,,,,,,,,,,,,,,,,,,,,29.85,57,108,0,,0,3,19,29.78,FEW:02 80 FEW:02 170 SCT:04 250,28.68,10,74,270,,14,,,,,,,,,,,,,,,,,,,,,,,,,,,,,,,,,,,,,MET14808/02/24 19:51:02 METAR KPHX 030251Z 27012KT 10SM FEW080 FEW170 SCT250 42/14 A2985 RMK AO2 SLP086 FRQ LTGICCG DSNT E-SE CB DSNT E-SE T04220139 53001,FM-15,7,,,,,,,,,,,,,,,,,,,,,,,,,,,03-04-2007 00:00
72278023183,02-08-2024 20:00,FM-12,4,,N,0.5,mi,"TEMP, PRECIP",1107,,"MXMN, SRG",33.4442,-112.0247,CONTRACTOR,,,,,,,,,,,,,,,,,,,,,,,,,,,,,57,108,,,0,3,19,29.78,74,28.68,9.94,74,270,,14,,,,,,,,,,,,,,,,,,,,,,,,,,,,,,,,,,,,,SYN06472278 32866 42712 10422 20139 39712 40086 53001 90251 555 90303=,FM-12,4,,,,,,,,,,,,,,,,,,,,,,,,,,,03-04-2007 00:00
72278023183,02-08-2024 20:51,FM-15,7,,N,0.5,mi,"TEMP, PRECIP",1107,,"MXMN, SRG",33.4442,-112.0247,CONTRACTOR,,,,,,,,,,,,,,,,,,,,,,,,,,,,29.88,56,106,0,,,,19,29.81,FEW:02 80 FEW:02 170 SCT:04 250,28.7,10,73,260,,9,,,,,,,,,,,,,,,,,,,,,,,,,,,,,,,,,,,,,MET14308/02/24 20:51:02 METAR KPHX 030351Z 26008KT 10SM FEW080 FEW170 SCT250 41/13 A2988 RMK AO2 SLP094 CONS LTGICCG DSNT NE-E CB DSNT NE-E T04110133,FM-15,7,,,,,,,,,,,,,,,,,,,,,,,,,,,03-04-2007 00:00
72278023183,02-08-2024 21:51,FM-15,7,,N,0.5,mi,"TEMP, PRECIP",1107,,"MXMN, SRG",33.4442,-112.0247,CONTRACTOR,,,,,,,,,,,,,,,,,,,,,,,,,,,,29.9,57,106,0,,,,20,29.82,FEW:02 80 SCT:04 170 BKN:07 250,28.72,10,73,290,,9,,,,,,,,,,,,,,,,,,,,,,,,,,,,,,,,,,,,,MET14308/02/24 21:51:02 METAR KPHX 030451Z 29008KT 10SM FEW080 SCT170 BKN250 41/14 A2990 RMK AO2 SLP099 CONS LTGICCG DSNT NE-E CB DSNT NE-E T04110139,FM-15,7,,,,,,,,,,,,,,,,,,,,,,,,,,,03-04-2007 00:00
72278023183,02-08-2024 22:41,FM-16,7,,N,0.5,mi,"TEMP, PRECIP",1107,,"MXMN, SRG",33.4442,-112.0247,CONTRACTOR,,,,,,,,,,,,,,,,,,,,,,,,,,,,29.92,58,102,,,,,23,,FEW:02 80 SCT:04 170 BKN:07 250,28.74,10,73,120,20,9,,,,,,,,,,,,,,,,,,,,,,,,,,,,,,,,,,,,,MET13908/02/24 22:41:02 SPECI KPHX 030541Z 12008G17KT 10SM FEW080 SCT170 BKN250 39/14 A2992 RMK AO2 CONS LTGICCG DSNT NE-E CB DSNT NE-E T03890144,FM-16,7,,,,,,,,,,,,,,,,,,,,,,,,,,,03-04-2007 00:00
72278023183,02-08-2024 22:51,FM-15,7,,N,0.5,mi,"TEMP, PRECIP",1107,,"MXMN, SRG",33.4442,-112.0247,CONTRACTOR,,,,,,,,,,,,,,,,,,,,,,,,,,,,29.92,57,102,0,,-0.06,2,23,29.85,FEW:02 80 SCT:04 170 BKN:07 250,28.74,10,72,110,,9,,,,,,,,,,,,,,,,,,,,,,,,,,,,,,,,,,,,,MET16008/02/24 22:51:02 METAR KPHX 030551Z 11008KT 10SM FEW080 SCT170 BKN250 39/14 A2992 RMK AO2 SLP107 FRQ LTGICCG DSNT NE-E CB DSNT NE-E T03890139 10439 20389 52022,FM-15,7,,,,,,,,,,,,,,,,,,,,,,,,,,,03-04-2007 00:00
72278023183,02-08-2024 23:00,FM-12,4,,N,0.5,mi,"TEMP, PRECIP",1107,,"MXMN, SRG",33.4442,-112.0247,CONTRACTOR,,,,,,,,,,,,,,,,,,,,,,,,,,,,,57,102,,,-0.06,2,23,29.85,74,28.74,9.94,72,110,,9,,,,,,,,,,,,,,,,,,,,,,,,,,,,,,,,,,,,,SYN08072278 32866 61108 10389 20139 39734 40107 52022 90551 333 10439 20339 555 90306=,FM-12,4,,,,,,,,,,,,,,,,,,,,,,,,,,,03-04-2007 00:00
72278023183,02-08-2024 23:51,FM-15,7,,N,0.5,mi,"TEMP, PRECIP",1107,,"MXMN, SRG",33.4442,-112.0247,CONTRACTOR,,,,,,,,,,,,,,,,,,,,,,,,,,,,29.91,59,100,0,,,,26,29.84,FEW:02 60 SCT:04 120 BKN:07 170,28.73,10,73,70,,10,,,,,,,,,,,,,,,,,,,,,,,,,,,,,,,,,,,,,MET11708/02/24 23:51:02 METAR KPHX 030651Z 07009KT 10SM FEW060 SCT120 BKN170 38/15 A2991 RMK AO2 SLP106 T03780150 404440339,FM-15,7,,,,,,,,,,,,,,,,,,,,,,,,,,,03-04-2007 00:00
72278023183,02-08-2024 23:59,SOD  ,6,,N,0.5,mi,"TEMP, PRECIP",1107,,"MXMN, SRG",33.4442,-112.0247,CONTRACTOR,,,,,,58,103,24,29.87,28.76,73,5.9,38,8.7,0,112,93,350,20,0,,,110,14,,,,,,,,,,,,,,,,,,,,,,,,,,,,,,,,,,,,,,,,,,,,,,,,,,,,,,,,SOD73924 HR PRECIPITATION (IN): 0.00 SNOW DEPTH (IN):0     24 HR SNOWFALL (IN):0.0  24 HR MAX TEMP (F):11224 HR MIN TEMP (F): 93AVERAGE STATION PRESSURE:28.760 MINIMUM SEA LEVEL PRESSURE:29.76 TIME OF OCCURRENCE:1813 PEAK WIND SPEED (MPH): 20 PEAK WIND DIR (DEG):350 PEAK WIND TIME (LST):      FASTEST 2MIN SPEED (MPH): 14FASTEST 2MIN DIR (DEG):110 FASTEST 2MIN TIME (LST):     AVERAGE WIND SPEED (MPH): 5.9 24 HR AVG TEMP (F):103DEPART FROM NORMAL:  8  HEATING DEGREE DAYS:  0 COOLING DEGREE DAYS: 38 LATEST DAY MAX TEMP (0700-1900 LST):112 LATEST NIGHT MIN TEMP(1900-0800 LST):93 HOURLY INCREMENTAL PRECIPITATION VALUES (IN):.00 0.00 0.00 0.00 0.00 0.00 0.00 0.00 0.00 0.00 0.00 0.00 0.00 0.00 0.00 0.00 0.00 0.00 0.00 0.00 0.00 0.00 0.00 0.00,SOD  ,6,,,,,,,,,,,,,,,,,,,,,,,,,542,1926,03-04-2007 00:00
72278023183,03-08-2024 00:51,FM-15,7,,N,0.5,mi,"TEMP, PRECIP",1107,,"MXMN, SRG",33.4442,-112.0247,CONTRACTOR,,,,,,,,,,,,,,,,,,,,,,,,,,,,29.92,57,99,0,,,,25,29.84,BKN:07 170 BKN:07 250,28.74,10,72,90,,8,,,,,,,,,,,,,,,,,,,,,,,,,,,,,,,,,,,,,MET10608/03/24 00:51:02 METAR KPHX 030751Z 09007KT 10SM BKN170 BKN250 37/14 A2992 RMK AO2 SLP106 T03720139 (ANH),FM-15,7,,,,,,,,,,,,,,,,,,,,,,,,,,,03-04-2007 00:00
72278023183,03-08-2024 01:51,FM-15,7,,N,0.5,mi,"TEMP, PRECIP",1107,,"MXMN, SRG",33.4442,-112.0247,CONTRACTOR,,,,,,,,,,,,,,,,,,,,,,,,,,,,29.9,60,97,0,,0.02,8,29,29.83,FEW:02 140 BKN:07 170 OVC:08 250,28.72,10,72,170,,7,,,,,,,,,,,,,,,,,,,,,,,,,,,,,,,,,,,,,MET11908/03/24 01:51:02 METAR KPHX 030851Z 17006KT 10SM FEW140 BKN170 OVC250 36/16 A2990 RMK AO2 SLP100 T03610156 58006 (ANH),FM-15,7,,,,,,,,,,,,,,,,,,,,,,,,,,,03-04-2007 00:00
72278023183,03-08-2024 02:00,FM-12,4,,N,0.5,mi,"TEMP, PRECIP",1107,,"MXMN, SRG",33.4442,-112.0247,CONTRACTOR,,,,,,,,,,,,,,,,,,,,,,,,,,,,,60,97,,,0.02,8,29,29.83,,28.73,9.94,72,170,,7,,,,,,,,,,,,,,,,,,,,,,,,,,,,,,,,,,,,,SYN06472278 32966 81706 10361 20156 39728 40100 58006 90851 555 90309=,FM-12,4,,,,,,,,,,,,,,,,,,,,,,,,,,,03-04-2007 00:00
72278023183,03-08-2024 02:51,FM-15,7,,N,0.5,mi,"TEMP, PRECIP",1107,,"MXMN, SRG",33.4442,-112.0247,CONTRACTOR,,,,,,,,,,,,,,,,,,,,,,,,,,,,29.89,59,96,0,,,,29,29.82,SCT:04 180 BKN:07 250,28.71,10,72,180,,3,,,,,,,,,,,,,,,,,,,,,,,,,,,,,,,,,,,,,MET10608/03/24 02:51:02 METAR KPHX 030951Z 18003KT 10SM SCT180 BKN250 36/15 A2989 RMK AO2 SLP099 T03560150 (ANH),FM-15,7,,,,,,,,,,,,,,,,,,,,,,,,,,,03-04-2007 00:00
72278023183,03-08-2024 03:51,FM-15,7,,N,0.5,mi,"TEMP, PRECIP",1107,,"MXMN, SRG",33.4442,-112.0247,CONTRACTOR,,,,,,,,,,,,,,,,,,,,,,,,,,,,29.89,55,96,0,,,,25,29.82,FEW:02 180 BKN:07 250,28.71,10,70,100,,6,,,,,,,,,,,,,,,,,,,,,,,,,,,,,,,,,,,,,MET10608/03/24 03:51:02 METAR KPHX 031051Z 10005KT 10SM FEW180 BKN250 36/13 A2989 RMK AO2 SLP097 T03560128 (ANH),FM-15,7,,,,,,,,,,,,,,,,,,,,,,,,,,,03-04-2007 00:00
72278023183,03-08-2024 04:51,FM-15,7,,N,0.5,mi,"TEMP, PRECIP",1107,,"MXMN, SRG",33.4442,-112.0247,CONTRACTOR,,,,,,,,,,,,,,,,,,,,,,,,,,,,29.91,58,94,0,,-0.01,3,30,29.83,FEW:02 180 BKN:07 250,28.73,10,71,150,,7,,,,,,,,,,,,,,,,,,,,,,,,,,,,,,,,,,,,,MET12408/03/24 04:51:02 METAR KPHX 031151Z 15006KT 10SM FEW180 BKN250 34/14 A2991 RMK AO2 SLP103 T03440144 10389 20344 53002 (ANH),FM-15,7,,,,,,,,,,,,,,,,,,,,,,,,,,,03-04-2007 00:00
72278023183,03-08-2024 05:00,FM-12,4,,N,0.5,mi,"TEMP, PRECIP",1107,,"MXMN, SRG",33.4442,-112.0247,CONTRACTOR,,,,,,,,,,,,,,,,,,,,,,,,,,,,,58,94,,,-0.01,3,30,29.83,,28.74,9.94,71,150,,7,,,,,,,,,,,,,,,,,,,,,,,,,,,,,,,,,,,,,SYN08072278 32966 61506 10344 20144 39731 40103 53002 91151 333 10444 20344 555 90312=,FM-12,4,,,,,,,,,,,,,,,,,,,,,,,,,,,03-04-2007 00:00
72278023183,03-08-2024 05:49,FM-16,6,,N,0.5,mi,"TEMP, PRECIP",1107,,"MXMN, SRG",33.4442,-112.0247,CONTRACTOR,,,,,,,,,,,,,,,,,,,,,,,,,,,,29.91,55,93,,,,,28,,FEW:02 5 FEW:02 80 SCT:04 150,28.73,10,69,80,,7,,,,,,,,,,,,,,,,,,,,,,,,,,,,,,,,,,,,,MET11108/03/24 05:49:02 SPECI KPHX 031249Z 08006KT 10SM FEW005 FEW080 SCT150 34/13 A2991 RMK AO2 FU FEW005 FIBI (ANH),FM-16,6,,,,,,,,,,,,,,,,,,,,,,,,,,,03-04-2007 00:00
72278023183,03-08-2024 05:51,FM-15,7,,N,0.5,mi,"TEMP, PRECIP",1107,,"MXMN, SRG",33.4442,-112.0247,CONTRACTOR,,,,,,,,,,,,,,,,,,,,,,,,,,,,29.91,56,94,0,,,,28,29.84,FEW:02 5 FEW:02 90 SCT:04 150,28.73,10,70,80,,7,,,,,,,,,,,,,,,,,,,,,,,,,,,,,,,,,,,,,MET12308/03/24 05:51:02 METAR KPHX 031251Z 08006KT 10SM FEW005 FEW090 SCT150 34/13 A2991 RMK AO2 SLP106 FU FEW005 T03440133 (ANH),FM-15,7,,,,,,,,,,,,,,,,,,,,,,,,,,,03-04-2007 00:00
72278023183,03-08-2024 06:51,FM-15,7,,N,0.5,mi,"TEMP, PRECIP",1107,,"MXMN, SRG",33.4442,-112.0247,CONTRACTOR,,,,,,,,,,,,,,,,,,,,,,,,,,,,29.92,58,93,0,,,,31,29.85,FEW:02 10 FEW:02 120 FEW:02 160,28.74,10,70,90,,8,,,,,,,,,,,,,,,,,,,,,,,,,,,,,,,,,,,,,MET12208/03/24 06:51:02 METAR KPHX 031351Z 09007KT 10SM FEW010 FEW120 FEW160 34/14 A2992 RMK AO2 SLP107 FU FEW010 T03390144 (JH),FM-15,7,,,,,,,,,,,,,,,,,,,,,,,,,,,03-04-2007 00:00
72278023183,03-08-2024 07:51,FM-15,7,,N,0.5,mi,"TEMP, PRECIP",1107,,"MXMN, SRG",33.4442,-112.0247,CONTRACTOR,,,,,,,,,,,,,,,,,,,,,,,,,,,,29.92,58,96,0,,-0.01,1,28,29.85,FEW:02 100 FEW:02 140 SCT:04 180,28.74,10,71,130,,7,,,,,,,,,,,,,,,,,,,,,,,,,,,,,,,,,,,,,MET12908/03/24 07:51:02 METAR KPHX 031451Z 13006KT 10SM FEW100 FEW140 SCT180 36/14 A2992 RMK AO2 SLP108 FU DSNT SW T03560144 51004 (JH),FM-15,7,,,,,,,,,,,,,,,,,,,,,,,,,,,03-04-2007 00:00
72278023183,03-08-2024 08:00,FM-12,4,,N,0.5,mi,"TEMP, PRECIP",1107,,"MXMN, SRG",33.4442,-112.0247,CONTRACTOR,,,,,,,,,,,,,,,,,,,,,,,,,,,,,58,96,,,-0.01,1,28,29.85,,28.74,9.94,71,130,,7,,,,,,,,,,,,,,,,,,,,,,,,,,,,,,,,,,,,,SYN06472278 32966 41306 10356 20144 39734 40108 51004 91451 555 90315=,FM-12,4,,,,,,,,,,,,,,,,,,,,,,,,,,,03-04-2007 00:00
72278023183,03-08-2024 08:51,FM-15,7,,N,0.5,mi,"TEMP, PRECIP",1107,,"MXMN, SRG",33.4442,-112.0247,CONTRACTOR,,,,,,,,,,,,,,,,,,,,,,,,,,,,29.91,57,100,0,,,,24,29.84,FEW:02 100 FEW:02 140 SCT:04 180,28.73,10,72,80,,5,,,,,,,,,,,,,,,,,,,,,,,,,,,,,,,,,,,,,MET12308/03/24 08:51:02 METAR KPHX 031551Z 08004KT 10SM FEW100 FEW140 SCT180 38/14 A2991 RMK AO2 SLP105 FU DSNT SW T03780139 (JH),FM-15,7,,,,,,,,,,,,,,,,,,,,,,,,,,,03-04-2007 00:00
72278023183,03-08-2024 09:51,FM-15,7,,N,0.5,mi,"TEMP, PRECIP",1107,,"MXMN, SRG",33.4442,-112.0247,CONTRACTOR,,,,,,,,,,,,,,,,,,,,,,,,,,,,29.91,57,103,0,,,,22,29.84,FEW:02 90 FEW:02 140 FEW:02 180,28.73,10,73,180,,3,,,,,,,,,,,,,,,,,,,,,,,,,,,,,,,,,,,,,MET11208/03/24 09:51:02 METAR KPHX 031651Z 18003KT 10SM FEW090 FEW140 FEW180 39/14 A2991 RMK AO2 SLP104 T03940139 (JH),FM-15,7,,,,,,,,,,,,,,,,,,,,,,,,,,,03-04-2007 00:00
72278023183,03-08-2024 10:51,FM-15,7,,N,0.5,mi,"TEMP, PRECIP",1107,,"MXMN, SRG",33.4442,-112.0247,CONTRACTOR,,,,,,,,,,,,,,,,,,,,,,,,,,,,29.9,55,105,0,,0.02,8,19,29.83,FEW:02 90 FEW:02 140 FEW:02 180,28.72,10,72,VRB,,6,,,,,,,,,,,,,,,,,,,,,,,,,,,,,,,,,,,,,MET14408/03/24 10:51:02 METAR KPHX 031751Z VRB05KT 10SM FEW090 FEW140 FEW180 41/13 A2990 RMK AO2 SLP100 TCU DSNT NW T04060128 10417 20333 58006 $ (JH),FM-15,7,,,,,,,,,,,,,,,,,,,,,,,,,,,03-04-2007 00:00
72278023183,03-08-2024 11:00,FM-12,4,,N,0.5,mi,"TEMP, PRECIP",1107,,"MXMN, SRG",33.4442,-112.0247,CONTRACTOR,,,,,,,,,,,,,,,,,,,,,,,,,,,,,55,105,,,0.02,8,19,29.83,,28.73,9.94,72,,,6,,,,,,,,,,,,,,,,,,,,,,,,,,,,,,,,,,,,,SYN08072278 32966 4//05 10406 20128 39728 40100 58006 91751 333 10417 20333 555 90318=,FM-12,4,,,,,,,,,,,,,,,,,,,,,,,,,,,03-04-2007 00:00
72278023183,03-08-2024 11:51,FM-15,7,,N,0.5,mi,"TEMP, PRECIP",1107,,"MXMN, SRG",33.4442,-112.0247,CONTRACTOR,,,,,,,,,,,,,,,,,,,,,,,,,,,,29.88,55,108,0,,,,17,29.8,FEW:02 90 FEW:02 180 FEW:02 250,28.7,10,73,230,,7,,,,,,,,,,,,,,,,,,,,,,,,,,,,,,,,,,,,,MET13308/03/24 11:51:02 METAR KPHX 031851Z 23006KT 10SM FEW090 FEW180 FEW250 42/13 A2988 RMK AO2 SLP092 CB DSNT E AND NW-N T04220128 $ (JH),FM-15,7,,,,,,,,,,,,,,,,,,,,,,,,,,,03-04-2007 00:00
72278023183,03-08-2024 12:51,FM-15,7,,N,0.5,mi,"TEMP, PRECIP",1107,,"MXMN, SRG",33.4442,-112.0247,CONTRACTOR,,,,,,,,,,,,,,,,,,,,,,,,,,,,29.85,55,108,0,,,,17,29.78,FEW:02 90 FEW:02 180 FEW:02 250,28.68,10,73,VRB,,3,,,,,,,,,,,,,,,,,,,,,,,,,,,,,,,,,,,,,MET12408/03/24 12:51:02 METAR KPHX 031951Z VRB03KT 10SM FEW090 FEW180 FEW250 42/13 A2985 RMK AO2 SLP083 CB DSNT N T04220128 $ (JH),FM-15,7,,,,,,,,,,,,,,,,,,,,,,,,,,,03-04-2007 00:00
72278023183,03-08-2024 13:51,FM-15,7,,N,0.5,mi,"TEMP, PRECIP",1107,,"MXMN, SRG",33.4442,-112.0247,CONTRACTOR,,,,,,,,,,,,,,,,,,,,,,,,,,,,29.82,54,110,0,,0.08,8,16,29.75,FEW:02 90 FEW:02 180 FEW:02 250,28.65,10,73,VRB,,5,,,,,,,,,,,,,,,,,,,,,,,,,,,,,,,,,,,,,MET14208/03/24 13:51:02 METAR KPHX 032051Z VRB04KT 10SM FEW090 FEW180 FEW250 43/12 A2982 RMK AO2 SLP073 CB DSNT SE-S AND NW-N T04330122 58026 $ (JH),FM-15,7,,,,,,,,,,,,,,,,,,,,,,,,,,,03-04-2007 00:00
72278023183,03-08-2024 14:51,FM-15,7,,N,0.5,mi,"TEMP, PRECIP",1107,,"MXMN, SRG",33.4442,-112.0247,CONTRACTOR,,,,,,,,,,,,,,,,,,,,,,,,,,,,29.78,54,112,0,,,,15,29.71,FEW:02 90 FEW:02 180 SCT:04 250,28.61,10,74,260,,6,,,,,,,,,,,,,,,,,,,,,,,,,,,,,,,,,,,,,MET13308/03/24 14:51:02 METAR KPHX 032151Z 26005KT 10SM FEW090 FEW180 SCT250 44/12 A2978 RMK AO2 SLP060 CB DSNT SE AND NW T04440122 $ (ADH),FM-15,7,,,,,,,,,,,,,,,,,,,,,,,,,,,03-04-2007 00:00
72278023183,03-08-2024 15:51,FM-15,7,,N,0.5,mi,"TEMP, PRECIP",1107,,"MXMN, SRG",33.4442,-112.0247,CONTRACTOR,,,,,,,,,,,,,,,,,,,,,,,,,,,,29.75,53,113,0,,,,14,29.67,FEW:02 90 FEW:02 180 SCT:04 250,28.58,10,73,220,,9,,,,,,,,,,,,,,,,,,,,,,,,,,,,,,,,,,,,,MET13508/03/24 15:51:02 METAR KPHX 032251Z 22008KT 10SM FEW090 FEW180 SCT250 45/12 A2975 RMK AO2 SLP048 CB DSNT SE AND NW-N T04500117 $ (ADH),FM-15,7,,,,,,,,,,,,,,,,,,,,,,,,,,,03-04-2007 00:00
72278023183,03-08-2024 16:51,FM-15,7,,N,0.5,mi,"TEMP, PRECIP",1107,,"MXMN, SRG",33.4442,-112.0247,CONTRACTOR,,,,,,,,,,,,,,,,,,,,,,,,,,,,29.73,52,113,0,,0.09,6,13,29.66,FEW:02 90 FEW:02 180 SCT:04 250,28.56,10,73,VRB,,5,,,,,,,,,,,,,,,,,,,,,,,,,,,,,,,,,,,,,MET15608/03/24 16:51:02 METAR KPHX 032351Z VRB04KT 10SM FEW090 FEW180 SCT250 45/11 A2973 RMK AO2 SLP043 CB DSNT NW TCU DSNT NE T04500111 10467 20406 56029 $ (ADH),FM-15,7,,,,,,,,,,,,,,,,,,,,,,,,,,,03-04-2007 00:00
72278023183,03-08-2024 17:00,FM-12,4,,N,0.5,mi,"TEMP, PRECIP",1107,,"MXMN, SRG",33.4442,-112.0247,CONTRACTOR,,,,,,,,,,,,,,,,,,,,,,,,,,,,,52,113,,,0.09,6,13,29.66,,28.56,9.94,73,,,5,,,,,,,,,,,,,,,,,,,,,,,,,,,,,,,,,,,,,SYN08072278 32966 4//04 10450 20111 39672 40043 56029 92351 333 10467 20344 555 90400=,FM-12,4,,,,,,,,,,,,,,,,,,,,,,,,,,,03-04-2007 00:00
72278023183,03-08-2024 17:51,FM-15,7,,N,0.5,mi,"TEMP, PRECIP",1107,,"MXMN, SRG",33.4442,-112.0247,CONTRACTOR,,,,,,,,,,,,,,,,,,,,,,,,,,,,29.72,50,112,0,,,,13,29.64,FEW:02 90 FEW:02 180 SCT:04 250,28.55,10,72,270,,8,,,,,,,,,,,,,,,,,,,,,,,,,,,,,,,,,,,,,MET13008/03/24 17:51:01 METAR KPHX 040051Z 27007KT 10SM FEW090 FEW180 SCT250 44/10 A2972 RMK AO2 SLP038 CB DSNT NE SE AND NW T04440100 $,FM-15,7,,,,,,,,,,,,,,,,,,,,,,,,,,,03-04-2007 00:00
72278023183,03-08-2024 18:51,FM-15,7,,N,0.5,mi,"TEMP, PRECIP",1107,,"MXMN, SRG",33.4442,-112.0247,CONTRACTOR,,,,,,,,,,,,,,,,,,,,,,,,,,,,29.73,49,112,0,,,,12,29.65,FEW:02 90 FEW:02 180 SCT:04 250,28.56,10,72,VRB,,5,,,,,,,,,,,,,,,,,,,,,,,,,,,,,,,,,,,,,MET11908/03/24 18:51:01 METAR KPHX 040151Z VRB04KT 10SM FEW090 FEW180 SCT250 44/09 A2973 RMK AO2 SLP041 CB DSNT S T04440094 $,FM-15,7,,,,,,,,,,,,,,,,,,,,,,,,,,,03-04-2007 00:00
72278023183,03-08-2024 19:51,FM-15,7,,N,0.5,mi,"TEMP, PRECIP",1107,,"MXMN, SRG",33.4442,-112.0247,CONTRACTOR,,,,,,,,,,,,,,,,,,,,,,,,,,,,29.75,51,111,0,,-0.01,3,14,29.67,FEW:02 90 SCT:04 180 BKN:07 250,28.58,10,72,290,,14,,,,,,,,,,,,,,,,,,,,,,,,,,,,,,,,,,,,,MET18108/03/24 19:51:02 METAR KPHX 040251Z 29012KT 10SM FEW090 SCT180 BKN250 44/11 A2975 RMK AO2 SLP048 CONS LTGICCACG DSNT NE AND S-SW CB DSNT NE AND S-SW SHRA DSNT S-W T04390106 53005 $,FM-15,7,,,,,,,,,,,,,,,,,,,,,,,,,,,03-04-2007 00:00
72278023183,03-08-2024 20:00,FM-12,4,,N,0.5,mi,"TEMP, PRECIP",1107,,"MXMN, SRG",33.4442,-112.0247,CONTRACTOR,,,,,,,,,,,,,,,,,,,,,,,,,,,,,51,111,,,-0.01,3,14,29.67,,28.58,9.94,72,290,,14,,,,,,,,,,,,,,,,,,,,,,,,,,,,,,,,,,,,,SYN06472278 32966 62912 10439 20106 39679 40048 53005 90251 555 90403=,FM-12,4,,,,,,,,,,,,,,,,,,,,,,,,,,,03-04-2007 00:00
72278023183,03-08-2024 20:51,FM-15,7,,N,0.5,mi,"TEMP, PRECIP",1107,,"MXMN, SRG",33.4442,-112.0247,CONTRACTOR,,,,,,,,,,,,,,,,,,,,,,,,,,,,29.78,55,106,0,,,,19,29.7,FEW:02 90 SCT:04 150 BKN:07 250,28.61,10,72,250,25,15,,,,,,,,,,,,,,,,,,,,,,,,,,,,,,,,,,,,,MET14508/03/24 20:51:02 METAR KPHX 040351Z 25013G22KT 10SM FEW090 SCT150 BKN250 41/13 A2978 RMK AO2 SLP059 FRQ LTGICCACC DSNT SW CB DSNT SW T04110128 $,FM-15,7,,,,,,,,,,,,,,,,,,,,,,,,,,,03-04-2007 00:00
72278023183,03-08-2024 20:56,FM-16,7,,N,0.5,mi,"TEMP, PRECIP",1107,,"MXMN, SRG",33.4442,-112.0247,CONTRACTOR,,,,,,,,,,,,,,,,,,,,,,,,,,,,29.78,56,105,,,,,20,,FEW:02 90 SCT:04 150 BKN:07 250,28.61,10,73,240,30,23,,,,,,,,,,,,,,,,,,,,,,,,,,,,,,,,,,,,,MET16708/03/24 20:56:02 SPECI KPHX 040356Z 24020G26KT 10SM FEW090 SCT150 BKN250 41/13 A2978 RMK AO2 PK WND 25026/0355 WSHFT 0341 FRQ LTGICCACC DSNT SW CB DSNT SW T04060133 $,FM-16,7,,,,,,,,,,,,,,,,,,,,,,,,,,,03-04-2007 00:00
72278023183,03-08-2024 21:51,FM-15,7,,N,0.5,mi,"TEMP, PRECIP",1107,,"MXMN, SRG",33.4442,-112.0247,CONTRACTOR,,,,,,,,,,,,,,,,,,,,,,,,,,,,29.8,57,104,0,,,,21,29.72,FEW:02 90 FEW:02 150 BKN:07 250,28.63,10,73,260,,11,,,,,,,,,,,,,,,,,,,,,,,,,,,,,,,,,,,,,MET13808/03/24 21:51:02 METAR KPHX 040451Z 26010KT 10SM FEW090 FEW150 BKN250 40/14 A2980 RMK AO2 PK WND 25026/0355 WSHFT 0341 SLP066 T04000139 $,FM-15,7,,,,,,,,,,,,,,,,,,,,,,,,,,,03-04-2007 00:00
72278023183,03-08-2024 22:51,FM-15,7,,N,0.5,mi,"TEMP, PRECIP",1107,,"MXMN, SRG",33.4442,-112.0247,CONTRACTOR,,,,,,,,,,,,,,,,,,,,,,,,,,,,29.8,57,103,0,,-0.05,0,22,29.72,FEW:02 90 FEW:02 150 BKN:07 250,28.63,10,73,280,,14,,,,,,,,,,,,,,,,,,,,,,,,,,,,,,,,,,,,,MET12708/03/24 22:51:02 METAR KPHX 040551Z 28012KT 10SM FEW090 FEW150 BKN250 39/14 A2980 RMK AO2 SLP065 T03940139 10456 20394 50017 $,FM-15,7,,,,,,,,,,,,,,,,,,,,,,,,,,,03-04-2007 00:00
72278023183,03-08-2024 23:00,FM-12,4,,N,0.5,mi,"TEMP, PRECIP",1107,,"MXMN, SRG",33.4442,-112.0247,CONTRACTOR,,,,,,,,,,,,,,,,,,,,,,,,,,,,,57,103,,,0.05,9,22,29.72,,28.63,9.94,73,280,,14,,,,,,,,,,,,,,,,,,,,,,,,,,,,,,,,,,,,,SYN08072278 32966 62812 10394 20139 39695 40065 50017 90551 333 10456 20344 555 90406=,FM-12,4,,,,,,,,,,,,,,,,,,,,,,,,,,,03-04-2007 00:00
72278023183,03-08-2024 23:51,FM-15,7,,N,0.5,mi,"TEMP, PRECIP",1107,,"MXMN, SRG",33.4442,-112.0247,CONTRACTOR,,,,,,,,,,,,,,,,,,,,,,,,,,,,29.8,56,102,0,,,,22,29.72,FEW:02 90 FEW:02 170 SCT:04 250,28.63,10,72,300,,10,,,,,,,,,,,,,,,,,,,,,,,,,,,,,,,,,,,,,MET11908/03/24 23:51:02 METAR KPHX 040651Z 30009KT 10SM FEW090 FEW170 SCT250 39/13 A2980 RMK AO2 SLP066 T03890133 404670333 $,FM-15,7,,,,,,,,,,,,,,,,,,,,,,,,,,,03-04-2007 00:00
72278023183,03-08-2024 23:59,SOD  ,6,,N,0.5,mi,"TEMP, PRECIP",1107,,"MXMN, SRG",33.4442,-112.0247,CONTRACTOR,,,,,,55,104,21,29.77,28.65,72,7.4,39,9.8,0,116,92,250,30,0,,,240,24,,,,,,,,,,,,,,,,,,,,,,,,,,,,,,,,,,,,,,,,,,,,,,,,,,,,,,,,SOD73924 HR PRECIPITATION (IN): 0.00 SNOW DEPTH (IN):0     24 HR SNOWFALL (IN):0.0  24 HR MAX TEMP (F):11624 HR MIN TEMP (F): 92AVERAGE STATION PRESSURE:28.650 MINIMUM SEA LEVEL PRESSURE:29.64 TIME OF OCCURRENCE:1825 PEAK WIND SPEED (MPH): 30 PEAK WIND DIR (DEG):250 PEAK WIND TIME (LST):      FASTEST 2MIN SPEED (MPH): 24FASTEST 2MIN DIR (DEG):240 FASTEST 2MIN TIME (LST):     AVERAGE WIND SPEED (MPH): 7.4 24 HR AVG TEMP (F):104DEPART FROM NORMAL:  9  HEATING DEGREE DAYS:  0 COOLING DEGREE DAYS: 39 LATEST DAY MAX TEMP (0700-1900 LST):116 LATEST NIGHT MIN TEMP(1900-0800 LST):92 HOURLY INCREMENTAL PRECIPITATION VALUES (IN):.00 0.00 0.00 0.00 0.00 0.00 0.00 0.00 0.00 0.00 0.00 0.00 0.00 0.00 0.00 0.00 0.00 0.00 0.00 0.00 0.00 0.00 0.00 0.00,SOD  ,6,,,,,,,,,,,,,,,,,,,,,,,,,543,1925,03-04-2007 00:00
72278023183,04-08-2024 00:51,FM-15,7,,N,0.5,mi,"TEMP, PRECIP",1107,,"MXMN, SRG",33.4442,-112.0247,CONTRACTOR,,,,,,,,,,,,,,,,,,,,,,,,,,,,29.8,55,100,0,,,,22,29.72,FEW:02 110 FEW:02 180 SCT:04 250,28.63,10,71,340,,5,,,,,,,,,,,,,,,,,,,,,,,,,,,,,,,,,,,,,MET11508/04/24 00:51:02 METAR KPHX 040751Z 34004KT 10SM FEW110 FEW180 SCT250 38/13 A2980 RMK AO2 SLP065 T03780128 $ (ANH),FM-15,7,,,,,,,,,,,,,,,,,,,,,,,,,,,03-04-2007 00:00
72278023183,04-08-2024 01:51,FM-15,7,,N,0.5,mi,"TEMP, PRECIP",1107,,"MXMN, SRG",33.4442,-112.0247,CONTRACTOR,,,,,,,,,,,,,,,,,,,,,,,,,,,,29.81,57,99,0,,-0.01,3,25,29.73,FEW:02 250,28.64,10,71,100,,3,,,,,,,,,,,,,,,,,,,,,,,,,,,,,,,,,,,,,MET10708/04/24 01:51:02 METAR KPHX 040851Z 10003KT 10SM FEW250 37/14 A2981 RMK AO2 SLP069 T03720139 53003 $ (ANH),FM-15,7,,,,,,,,,,,,,,,,,,,,,,,,,,,03-04-2007 00:00
72278023183,04-08-2024 02:00,FM-12,4,,N,0.5,mi,"TEMP, PRECIP",1107,,"MXMN, SRG",33.4442,-112.0247,CONTRACTOR,,,,,,,,,,,,,,,,,,,,,,,,,,,,,57,99,,,-0.01,3,25,29.73,,28.64,9.94,71,100,,3,,,,,,,,,,,,,,,,,,,,,,,,,,,,,,,,,,,,,SYN06472278 32966 21003 10372 20139 39698 40069 53003 90851 555 90409=,FM-12,4,,,,,,,,,,,,,,,,,,,,,,,,,,,03-04-2007 00:00
72278023183,04-08-2024 02:51,FM-15,7,,N,0.5,mi,"TEMP, PRECIP",1107,,"MXMN, SRG",33.4442,-112.0247,CONTRACTOR,,,,,,,,,,,,,,,,,,,,,,,,,,,,29.81,58,97,0,,,,27,29.73,FEW:02 180,28.64,10,71,160,,7,,,,,,,,,,,,,,,,,,,,,,,,,,,,,,,,,,,,,MET10108/04/24 02:51:02 METAR KPHX 040951Z 16006KT 10SM FEW180 36/14 A2981 RMK AO2 SLP069 T03610144 $ (ANH),FM-15,7,,,,,,,,,,,,,,,,,,,,,,,,,,,03-04-2007 00:00
72278023183,04-08-2024 03:51,FM-15,7,,N,0.5,mi,"TEMP, PRECIP",1107,,"MXMN, SRG",33.4442,-112.0247,CONTRACTOR,,,,,,,,,,,,,,,,,,,,,,,,,,,,29.81,59,96,0,,,,29,29.74,FEW:02 180,28.64,10,72,110,,10,,,,,,,,,,,,,,,,,,,,,,,,,,,,,,,,,,,,,MET10108/04/24 03:51:02 METAR KPHX 041051Z 11009KT 10SM FEW180 36/15 A2981 RMK AO2 SLP070 T03560150 $ (ANH),FM-15,7,,,,,,,,,,,,,,,,,,,,,,,,,,,03-04-2007 00:00
72278023183,04-08-2024 04:51,FM-15,7,,N,0.5,mi,"TEMP, PRECIP",1107,,"MXMN, SRG",33.4442,-112.0247,CONTRACTOR,,,,,,,,,,,,,,,,,,,,,,,,,,,,29.8,60,95,0,,0,8,31,29.73,FEW:02 150 FEW:02 200,28.63,10,72,90,,6,,,,,,,,,,,,,,,,,,,,,,,,,,,,,,,,,,,,,MET12608/04/24 04:51:02 METAR KPHX 041151Z 09005KT 10SM FEW150 FEW200 35/16 A2980 RMK AO2 SLP068 T03500156 10400 20344 58001 $ (ANH),FM-15,7,,,,,,,,,,,,,,,,,,,,,,,,,,,03-04-2007 00:00
72278023183,04-08-2024 05:00,FM-12,4,,N,0.5,mi,"TEMP, PRECIP",1107,,"MXMN, SRG",33.4442,-112.0247,CONTRACTOR,,,,,,,,,,,,,,,,,,,,,,,,,,,,,60,95,,,0,8,31,29.73,,28.63,9.94,72,90,,6,,,,,,,,,,,,,,,,,,,,,,,,,,,,,,,,,,,,,SYN08072278 32966 20905 10350 20156 39695 40068 58001 91151 333 10467 20344 555 90412=,FM-12,4,,,,,,,,,,,,,,,,,,,,,,,,,,,03-04-2007 00:00
72278023183,04-08-2024 05:51,FM-15,7,,N,0.5,mi,"TEMP, PRECIP",1107,,"MXMN, SRG",33.4442,-112.0247,CONTRACTOR,,,,,,,,,,,,,,,,,,,,,,,,,,,,29.82,59,95,0,,,,30,29.75,FEW:02 120 SCT:04 160 SCT:04 200,28.65,10,71,80,,3,,,,,,,,,,,,,,,,,,,,,,,,,,,,,,,,,,,,,MET11508/04/24 05:51:02 METAR KPHX 041251Z 08003KT 10SM FEW120 SCT160 SCT200 35/15 A2982 RMK AO2 SLP073 T03500150 $ (ANH),FM-15,7,,,,,,,,,,,,,,,,,,,,,,,,,,,03-04-2007 00:00
72278023183,04-08-2024 06:51,FM-15,7,,N,0.5,mi,"TEMP, PRECIP",1107,,"MXMN, SRG",33.4442,-112.0247,CONTRACTOR,,,,,,,,,,,,,,,,,,,,,,,,,,,,29.84,60,96,0,,,,30,29.76,FEW:02 140 SCT:04 180 SCT:04 230,28.66,10,72,90,,5,,,,,,,,,,,,,,,,,,,,,,,,,,,,,,,,,,,,,MET11408/04/24 06:51:02 METAR KPHX 041351Z 09004KT 10SM FEW140 SCT180 SCT230 36/16 A2984 RMK AO2 SLP079 T03560156 $ (JH),FM-15,7,,,,,,,,,,,,,,,,,,,,,,,,,,,03-04-2007 00:00
72278023183,04-08-2024 07:51,FM-15,7,,N,0.5,mi,"TEMP, PRECIP",1107,,"MXMN, SRG",33.4442,-112.0247,CONTRACTOR,,,,,,,,,,,,,,,,,,,,,,,,,,,,29.85,59,100,0,,-0.04,1,26,29.77,FEW:02 140 SCT:04 180 SCT:04 230,28.68,10,73,130,,3,,,,,,,,,,,,,,,,,,,,,,,,,,,,,,,,,,,,,MET12008/04/24 07:51:02 METAR KPHX 041451Z 13003KT 10SM FEW140 SCT180 SCT230 38/15 A2985 RMK AO2 SLP082 T03780150 51014 $ (JH),FM-15,7,,,,,,,,,,,,,,,,,,,,,,,,,,,03-04-2007 00:00
72278023183,04-08-2024 08:00,FM-12,4,,N,0.5,mi,"TEMP, PRECIP",1107,,"MXMN, SRG",33.4442,-112.0247,CONTRACTOR,,,,,,,,,,,,,,,,,,,,,,,,,,,,,59,100,,,-0.04,1,26,29.77,,28.68,9.94,73,130,,3,,,,,,,,,,,,,,,,,,,,,,,,,,,,,,,,,,,,,SYN06472278 32966 41303 10378 20150 39712 40082 51014 91451 555 90415=,FM-12,4,,,,,,,,,,,,,,,,,,,,,,,,,,,03-04-2007 00:00
72278023183,04-08-2024 08:51,FM-15,7,,N,0.5,mi,"TEMP, PRECIP",1107,,"MXMN, SRG",33.4442,-112.0247,CONTRACTOR,,,,,,,,,,,,,,,,,,,,,,,,,,,,29.84,58,103,0,,,,23,29.77,FEW:02 140 FEW:02 180 SCT:04 250,28.66,10,73,100,,5,,,,,,,,,,,,,,,,,,,,,,,,,,,,,,,,,,,,,MET11408/04/24 08:51:02 METAR KPHX 041551Z 10004KT 10SM FEW140 FEW180 SCT250 39/14 A2984 RMK AO2 SLP081 T03940144 $ (JH),FM-15,7,,,,,,,,,,,,,,,,,,,,,,,,,,,03-04-2007 00:00
72278023183,04-08-2024 09:51,FM-15,7,,N,0.5,mi,"TEMP, PRECIP",1107,,"MXMN, SRG",33.4442,-112.0247,CONTRACTOR,,,,,,,,,,,,,,,,,,,,,,,,,,,,29.84,55,104,0,,,,20,29.77,FEW:02 100 FEW:02 160 FEW:02 250,28.66,10,72,70,,5,,,,,,,,,,,,,,,,,,,,,,,,,,,,,,,,,,,,,MET11408/04/24 09:51:02 METAR KPHX 041651Z 07004KT 10SM FEW100 FEW160 FEW250 40/13 A2984 RMK AO2 SLP080 T04000128 $ (JH),FM-15,7,,,,,,,,,,,,,,,,,,,,,,,,,,,03-04-2007 00:00
72278023183,04-08-2024 10:51,FM-15,7,,N,0.5,mi,"TEMP, PRECIP",1107,,"MXMN, SRG",33.4442,-112.0247,CONTRACTOR,,,,,,,,,,,,,,,,,,,,,,,,,,,,29.83,55,106,0,,0.01,8,19,29.76,FEW:02 100 FEW:02 160 FEW:02 250,28.66,10,72,0,,0,,,,,,,,,,,,,,,,,,,,,,,,,,,,,,,,,,,,,MET14608/04/24 10:51:02 METAR KPHX 041751Z 00000KT 10SM FEW100 FEW160 FEW250 41/13 A2983 RMK AO2 SLP077 TCU DSNT NW-N T04110128 10422 20344 58005 $ (JH),FM-15,7,,,,,,,,,,,,,,,,,,,,,,,,,,,03-04-2007 00:00
72278023183,04-08-2024 11:00,FM-12,4,,N,0.5,mi,"TEMP, PRECIP",1107,,"MXMN, SRG",33.4442,-112.0247,CONTRACTOR,,,,,,,,,,,,,,,,,,,,,,,,,,,,,55,106,,,0.01,8,19,29.76,,28.66,9.94,72,0,,0,,,,,,,,,,,,,,,,,,,,,,,,,,,,,,,,,,,,,SYN08072278 32966 20000 10411 20128 39705 40077 58005 91751 333 10422 20344 555 90418=,FM-12,4,,,,,,,,,,,,,,,,,,,,,,,,,,,03-04-2007 00:00
72278023183,04-08-2024 11:51,FM-15,7,,N,0.5,mi,"TEMP, PRECIP",1107,,"MXMN, SRG",33.4442,-112.0247,CONTRACTOR,,,,,,,,,,,,,,,,,,,,,,,,,,,,29.81,55,110,0,,,,16,29.74,FEW:02 100 FEW:02 160 FEW:02 250,28.64,10,74,VRB,,3,,,,,,,,,,,,,,,,,,,,,,,,,,,,,,,,,,,,,MET13908/04/24 11:51:02 METAR KPHX 041851Z VRB03KT 10SM FEW100 FEW160 FEW250 43/13 A2981 RMK AO2 SLP070 CB DSNT NW-N TCU DSNT NE T04330128 $ (JH),FM-15,7,,,,,,,,,,,,,,,,,,,,,,,,,,,03-04-2007 00:00
72278023183,04-08-2024 12:51,FM-15,7,,N,0.5,mi,"TEMP, PRECIP",1107,,"MXMN, SRG",33.4442,-112.0247,CONTRACTOR,,,,,,,,,,,,,,,,,,,,,,,,,,,,29.78,54,112,0,,,,15,29.71,FEW:02 100 FEW:02 160 FEW:02 250,28.61,10,74,VRB,,3,,,,,,,,,,,,,,,,,,,,,,,,,,,,,,,,,,,,,MET12808/04/24 12:51:02 METAR KPHX 041951Z VRB03KT 10SM FEW100 FEW160 FEW250 44/12 A2978 RMK AO2 SLP061 CB DSNT ALQDS T04440122 $ (JH),FM-15,7,,,,,,,,,,,,,,,,,,,,,,,,,,,03-04-2007 00:00
72278023183,04-08-2024 13:51,FM-15,7,,N,0.5,mi,"TEMP, PRECIP",1107,,"MXMN, SRG",33.4442,-112.0247,CONTRACTOR,,,,,,,,,,,,,,,,,,,,,,,,,,,,29.76,54,113,0,,0.07,8,14,29.68,FEW:02 100 FEW:02 160 FEW:02 250,28.59,10,74,VRB,,3,,,,,,,,,,,,,,,,,,,,,,,,,,,,,,,,,,,,,MET13408/04/24 13:51:02 METAR KPHX 042051Z VRB03KT 10SM FEW100 FEW160 FEW250 45/12 A2976 RMK AO2 SLP052 CB DSNT ALQDS T04500122 58025 $ (JH),FM-15,7,,,,,,,,,,,,,,,,,,,,,,,,,,,03-04-2007 00:00
72278023183,04-08-2024 14:00,FM-12,4,,N,0.5,mi,"TEMP, PRECIP",1107,,"MXMN, SRG",33.4442,-112.0247,CONTRACTOR,,,,,,,,,,,,,,,,,,,,,,,,,,,,,54,113,,,0.07,8,14,29.68,,28.59,9.94,74,,,3,,,,,,,,,,,,,,,,,,,,,,,,,,,,,,,,,,,,,SYN06472278 32966 2//03 10450 20122 39682 40052 58025 92051 555 90421=,FM-12,4,,,,,,,,,,,,,,,,,,,,,,,,,,,03-04-2007 00:00
72278023183,04-08-2024 14:51,FM-15,7,,N,0.5,mi,"TEMP, PRECIP",1107,,"MXMN, SRG",33.4442,-112.0247,CONTRACTOR,,,,,,,,,,,,,,,,,,,,,,,,,,,,29.73,52,115,0,,,,13,29.66,FEW:02 100 FEW:02 160 FEW:02 250,28.56,10,74,VRB,20,5,,,,,,,,,,,,,,,,,,,,,,,,,,,,,,,,,,,,,MET13708/04/24 14:51:02 METAR KPHX 042151Z VRB04G17KT 10SM FEW100 FEW160 FEW250 46/11 A2973 RMK AO2 SLP043 CB DSNT N AND E-SE T04610111 $ (ADH),FM-15,7,,,,,,,,,,,,,,,,,,,,,,,,,,,03-04-2007 00:00
72278023183,04-08-2024 14:53,FM-16,7,,N,0.5,mi,"TEMP, PRECIP",1107,,"MXMN, SRG",33.4442,-112.0247,CONTRACTOR,,,,,,,,,,,,,,,,,,,,,,,,,,,,29.73,51,115,,,,,12,,FEW:02 100 FEW:02 160 FEW:02 250,28.56,10,73,260,,11,,,,,,,,,,,,,,,,,,,,,,,,,,,,,,,,,,,,,MET12708/04/24 14:53:02 SPECI KPHX 042153Z 26010KT 10SM FEW100 FEW160 FEW250 46/11 A2973 RMK AO2 CB DSNT N AND E-SE T04610106 $ (ADH),FM-16,7,,,,,,,,,,,,,,,,,,,,,,,,,,,03-04-2007 00:00
72278023183,04-08-2024 15:51,FM-15,7,,N,0.5,mi,"TEMP, PRECIP",1107,,"MXMN, SRG",33.4442,-112.0247,CONTRACTOR,,,,,,,,,,,,,,,,,,,,,,,,,,,,29.71,50,116,0,,,,11,29.64,FEW:02 100 FEW:02 160 SCT:04 250,28.54,10,73,240,20,5,,,,,,,,,,,,,,,,,,,,,,,,,,,,,,,,,,,,,MET13908/04/24 15:51:02 METAR KPHX 042251Z 24004G17KT 10SM FEW100 FEW160 SCT250 47/10 A2971 RMK AO2 SLP037 CB DSNT N-E S AND NW T04670100 $ (ADH),FM-15,7,,,,,,,,,,,,,,,,,,,,,,,,,,,03-04-2007 00:00
72278023183,04-08-2024 16:51,FM-15,7,,N,0.5,mi,"TEMP, PRECIP",1107,,"MXMN, SRG",33.4442,-112.0247,CONTRACTOR,,,,,,,,,,,,,,,,,,,,,,,,,,,,29.7,47,115,0,,0.06,6,10,29.62,FEW:02 100 FEW:02 160 SCT:04 250,28.53,10,72,310,23,5,,,,,,,,,,,,,,,,,,,,,,,,,,,,,,,,,,,,,MET16708/04/24 16:51:02 METAR KPHX 042351Z 31004G20KT 10SM FEW100 FEW160 SCT250 46/08 A2970 RMK AO2 PK WND 34028/2312 SLP032 CB DSNT N-NE T04610083 10467 20411 56019 $ (ADH),FM-15,7,,,,,,,,,,,,,,,,,,,,,,,,,,,03-04-2007 00:00
72278023183,04-08-2024 17:00,FM-12,4,,N,0.5,mi,"TEMP, PRECIP",1107,,"MXMN, SRG",33.4442,-112.0247,CONTRACTOR,,,,,,,,,,,,,,,,,,,,,,,,,,,,,47,115,,,0.06,6,10,29.62,,28.53,9.94,72,310,,5,,,,,,,,,,,,,,,,,,,,,,,,,,,,,,,,,,,,,SYN08672278 32966 43104 10461 20083 39662 40032 56019 92351 333 10467 20344 91020 555 90500=,FM-12,4,,,,,,,,,,,,,,,,,,,,,,,,,,,03-04-2007 00:00
72278023183,04-08-2024 17:51,FM-15,7,,N,0.5,mi,"TEMP, PRECIP",1107,,"MXMN, SRG",33.4442,-112.0247,CONTRACTOR,,,,,,,,,,,,,,,,,,,,,,,,,,,,29.7,50,113,0,,,,12,29.62,FEW:02 100 SCT:04 160 SCT:04 250,28.53,10,72,280,,11,,,,,,,,,,,,,,,,,,,,,,,,,,,,,,,,,,,,,MET11908/04/24 17:51:01 METAR KPHX 050051Z 28010KT 10SM FEW100 SCT160 SCT250 45/10 A2970 RMK AO2 SLP031 CB DSNT N T04500100 $,FM-15,7,,,,,,,,,,,,,,,,,,,,,,,,,,,03-04-2007 00:00
72278023183,04-08-2024 18:51,FM-15,7,,N,0.5,mi,"TEMP, PRECIP",1107,,"MXMN, SRG",33.4442,-112.0247,CONTRACTOR,,,,,,,,,,,,,,,,,,,,,,,,,,,,29.71,51,113,0,,,,13,29.63,SCT:04 100 BKN:07 180 BKN:07 250,28.54,10,73,260,,10,,,,,,,,,,,,,,,,,,,,,,,,,,,,,,,,,,,,,MET14008/04/24 18:51:01 METAR KPHX 050151Z 26009KT 10SM SCT100 BKN180 BKN250 45/11 A2971 RMK AO2 SLP035 OCNL LTGCG DSNT N CB DSNT N-NE T04500106 $,FM-15,7,,,,,,,,,,,,,,,,,,,,,,,,,,,03-04-2007 00:00
72278023183,04-08-2024 19:18,FM-16,7,,N,0.5,mi,"TEMP, PRECIP",1107,,"MXMN, SRG",33.4442,-112.0247,CONTRACTOR,,,,,,,,,,,,,,,,,,,,,,,,,,,,29.73,54,108,,||RA,,,17,,SCT:04 100 BKN:07 140 BKN:07 180,28.56,10,73,60,30,24,,,,,,,,,,,,,,,,,,,,,,,,,,,,,,,,,,,,,MET16808/04/24 19:18:02 SPECI KPHX 050218Z 06021G26KT 10SM VCTS SCT100 BKN140 BKN180 42/12 A2973 RMK AO2 PK WND 07026/0217 TSE12 OCNL LTGCG DSNT N-NE CB DSNT N-NE T04220122 $,FM-16,7,,,,,,,,,,,,,,,,,,,,,,,,,,,03-04-2007 00:00
72278023183,04-08-2024 19:33,FM-16,7,,N,0.5,mi,"TEMP, PRECIP",1107,,"MXMN, SRG",33.4442,-112.0247,CONTRACTOR,,,,,,,,,,,,,,,,,,,,,,,,,,,,29.74,54,107,,,,,17,,SCT:04 100 BKN:07 140 BKN:07 180,28.57,9,72,70,37,25,,,,,,,,,,,,,,,,,,,,,,,,,,,,,,,,,,,,,MET18508/04/24 19:33:02 SPECI KPHX 050233Z 07022G32KT 9SM SCT100 BKN140 BKN180 42/12 A2974 RMK AO2 PK WND 07032/0224 TSE12 FRQ LTGCACGIC DSNT N-NE SE AND NW CB DSNT N-NE SE AND NW T04170122 $,FM-16,7,,,,,,,,,,,,,,,,,,,,,,,,,,,03-04-2007 00:00
72278023183,04-08-2024 19:51,FM-15,7,,N,0.5,mi,"TEMP, PRECIP",1107,,"MXMN, SRG",33.4442,-112.0247,CONTRACTOR,,,,,,,,,,,,,,,,,,,,,,,,,,,,29.75,54,106,0,,-0.05,3,18,29.67,SCT:04 100 BKN:07 140 BKN:07 180,28.58,10,72,60,,20,,,,,,,,,,,,,,,,,,,,,,,,,,,,,,,,,,,,,MET21608/04/24 19:51:02 METAR KPHX 050251Z 06017KT 10SM SCT100 BKN140 BKN180 41/12 A2975 RMK AO2 PK WND 07032/0224 TSE12 SLP049 CONS LTGCACGIC DSNT N-NE AND SE-S CB DSNT N-NE AND SE-S SHRA DSNT N-NE AND W T04110122 53016 $,FM-15,7,,,,,,,,,,,,,,,,,,,,,,,,,,,03-04-2007 00:00
72278023183,04-08-2024 20:00,FM-12,4,,N,0.5,mi,"TEMP, PRECIP",1107,,"MXMN, SRG",33.4442,-112.0247,CONTRACTOR,,,,,,,,,,,,,,,,,,,,,,,,,,,,,54,106,,,-0.05,3,18,29.67,,28.58,9.94,72,60,,20,,,,,,,,,,,,,,,,,,,,,,,,,,,,,,,,,,,,,SYN06472278 32966 60617 10411 20122 39679 40049 53016 90251 555 90503=,FM-12,4,,,,,,,,,,,,,,,,,,,,,,,,,,,03-04-2007 00:00
72278023183,04-08-2024 20:07,FM-16,7,,N,0.5,mi,"TEMP, PRECIP",1107,,"MXMN, SRG",33.4442,-112.0247,CONTRACTOR,,,,,,,,,,,,,,,,,,,,,,,,,,,,29.77,55,104,,|TS |RA,,,20,,SCT:04 100 BKN:07 140,28.6,10,72,50,31,21,,,,,,,,,,,,,,,,,,,,,,,,,,,,,,,,,,,,,MET21108/04/24 20:07:02 SPECI KPHX 050307Z 05018G27KT 10SM TS SCT100CB BKN140 BKN1 40/13 A2977 RMK AO2 PK WND 05027/0258 TSB07 FRQ LTGICCACG W AND DSNT N-NE AND SE-S TS W MOV NE CB DSNT N-NE AND SE-S T04000128 $  ADH),FM-16,7,,,,,,,,,,,,,,,,,,,,,,,,,,,03-04-2007 00:00
72278023183,04-08-2024 20:49,FM-16,6,,N,0.5,mi,"TEMP, PRECIP",1107,,"MXMN, SRG",33.4442,-112.0247,CONTRACTOR,,,,,,,,,,,,,,,,,,,,,,,,,,,,29.82,57,100,,||RA,,,24,,SCT:04 110 BKN:07 160,28.65,10,72,130,31,20,,,,,,,,,,,,,,,,,,,,,,,,,,,,,,,,,,,,,MET23908/04/24 20:49:03 SPECI KPHX 050349Z 13017G27KT 10SM TS SCT110CB BKN160 BKN1 38/14 A2982 RMK AO2 PK WND 12027/0347 WSHFT 0331 TSB07 FRQ LTGICCACG SE W AND DSNT NE AND SE-S TS SE AND W MOV NE CB DSNT NE AND SE-S VCSH SE AND W-N $ FIBI (ADH),FM-16,6,,,,,,,,,,,,,,,,,,,,,,,,,,,03-04-2007 00:00
72278023183,04-08-2024 20:51,FM-15,7,,N,0.5,mi,"TEMP, PRECIP",1107,,"MXMN, SRG",33.4442,-112.0247,CONTRACTOR,,,,,,,,,,,,,,,,,,,,,,,,,,,,29.82,57,100,0,|TS |RA,,,24,29.75,SCT:04 110 BKN:07 160,28.65,10,72,120,31,21,,,,,,,,,,,,,,,,,,,,,,,,,,,,,,,,,,,,,MET23608/04/24 20:51:02 METAR KPHX 050351Z 12018G27KT 10SM TS SCT110CB BKN160 BKN1 38/14 A2982 RMK AO2 PK WND 12027/0347 WSHFT 0331 TSB07 SLP074 FRQ LTGICCACG SE W AND DSNT NE-SE-S TS SE AND W MOV N CB DSNT NE-SE-S VCSH SE AND W-N T03830139 $,FM-15,7,,,,,,,,,,,,,,,,,,,,,,,,,,,03-04-2007 00:00
72278023183,04-08-2024 20:58,FM-16,7,,N,0.5,mi,"TEMP, PRECIP",1107,,"MXMN, SRG",33.4442,-112.0247,CONTRACTOR,,,,,,,,,,,,,,,,,,,,,,,,,,,,29.83,57,100,,|TS |RA,,,24,,FEW:02 110 BKN:07 160,28.66,10,72,120,28,15,,,,,,,,,,,,,,,,,,,,,,,,,,,,,,,,,,,,,MET21108/04/24 20:58:02 SPECI KPHX 050358Z 12013G24KT 10SM TS FEW110CB BKN160 BKN1 38/14 A2983 RMK AO2 WSHFT 0338 FRQ LTGICCACG SE W AND DSNT NE-SE-S TS SE AND W MOV N CB DSNT NE-SE-S VCSH SE AND W-N T03780139 $  ADH),FM-16,7,,,,,,,,,,,,,,,,,,,,,,,,,,,03-04-2007 00:00
72278023183,04-08-2024 21:49,FM-16,6,,N,0.5,mi,"TEMP, PRECIP",1107,,"MXMN, SRG",33.4442,-112.0247,CONTRACTOR,,,,,,,,,,,,,,,,,,,,,,,,,,,,29.85,63,93,,||RA,,,36,,FEW:02 70 SCT:04 110 BKN:07 140,28.68,10,73,150,28,16,,,,,,,,,,,,,,,,,,,,,,,,,,,,,,,,,,,,,MET16708/04/24 21:49:03 SPECI KPHX 050449Z 15014G24KT 10SM VCTS FEW070 SCT110 BKN140 34/17 A2985 RMK AO2 WSHFT 0338 TSE49 FRQ LTGICCACG DSNT ALQDS CB DSNT ALQDS $ FIBI (ADH),FM-16,6,,,,,,,,,,,,,,,,,,,,,,,,,,,03-04-2007 00:00
72278023183,04-08-2024 21:51,FM-15,7,,N,0.5,mi,"TEMP, PRECIP",1107,,"MXMN, SRG",33.4442,-112.0247,CONTRACTOR,,,,,,,,,,,,,,,,,,,,,,,,,,,,29.85,63,94,0,|TS |RA,,,36,29.78,FEW:02 70 SCT:04 110,28.68,10,73,150,28,14,,,,,,,,,,,,,,,,,,,,,,,,,,,,,,,,,,,,,MET21308/04/24 21:51:02 METAR KPHX 050451Z 15012G24KT 10SM TS FEW070 SCT110CB BKN1 34/17 A2985 RMK AO2 WSHFT 0338 TSE49B50 SLP086 OCNL LTGCG VC NW FRQ LTGICCACG DSNT ALQDS TS VC NW MOV NE CB DSNT ALQDS T03440172 $ (ADH),FM-15,7,,,,,,,,,,,,,,,,,,,,,,,,,,,03-04-2007 00:00
72278023183,04-08-2024 22:04,FM-16,7,,N,0.5,mi,"TEMP, PRECIP",1107,,"MXMN, SRG",33.4442,-112.0247,CONTRACTOR,,,,,,,,,,,,,,,,,,,,,,,,,,,,29.85,63,94,,,,,36,,FEW:02 70 SCT:04 110 BKN:07 140,28.68,10,73,160,23,14,,,,,,,,,,,,,,,,,,,,,,,,,,,,,,,,,,,,,MET16708/04/24 22:04:02 SPECI KPHX 050504Z 16012G20KT 10SM FEW070 SCT110 BKN140 34/17 A2985 RMK AO2 LTG DSNT ALQDS TSE0458 FRQ LTGCGICCA DSNT ALQDS CB DSNT ALQDS T03440172 $,FM-16,7,,,,,,,,,,,,,,,,,,,,,,,,,,,03-04-2007 00:00
72278023183,04-08-2024 22:51,FM-15,7,,N,0.5,mi,"TEMP, PRECIP",1107,,"MXMN, SRG",33.4442,-112.0247,CONTRACTOR,,,,,,,,,,,,,,,,,,,,,,,,,,,,29.88,62,95,0,,-0.13,1,34,29.81,SCT:04 110 BKN:07 140 BKN:07 180,28.7,10,73,200,29,14,,,,,,,,,,,,,,,,,,,,,,,,,,,,,,,,,,,,,MET20508/04/24 22:51:02 METAR KPHX 050551Z 20012G25KT 10SM SCT110 BKN140 BKN180 35/17 A2988 RMK AO2 PK WND 15026/0527 TSE0458 PRESRR SLP095 CONS LTGCGICCA DSNT S-W CB DSNT S-W T03500167 10461 20339 51043 $     ),FM-15,7,,,,,,,,,,,,,,,,,,,,,,,,,,,03-04-2007 00:00
72278023183,04-08-2024 23:00,FM-12,4,,N,0.5,mi,"TEMP, PRECIP",1107,,"MXMN, SRG",33.4442,-112.0247,CONTRACTOR,,,,,,,,,,,,,,,,,,,,,,,,,,,,,62,95,,,-0.13,1,34,29.81,,28.71,9.94,73,200,,14,,,,,,,,,,,,,,,,,,,,,,,,,,,,,,,,,,,,,SYN08672278 32966 62012 10350 20167 39721 40095 51043 90551 333 10461 20339 91025 555 90506=,FM-12,4,,,,,,,,,,,,,,,,,,,,,,,,,,,03-04-2007 00:00
72278023183,04-08-2024 23:04,FM-16,7,,N,0.5,mi,"TEMP, PRECIP",1107,,"MXMN, SRG",33.4442,-112.0247,CONTRACTOR,,,,,,,,,,,,,,,,,,,,,,,,,,,,29.9,62,94,,,,,35,,SCT:04 110 BKN:07 140 BKN:07 180,28.72,10,73,280,26,9,,,,,,,,,,,,,,,,,,,,,,,,,,,,,,,,,,,,,MET15208/04/24 23:04:02 SPECI KPHX 050604Z 28008G23KT 10SM SCT110 BKN140 BKN180 34/17 A2990 RMK AO2 WSHFT 0544 CONS LTGCGICCA DSNT S-W CB DSNT S-W T03440167 $,FM-16,7,,,,,,,,,,,,,,,,,,,,,,,,,,,03-04-2007 00:00
72278023183,04-08-2024 23:51,FM-15,7,,N,0.5,mi,"TEMP, PRECIP",1107,,"MXMN, SRG",33.4442,-112.0247,CONTRACTOR,,,,,,,,,,,,,,,,,,,,,,,,,,,,29.86,60,96,0,,,,30,29.79,BKN:07 120 BKN:07 140 BKN:07 160,28.69,10,72,220,,9,,,,,,,,,,,,,,,,,,,,,,,,,,,,,,,,,,,,,MET16708/04/24 23:51:02 METAR KPHX 050651Z 22008KT 10SM BKN120 BKN140 BKN160 36/16 A2986 RMK AO2 WSHFT 0544 SLP088 FRQ LTGCGICCC DSNT SW-W CB DSNT SW-W T03560156 404670339 $,FM-15,7,,,,,,,,,,,,,,,,,,,,,,,,,,,03-04-2007 00:00
72278023183,04-08-2024 23:59,SOD  ,6,,N,0.5,mi,"TEMP, PRECIP",1107,,"MXMN, SRG",33.4442,-112.0247,CONTRACTOR,,,,,,56,105,22,29.72,28.63,72,7.3,40,10.8,0,116,93,70,37,0,,,70,30,TS RA,,,,,,,,,,,,,,,,,,,,,,,,,,,,,,,,,,,,,,,,,,,,,,,,,,,,,,,SOD75624 HR PRECIPITATION (IN): 0.00 SNOW DEPTH (IN):0     24 HR SNOWFALL (IN):0.0  WEATHER(CODE):3  24 HR MAX TEMP (F):11624 HR MIN TEMP (F): 93AVERAGE STATION PRESSURE:28.625 MINIMUM SEA LEVEL PRESSURE:29.62 TIME OF OCCURRENCE:1831 PEAK WIND SPEED (MPH): 37 PEAK WIND DIR (DEG): 70 PEAK WIND TIME (LST):      FASTEST 2MIN SPEED (MPH): 30FASTEST 2MIN DIR (DEG): 70 FASTEST 2MIN TIME (LST):     AVERAGE WIND SPEED (MPH): 7.3 24 HR AVG TEMP (F):105DEPART FROM NORMAL: 10  HEATING DEGREE DAYS:  0 COOLING DEGREE DAYS: 40 LATEST DAY MAX TEMP (0700-1900 LST):116 LATEST NIGHT MIN TEMP(1900-0800 LST):94 HOURLY INCREMENTAL PRECIPITATION VALUES (IN):.00 0.00 0.00 0.00 0.00 0.00 0.00 0.00 0.00 0.00 0.00 0.00 0.00 0.00 0.00 0.00 0.00 0.00 0.00 0.00 0.00 0.00 0.00 0.00,SOD  ,6,,,,,,,,,,,,,,,,,,,,,,,,,543,1924,03-04-2007 00:00
72278023183,05-08-2024 00:51,FM-15,7,,N,0.5,mi,"TEMP, PRECIP",1107,,"MXMN, SRG",33.4442,-112.0247,CONTRACTOR,,,,,,,,,,,,,,,,,,,,,,,,,,,,29.84,62,95,0,,,,34,29.77,BKN:07 130 BKN:07 150 OVC:08 180,28.66,10,73,300,,9,,,,,,,,,,,,,,,,,,,,,,,,,,,,,,,,,,,,,MET11508/05/24 00:51:02 METAR KPHX 050751Z 30008KT 10SM BKN130 BKN150 OVC180 35/17 A2984 RMK AO2 SLP081 T03500167 $ (GEH),FM-15,7,,,,,,,,,,,,,,,,,,,,,,,,,,,03-04-2007 00:00
72278023183,05-08-2024 01:51,FM-15,7,,N,0.5,mi,"TEMP, PRECIP",1107,,"MXMN, SRG",33.4442,-112.0247,CONTRACTOR,,,,,,,,,,,,,,,,,,,,,,,,,,,,29.82,62,95,T,,0.06,8,34,29.74,SCT:04 110 BKN:07 140 BKN:07 170,28.65,10,73,40,,15,,,,,,,,,,,,,,,,,,,,,,,,,,,,,,,,,,,,,MET14208/05/24 01:51:02 METAR KPHX 050851Z 04013KT 10SM SCT110 BKN140 BKN170 35/17 A2982 RMK AO2 RAB01E18 SLP072 P0000 60000 T03500167 58021 $ (GEH),FM-15,7,,,,,,,,,,,,,,,,,,,,,,,,,,,03-04-2007 00:00
72278023183,05-08-2024 02:00,FM-12,4,,N,0.5,mi,"TEMP, PRECIP",1107,,"MXMN, SRG",33.4442,-112.0247,CONTRACTOR,,,,,,,,,,,,,,,,,,,,,,,,,,,,,62,95,,,0.06,8,34,29.74,,28.65,9.94,73,40,,15,,,,,,,,,,,,,,,,,,,,,,,,,,,,,,,,,,,,,SYN07072278 12966 60413 10350 20167 39702 40072 58021 69907 90851 555 90509=,FM-12,4,,,,,,,,,,,,,,,,,,,,,,,,,,,03-04-2007 00:00
72278023183,05-08-2024 02:51,FM-15,7,,N,0.5,mi,"TEMP, PRECIP",1107,,"MXMN, SRG",33.4442,-112.0247,CONTRACTOR,,,,,,,,,,,,,,,,,,,,,,,,,,,,29.8,62,94,0,,,,35,29.73,SCT:04 110 BKN:07 150 BKN:07 170,28.63,10,73,90,,9,,,,,,,,,,,,,,,,,,,,,,,,,,,,,,,,,,,,,MET11508/05/24 02:51:02 METAR KPHX 050951Z 09008KT 10SM SCT110 BKN150 BKN170 34/17 A2980 RMK AO2 SLP068 T03440167 $ (GEH),FM-15,7,,,,,,,,,,,,,,,,,,,,,,,,,,,03-04-2007 00:00
72278023183,05-08-2024 03:51,FM-15,7,,N,0.5,mi,"TEMP, PRECIP",1107,,"MXMN, SRG",33.4442,-112.0247,CONTRACTOR,,,,,,,,,,,,,,,,,,,,,,,,,,,,29.79,62,93,0,,,,36,29.72,FEW:02 110 SCT:04 130 BKN:07 150,28.62,10,72,140,,7,,,,,,,,,,,,,,,,,,,,,,,,,,,,,,,,,,,,,MET11508/05/24 03:51:02 METAR KPHX 051051Z 14006KT 10SM FEW110 SCT130 BKN150 34/17 A2979 RMK AO2 SLP065 T03390167 $ (GEH),FM-15,7,,,,,,,,,,,,,,,,,,,,,,,,,,,03-04-2007 00:00
72278023183,05-08-2024 04:51,FM-15,7,,N,0.5,mi,"TEMP, PRECIP",1107,,"MXMN, SRG",33.4442,-112.0247,CONTRACTOR,,,,,,,,,,,,,,,,,,,,,,,,,,,,29.82,61,94,0,,0,3,33,29.75,FEW:02 110 SCT:04 130 BKN:07 150,28.65,10,72,0,,0,,,,,,,,,,,,,,,,,,,,,,,,,,,,,,,,,,,,,MET13908/05/24 04:51:02 METAR KPHX 051151Z 00000KT 10SM FEW110 SCT130 BKN150 34/16 A2982 RMK AO2 SLP073 60000 T03440161 10361 20339 53001 $ (GEH),FM-15,7,,,,,,,,,,,,,,,,,,,,,,,,,,,03-04-2007 00:00
72278023183,05-08-2024 05:00,FM-12,4,,N,0.5,mi,"TEMP, PRECIP",1107,,"MXMN, SRG",33.4442,-112.0247,CONTRACTOR,,,,,,,,,,,,,,,,,,,,,,,,,,,,,61,94,,,0,3,33,29.75,,28.65,9.94,72,0,,0,,,,,,,,,,,,,,,,,,,,,,,,,,,,,,,,,,,,,SYN08672278 12966 60000 10344 20161 39702 40073 53001 69901 91151 333 10467 20339 555 90512=,FM-12,4,,,,,,,,,,,,,,,,,,,,,,,,,,,03-04-2007 00:00
72278023183,05-08-2024 05:51,FM-15,7,,N,0.5,mi,"TEMP, PRECIP",1107,,"MXMN, SRG",33.4442,-112.0247,CONTRACTOR,,,,,,,,,,,,,,,,,,,,,,,,,,,,29.85,63,93,0,,,,37,29.78,BKN:07 150 BKN:07 210 BKN:07 240,28.68,10,73,260,,7,,,,,,,,,,,,,,,,,,,,,,,,,,,,,,,,,,,,,MET11508/05/24 05:51:02 METAR KPHX 051251Z 26006KT 10SM BKN150 BKN210 BKN240 34/17 A2985 RMK AO2 SLP083 T03390172 $ (GEH),FM-15,7,,,,,,,,,,,,,,,,,,,,,,,,,,,03-04-2007 00:00
72278023183,05-08-2024 06:51,FM-15,7,,N,0.5,mi,"TEMP, PRECIP",1107,,"MXMN, SRG",33.4442,-112.0247,CONTRACTOR,,,,,,,,,,,,,,,,,,,,,,,,,,,,29.88,63,93,0,,,,37,29.8,FEW:02 100 BKN:07 150 BKN:07 210,28.7,10,73,340,,6,,,,,,,,,,,,,,,,,,,,,,,,,,,,,,,,,,,,,MET13608/05/24 06:51:02 METAR KPHX 051351Z 34005KT 10SM FEW100 BKN150 BKN210 34/17 A2988 RMK AO2 SLP093 SHRA DSNT N NE AND SE-S T03390172 (SH),FM-15,7,,,,,,,,,,,,,,,,,,,,,,,,,,,03-04-2007 00:00
72278023183,05-08-2024 07:51,FM-15,7,,N,0.5,mi,"TEMP, PRECIP",1107,,"MXMN, SRG",33.4442,-112.0247,CONTRACTOR,,,,,,,,,,,,,,,,,,,,,,,,,,,,29.89,63,94,0,,-0.07,1,36,29.83,FEW:02 100 BKN:07 140 BKN:07 180,28.71,10,73,130,,5,,,,,,,,,,,,,,,,,,,,,,,,,,,,,,,,,,,,,MET13908/05/24 07:51:02 METAR KPHX 051451Z 13004KT 10SM FEW100 BKN140 BKN180 34/17 A2989 RMK AO2 SLP100 SHRA DSNT N AND E-SE T03440172 51025 (SH),FM-15,7,,,,,,,,,,,,,,,,,,,,,,,,,,,03-04-2007 00:00
72278023183,05-08-2024 08:00,FM-12,4,,N,0.5,mi,"TEMP, PRECIP",1107,,"MXMN, SRG",33.4442,-112.0247,CONTRACTOR,,,,,,,,,,,,,,,,,,,,,,,,,,,,,63,94,,,-0.07,1,36,29.83,,28.72,9.94,73,130,,5,,,,,,,,,,,,,,,,,,,,,,,,,,,,,,,,,,,,,SYN06472278 32966 61304 10344 20172 39725 40100 51025 91451 555 90515=,FM-12,4,,,,,,,,,,,,,,,,,,,,,,,,,,,03-04-2007 00:00
72278023183,05-08-2024 08:51,FM-15,7,,N,0.5,mi,"TEMP, PRECIP",1107,,"MXMN, SRG",33.4442,-112.0247,CONTRACTOR,,,,,,,,,,,,,,,,,,,,,,,,,,,,29.91,63,94,0,,,,36,29.84,FEW:02 100 SCT:04 140 BKN:07 170,28.73,10,73,140,,8,,,,,,,,,,,,,,,,,,,,,,,,,,,,,,,,,,,,,MET11208/05/24 08:51:02 METAR KPHX 051551Z 14007KT 10SM FEW100 SCT140 BKN170 34/17 A2991 RMK AO2 SLP105 T03440172 (SH),FM-15,7,,,,,,,,,,,,,,,,,,,,,,,,,,,03-04-2007 00:00
72278023183,05-08-2024 09:51,FM-15,7,,N,0.5,mi,"TEMP, PRECIP",1107,,"MXMN, SRG",33.4442,-112.0247,CONTRACTOR,,,,,,,,,,,,,,,,,,,,,,,,,,,,29.91,61,98,0,,,,29,29.85,FEW:02 100 SCT:04 150 BKN:07 180,28.73,10,73,160,,6,,,,,,,,,,,,,,,,,,,,,,,,,,,,,,,,,,,,,MET11208/05/24 09:51:02 METAR KPHX 051651Z 16005KT 10SM FEW100 SCT150 BKN180 37/16 A2991 RMK AO2 SLP107 T03670161 (SH),FM-15,7,,,,,,,,,,,,,,,,,,,,,,,,,,,03-04-2007 00:00
72278023183,05-08-2024 10:51,FM-15,7,,N,0.5,mi,"TEMP, PRECIP",1107,,"MXMN, SRG",33.4442,-112.0247,CONTRACTOR,,,,,,,,,,,,,,,,,,,,,,,,,,,,29.9,59,101,0,,-0.01,0,25,29.83,FEW:02 100 SCT:04 150 BKN:07 170,28.72,10,73,VRB,,3,,,,,,,,,,,,,,,,,,,,,,,,,,,,,,,,,,,,,MET13208/05/24 10:51:02 METAR KPHX 051751Z VRB03KT 10SM FEW100 SCT150 BKN170 38/15 A2990 RMK AO2 SLP103 T03830150 10389 20333 50002 $ (SH),FM-15,7,,,,,,,,,,,,,,,,,,,,,,,,,,,03-04-2007 00:00
72278023183,05-08-2024 11:00,FM-12,4,,N,0.5,mi,"TEMP, PRECIP",1107,,"MXMN, SRG",33.4442,-112.0247,CONTRACTOR,,,,,,,,,,,,,,,,,,,,,,,,,,,,,59,101,,,0.01,9,25,29.83,,28.73,9.94,73,,,3,,,,,,,,,,,,,,,,,,,,,,,,,,,,,,,,,,,,,SYN08072278 32966 6//03 10383 20150 39728 40103 50002 91751 333 10389 20333 555 90518=,FM-12,4,,,,,,,,,,,,,,,,,,,,,,,,,,,03-04-2007 00:00
72278023183,05-08-2024 11:51,FM-15,7,,N,0.5,mi,"TEMP, PRECIP",1107,,"MXMN, SRG",33.4442,-112.0247,CONTRACTOR,,,,,,,,,,,,,,,,,,,,,,,,,,,,29.89,58,104,0,,,,22,29.82,FEW:02 110 BKN:07 160 BKN:07 250,28.71,10,73,260,,5,,,,,,,,,,,,,,,,,,,,,,,,,,,,,,,,,,,,,MET11408/05/24 11:51:02 METAR KPHX 051851Z 26004KT 10SM FEW110 BKN160 BKN250 40/14 A2989 RMK AO2 SLP099 T04000144 $ (SH),FM-15,7,,,,,,,,,,,,,,,,,,,,,,,,,,,03-04-2007 00:00
72278023183,05-08-2024 12:51,FM-15,7,,N,0.5,mi,"TEMP, PRECIP",1107,,"MXMN, SRG",33.4442,-112.0247,CONTRACTOR,,,,,,,,,,,,,,,,,,,,,,,,,,,,29.87,56,105,0,,,,20,29.8,FEW:02 110 BKN:07 160 BKN:07 250,28.69,10,73,310,,7,,,,,,,,,,,,,,,,,,,,,,,,,,,,,,,,,,,,,MET11408/05/24 12:51:02 METAR KPHX 051951Z 31006KT 10SM FEW110 BKN160 BKN250 41/13 A2987 RMK AO2 SLP092 T04060133 $ (SH),FM-15,7,,,,,,,,,,,,,,,,,,,,,,,,,,,03-04-2007 00:00
72278023183,05-08-2024 13:51,FM-15,7,,N,0.5,mi,"TEMP, PRECIP",1107,,"MXMN, SRG",33.4442,-112.0247,CONTRACTOR,,,,,,,,,,,,,,,,,,,,,,,,,,,,29.84,56,109,0,,0.06,8,17,29.77,FEW:02 80 FEW:02 120 SCT:04 180,28.66,10,74,240,20,5,,,,,,,,,,,,,,,,,,,,,,,,,,,,,,,,,,,,,MET13308/05/24 13:51:02 METAR KPHX 052051Z 24004G17KT 10SM FEW080 FEW120 SCT180 43/13 A2984 RMK AO2 SLP082 CB DSNT E T04280133 58019 $ (SH),FM-15,7,,,,,,,,,,,,,,,,,,,,,,,,,,,03-04-2007 00:00
72278023183,05-08-2024 14:00,FM-12,4,,N,0.5,mi,"TEMP, PRECIP",1107,,"MXMN, SRG",33.4442,-112.0247,CONTRACTOR,,,,,,,,,,,,,,,,,,,,,,,,,,,,,56,109,,,0.06,8,17,29.77,74,28.67,9.94,74,240,,5,,,,,,,,,,,,,,,,,,,,,,,,,,,,,,,,,,,,,SYN07472278 32866 42404 10428 20133 39708 40082 58019 92051 333 91017 555 90521=,FM-12,4,,,,,,,,,,,,,,,,,,,,,,,,,,,03-04-2007 00:00
72278023183,05-08-2024 14:51,FM-15,7,,N,0.5,mi,"TEMP, PRECIP",1107,,"MXMN, SRG",33.4442,-112.0247,CONTRACTOR,,,,,,,,,,,,,,,,,,,,,,,,,,,,29.81,55,109,0,,,,17,29.74,FEW:02 100 FEW:02 180 SCT:04 250,28.64,10,73,310,,9,,,,,,,,,,,,,,,,,,,,,,,,,,,,,,,,,,,,,MET12308/05/24 14:51:02 METAR KPHX 052151Z 31008KT 10SM FEW100 FEW180 SCT250 43/13 A2981 RMK AO2 SLP070 CB DSNT NW T04280128 (JH),FM-15,7,,,,,,,,,,,,,,,,,,,,,,,,,,,03-04-2007 00:00
72278023183,05-08-2024 15:51,FM-15,7,,N,0.5,mi,"TEMP, PRECIP",1107,,"MXMN, SRG",33.4442,-112.0247,CONTRACTOR,,,,,,,,,,,,,,,,,,,,,,,,,,,,29.78,56,112,0,,,,16,29.71,FEW:02 100 FEW:02 180 SCT:04 250,28.61,10,74,280,22,11,,,,,,,,,,,,,,,,,,,,,,,,,,,,,,,,,,,,,MET12508/05/24 15:51:02 METAR KPHX 052251Z 28010G19KT 10SM FEW100 FEW180 SCT250 44/13 A2978 RMK AO2 SLP060 CB DSNT N T04440133 (JH),FM-15,7,,,,,,,,,,,,,,,,,,,,,,,,,,,03-04-2007 00:00
72278023183,05-08-2024 16:51,FM-15,7,,N,0.5,mi,"TEMP, PRECIP",1107,,"MXMN, SRG",33.4442,-112.0247,CONTRACTOR,,,,,,,,,,,,,,,,,,,,,,,,,,,,29.76,55,111,0,,0.08,6,16,29.69,FEW:02 100 FEW:02 180 SCT:04 250,28.59,10,74,280,23,13,,,,,,,,,,,,,,,,,,,,,,,,,,,,,,,,,,,,,MET15008/05/24 16:51:02 METAR KPHX 052351Z 28011G20KT 10SM FEW100 FEW180 SCT250 44/13 A2976 RMK AO2 SLP054 CB DSNT N AND NW T04390128 10444 20383 56026 (JH),FM-15,7,,,,,,,,,,,,,,,,,,,,,,,,,,,03-04-2007 00:00
72278023183,05-08-2024 17:00,FM-12,4,,N,0.5,mi,"TEMP, PRECIP",1107,,"MXMN, SRG",33.4442,-112.0247,CONTRACTOR,,,,,,,,,,,,,,,,,,,,,,,,,,,,,55,111,,,0.08,6,16,29.69,,28.59,9.94,74,280,,13,,,,,,,,,,,,,,,,,,,,,,,,,,,,,,,,,,,,,SYN08672278 32966 42811 10439 20128 39682 40054 56026 92351 333 10444 20339 91020 555 90600=,FM-12,4,,,,,,,,,,,,,,,,,,,,,,,,,,,03-04-2007 00:00
72278023183,05-08-2024 17:51,FM-15,7,,N,0.5,mi,"TEMP, PRECIP",1107,,"MXMN, SRG",33.4442,-112.0247,CONTRACTOR,,,,,,,,,,,,,,,,,,,,,,,,,,,,29.75,53,110,0,,,,15,29.68,FEW:02 100 FEW:02 180 SCT:04 250,28.58,10,73,270,,13,,,,,,,,,,,,,,,,,,,,,,,,,,,,,,,,,,,,,MET11808/05/24 17:51:01 METAR KPHX 060051Z 27011KT 10SM FEW100 FEW180 SCT250 43/12 A2975 RMK AO2 SLP050 CB DSNT NW T04330117,FM-15,7,,,,,,,,,,,,,,,,,,,,,,,,,,,03-04-2007 00:00
72278023183,05-08-2024 18:51,FM-15,7,,N,0.5,mi,"TEMP, PRECIP",1107,,"MXMN, SRG",33.4442,-112.0247,CONTRACTOR,,,,,,,,,,,,,,,,,,,,,,,,,,,,29.76,53,109,0,,,,16,29.69,FEW:02 100 SCT:04 200 BKN:07 250,28.59,10,72,250,,10,,,,,,,,,,,,,,,,,,,,,,,,,,,,,,,,,,,,,MET10708/05/24 18:51:01 METAR KPHX 060151Z 25009KT 10SM FEW100 SCT200 BKN250 43/12 A2976 RMK AO2 SLP054 T04280117,FM-15,7,,,,,,,,,,,,,,,,,,,,,,,,,,,03-04-2007 00:00
72278023183,05-08-2024 19:51,FM-15,7,,N,0.5,mi,"TEMP, PRECIP",1107,,"MXMN, SRG",33.4442,-112.0247,CONTRACTOR,,,,,,,,,,,,,,,,,,,,,,,,,,,,29.76,53,108,0,,0.01,6,16,29.69,FEW:02 100 FEW:02 140 SCT:04 200,28.59,10,72,250,,9,,,,,,,,,,,,,,,,,,,,,,,,,,,,,,,,,,,,,MET11308/05/24 19:51:02 METAR KPHX 060251Z 25008KT 10SM FEW100 FEW140 SCT200 42/12 A2976 RMK AO2 SLP053 T04220117 56002,FM-15,7,,,,,,,,,,,,,,,,,,,,,,,,,,,03-04-2007 00:00
72278023183,05-08-2024 20:00,FM-12,4,,N,0.5,mi,"TEMP, PRECIP",1107,,"MXMN, SRG",33.4442,-112.0247,CONTRACTOR,,,,,,,,,,,,,,,,,,,,,,,,,,,,,53,108,,,0.01,6,16,29.69,,28.59,9.94,72,250,,9,,,,,,,,,,,,,,,,,,,,,,,,,,,,,,,,,,,,,SYN06472278 32966 62508 10422 20117 39682 40053 56002 90251 555 90603=,FM-12,4,,,,,,,,,,,,,,,,,,,,,,,,,,,03-04-2007 00:00
72278023183,05-08-2024 20:51,FM-15,7,,N,0.5,mi,"TEMP, PRECIP",1107,,"MXMN, SRG",33.4442,-112.0247,CONTRACTOR,,,,,,,,,,,,,,,,,,,,,,,,,,,,29.77,55,105,0,,,,19,29.7,FEW:02 100 SCT:04 140 BKN:07 230,28.6,10,72,240,,7,,,,,,,,,,,,,,,,,,,,,,,,,,,,,,,,,,,,,MET10708/05/24 20:51:02 METAR KPHX 060351Z 24006KT 10SM FEW100 SCT140 BKN230 41/13 A2977 RMK AO2 SLP059 T04060128,FM-15,7,,,,,,,,,,,,,,,,,,,,,,,,,,,03-04-2007 00:00
72278023183,05-08-2024 21:51,FM-15,7,,N,0.5,mi,"TEMP, PRECIP",1107,,"MXMN, SRG",33.4442,-112.0247,CONTRACTOR,,,,,,,,,,,,,,,,,,,,,,,,,,,,29.78,56,104,0,,,,20,29.71,FEW:02 120 SCT:04 170 BKN:07 230,28.61,10,72,250,,7,,,,,,,,,,,,,,,,,,,,,,,,,,,,,,,,,,,,,MET10708/05/24 21:51:02 METAR KPHX 060451Z 25006KT 10SM FEW120 SCT170 BKN230 40/13 A2978 RMK AO2 SLP061 T04000133,FM-15,7,,,,,,,,,,,,,,,,,,,,,,,,,,,03-04-2007 00:00
72278023183,05-08-2024 22:51,FM-15,7,,N,0.5,mi,"TEMP, PRECIP",1107,,"MXMN, SRG",33.4442,-112.0247,CONTRACTOR,,,,,,,,,,,,,,,,,,,,,,,,,,,,29.79,56,103,0,,-0.03,1,21,29.72,FEW:02 120 SCT:04 230,28.62,10,72,260,,7,,,,,,,,,,,,,,,,,,,,,,,,,,,,,,,,,,,,,MET11808/05/24 22:51:02 METAR KPHX 060551Z 26006KT 10SM FEW120 SCT230 39/13 A2979 RMK AO2 SLP063 T03940133 10439 20394 51010,FM-15,7,,,,,,,,,,,,,,,,,,,,,,,,,,,03-04-2007 00:00
72278023183,05-08-2024 23:00,FM-12,4,,N,0.5,mi,"TEMP, PRECIP",1107,,"MXMN, SRG",33.4442,-112.0247,CONTRACTOR,,,,,,,,,,,,,,,,,,,,,,,,,,,,,56,103,,,-0.03,1,21,29.72,,28.62,9.94,72,260,,7,,,,,,,,,,,,,,,,,,,,,,,,,,,,,,,,,,,,,SYN08072278 32966 42606 10394 20133 39692 40063 51010 90551 333 10439 20339 555 90606=,FM-12,4,,,,,,,,,,,,,,,,,,,,,,,,,,,03-04-2007 00:00
72278023183,05-08-2024 23:51,FM-15,7,,N,0.5,mi,"TEMP, PRECIP",1107,,"MXMN, SRG",33.4442,-112.0247,CONTRACTOR,,,,,,,,,,,,,,,,,,,,,,,,,,,,29.79,57,102,0,,,,23,29.72,SCT:04 130 SCT:04 190,28.62,10,72,260,,10,,,,,,,,,,,,,,,,,,,,,,,,,,,,,,,,,,,,,MET11008/05/24 23:51:02 METAR KPHX 060651Z 26009KT 10SM SCT130 SCT190 39/14 A2979 RMK AO2 SLP064 T03890139 404440333,FM-15,7,,,,,,,,,,,,,,,,,,,,,,,,,,,03-04-2007 00:00
72278023183,05-08-2024 23:59,SOD  ,6,,N,0.5,mi,"TEMP, PRECIP",1107,,"MXMN, SRG",33.4442,-112.0247,CONTRACTOR,,,,,,58,102,25,29.75,28.64,73,7.8,37,7.9,0,112,92,50,24,T,,,40,18,,,,,,,,,,,,,,,,,,,,,,,,,,,,,,,,,,,,,,,,,,,,,,,,,,,,,,,,SOD73924 HR PRECIPITATION (IN):    T SNOW DEPTH (IN):0     24 HR SNOWFALL (IN):0.0  24 HR MAX TEMP (F):11224 HR MIN TEMP (F): 92AVERAGE STATION PRESSURE:28.635 MINIMUM SEA LEVEL PRESSURE:29.68 TIME OF OCCURRENCE:1932 PEAK WIND SPEED (MPH): 24 PEAK WIND DIR (DEG): 50 PEAK WIND TIME (LST):      FASTEST 2MIN SPEED (MPH): 18FASTEST 2MIN DIR (DEG): 40 FASTEST 2MIN TIME (LST):     AVERAGE WIND SPEED (MPH): 7.8 24 HR AVG TEMP (F):102DEPART FROM NORMAL:  7  HEATING DEGREE DAYS:  0 COOLING DEGREE DAYS: 37 LATEST DAY MAX TEMP (0700-1900 LST):112 LATEST NIGHT MIN TEMP(1900-0800 LST):92 HOURLY INCREMENTAL PRECIPITATION VALUES (IN):.00 T    0.00 0.00 0.00 0.00 0.00 0.00 0.00 0.00 0.00 0.00 0.00 0.00 0.00 0.00 0.00 0.00 0.00 0.00 0.00 0.00 0.00 0.00,SOD  ,6,,,,,,,,,,,,,,,,,,,,,,,,,544,1923,03-04-2007 00:00
72278023183,06-08-2024 00:51,FM-15,7,,N,0.5,mi,"TEMP, PRECIP",1107,,"MXMN, SRG",33.4442,-112.0247,CONTRACTOR,,,,,,,,,,,,,,,,,,,,,,,,,,,,29.79,57,102,0,,,,23,29.71,FEW:02 190,28.62,10,72,280,,11,,,,,,,,,,,,,,,,,,,,,,,,,,,,,,,,,,,,,MET09908/06/24 00:51:02 METAR KPHX 060751Z 28010KT 10SM FEW190 39/14 A2979 RMK AO2 SLP062 T03890139 (GEH),FM-15,7,,,,,,,,,,,,,,,,,,,,,,,,,,,03-04-2007 00:00
72278023183,06-08-2024 01:51,FM-15,7,,N,0.5,mi,"TEMP, PRECIP",1107,,"MXMN, SRG",33.4442,-112.0247,CONTRACTOR,,,,,,,,,,,,,,,,,,,,,,,,,,,,29.79,58,101,0,,0,0,24,29.71,FEW:02 150 SCT:04 170,28.62,10,72,290,,10,,,,,,,,,,,,,,,,,,,,,,,,,,,,,,,,,,,,,MET11208/06/24 01:51:02 METAR KPHX 060851Z 29009KT 10SM FEW150 SCT170 38/14 A2979 RMK AO2 SLP062 T03830144 50000 (GEH),FM-15,7,,,,,,,,,,,,,,,,,,,,,,,,,,,03-04-2007 00:00
72278023183,06-08-2024 02:00,FM-12,4,,N,0.5,mi,"TEMP, PRECIP",1107,,"MXMN, SRG",33.4442,-112.0247,CONTRACTOR,,,,,,,,,,,,,,,,,,,,,,,,,,,,,58,101,,,0,9,24,29.71,,28.62,9.94,72,290,,10,,,,,,,,,,,,,,,,,,,,,,,,,,,,,,,,,,,,,SYN06472278 32966 42909 10383 20144 39692 40062 50000 90851 555 90609=,FM-12,4,,,,,,,,,,,,,,,,,,,,,,,,,,,03-04-2007 00:00
72278023183,06-08-2024 02:51,FM-15,7,,N,0.5,mi,"TEMP, PRECIP",1107,,"MXMN, SRG",33.4442,-112.0247,CONTRACTOR,,,,,,,,,,,,,,,,,,,,,,,,,,,,29.79,61,98,0,,,,29,29.72,FEW:02 130 FEW:02 150 SCT:04 210,28.62,10,73,250,,6,,,,,,,,,,,,,,,,,,,,,,,,,,,,,,,,,,,,,MET11308/06/24 02:51:02 METAR KPHX 060951Z 25005KT 10SM FEW130 FEW150 SCT210 37/16 A2979 RMK AO2 SLP064 T03670161 (GEH),FM-15,7,,,,,,,,,,,,,,,,,,,,,,,,,,,03-04-2007 00:00
72278023183,06-08-2024 03:51,FM-15,7,,N,0.5,mi,"TEMP, PRECIP",1107,,"MXMN, SRG",33.4442,-112.0247,CONTRACTOR,,,,,,,,,,,,,,,,,,,,,,,,,,,,29.81,63,97,0,,,,33,29.74,FEW:02 120 BKN:07 150 BKN:07 210,28.64,10,74,160,,5,,,,,,,,,,,,,,,,,,,,,,,,,,,,,,,,,,,,,MET11308/06/24 03:51:02 METAR KPHX 061051Z 16004KT 10SM FEW120 BKN150 BKN210 36/17 A2981 RMK AO2 SLP071 T03610172 (GEH),FM-15,7,,,,,,,,,,,,,,,,,,,,,,,,,,,03-04-2007 00:00
72278023183,06-08-2024 04:51,FM-15,7,,N,0.5,mi,"TEMP, PRECIP",1107,,"MXMN, SRG",33.4442,-112.0247,CONTRACTOR,,,,,,,,,,,,,,,,,,,,,,,,,,,,29.83,62,97,0,,-0.04,3,32,29.76,FEW:02 120 BKN:07 160 BKN:07 200,28.66,10,73,0,,0,,,,,,,,,,,,,,,,,,,,,,,,,,,,,,,,,,,,,MET13108/06/24 04:51:02 METAR KPHX 061151Z 00000KT 10SM FEW120 BKN160 BKN200 36/17 A2983 RMK AO2 SLP077 T03610167 10394 20361 53015 (GEH),FM-15,7,,,,,,,,,,,,,,,,,,,,,,,,,,,03-04-2007 00:00
72278023183,06-08-2024 05:00,FM-12,4,,N,0.5,mi,"TEMP, PRECIP",1107,,"MXMN, SRG",33.4442,-112.0247,CONTRACTOR,,,,,,,,,,,,,,,,,,,,,,,,,,,,,62,97,,,-0.04,3,32,29.76,,28.66,9.94,73,0,,0,,,,,,,,,,,,,,,,,,,,,,,,,,,,,,,,,,,,,SYN08072278 32966 60000 10361 20167 39705 40077 53015 91151 333 10444 20361 555 90612=,FM-12,4,,,,,,,,,,,,,,,,,,,,,,,,,,,03-04-2007 00:00
72278023183,06-08-2024 05:51,FM-15,7,,N,0.5,mi,"TEMP, PRECIP",1107,,"MXMN, SRG",33.4442,-112.0247,CONTRACTOR,,,,,,,,,,,,,,,,,,,,,,,,,,,,29.88,63,95,0,,,,35,29.8,FEW:02 120 BKN:07 160 BKN:07 200,28.7,10,73,90,,6,,,,,,,,,,,,,,,,,,,,,,,,,,,,,,,,,,,,,MET11308/06/24 05:51:02 METAR KPHX 061251Z 09005KT 10SM FEW120 BKN160 BKN200 35/17 A2988 RMK AO2 SLP092 T03500172 (GEH),FM-15,7,,,,,,,,,,,,,,,,,,,,,,,,,,,03-04-2007 00:00
72278023183,06-08-2024 06:51,FM-15,7,,N,0.5,mi,"TEMP, PRECIP",1107,,"MXMN, SRG",33.4442,-112.0247,CONTRACTOR,,,,,,,,,,,,,,,,,,,,,,,,,,,,29.91,65,96,0,,,,36,29.83,FEW:02 120 SCT:04 160 BKN:07 200,28.73,10,75,40,,9,,,,,,,,,,,,,,,,,,,,,,,,,,,,,,,,,,,,,MET11208/06/24 06:51:02 METAR KPHX 061351Z 04008KT 10SM FEW120 SCT160 BKN200 36/18 A2991 RMK AO2 SLP103 T03560183 (SH),FM-15,7,,,,,,,,,,,,,,,,,,,,,,,,,,,03-04-2007 00:00
72278023183,06-08-2024 07:51,FM-15,7,,N,0.5,mi,"TEMP, PRECIP",1107,,"MXMN, SRG",33.4442,-112.0247,CONTRACTOR,,,,,,,,,,,,,,,,,,,,,,,,,,,,29.93,64,97,0,,-0.1,1,34,29.86,FEW:02 100 FEW:02 160 SCT:04 200,28.75,10,74,70,,10,,,,,,,,,,,,,,,,,,,,,,,,,,,,,,,,,,,,,MET12008/06/24 07:51:02 METAR KPHX 061451Z 07009KT 10SM FEW100 FEW160 SCT200 36/18 A2993 RMK AO2 SLP111 T03610178 51033 $ (SH),FM-15,7,,,,,,,,,,,,,,,,,,,,,,,,,,,03-04-2007 00:00
72278023183,06-08-2024 08:00,FM-12,4,,N,0.5,mi,"TEMP, PRECIP",1107,,"MXMN, SRG",33.4442,-112.0247,CONTRACTOR,,,,,,,,,,,,,,,,,,,,,,,,,,,,,64,97,,,-0.1,1,34,29.86,,28.76,9.94,74,70,,10,,,,,,,,,,,,,,,,,,,,,,,,,,,,,,,,,,,,,SYN06472278 32966 40709 10361 20178 39738 40111 51033 91451 555 90615=,FM-12,4,,,,,,,,,,,,,,,,,,,,,,,,,,,03-04-2007 00:00
72278023183,06-08-2024 08:44,FM-16,7,,N,0.5,mi,"TEMP, PRECIP",1107,,"MXMN, SRG",33.4442,-112.0247,CONTRACTOR,,,,,,,,,,,,,,,,,,,,,,,,,,,,29.94,60,99,,,,,28,,FEW:02 100 FEW:02 160 FEW:02 200,28.76,10,73,290,20,11,,,,,,,,,,,,,,,,,,,,,,,,,,,,,,,,,,,,,MET10808/06/24 08:44:02 SPECI KPHX 061544Z 29010G17KT 10SM FEW100 FEW160 FEW200 37/16 A2994 RMK AO2 T03720156 (SH),FM-16,7,,,,,,,,,,,,,,,,,,,,,,,,,,,03-04-2007 00:00
72278023183,06-08-2024 08:51,FM-15,7,,N,0.5,mi,"TEMP, PRECIP",1107,,"MXMN, SRG",33.4442,-112.0247,CONTRACTOR,,,,,,,,,,,,,,,,,,,,,,,,,,,,29.94,60,99,0,,,,28,29.88,FEW:02 100 FEW:02 160 FEW:02 200,28.76,10,73,310,22,13,,,,,,,,,,,,,,,,,,,,,,,,,,,,,,,,,,,,,MET11508/06/24 08:51:02 METAR KPHX 061551Z 31011G19KT 10SM FEW100 FEW160 FEW200 37/16 A2994 RMK AO2 SLP117 T03720156 (SH),FM-15,7,,,,,,,,,,,,,,,,,,,,,,,,,,,03-04-2007 00:00
72278023183,06-08-2024 09:51,FM-15,7,,N,0.5,mi,"TEMP, PRECIP",1107,,"MXMN, SRG",33.4442,-112.0247,CONTRACTOR,,,,,,,,,,,,,,,,,,,,,,,,,,,,29.94,60,100,0,,,,27,29.87,FEW:02 100 FEW:02 160 FEW:02 200,28.76,10,73,330,20,14,,,,,,,,,,,,,,,,,,,,,,,,,,,,,,,,,,,,,MET11508/06/24 09:51:02 METAR KPHX 061651Z 33012G17KT 10SM FEW100 FEW160 FEW200 38/16 A2994 RMK AO2 SLP115 T03780156 (SH),FM-15,7,,,,,,,,,,,,,,,,,,,,,,,,,,,03-04-2007 00:00
72278023183,06-08-2024 10:51,FM-15,7,,N,0.5,mi,"TEMP, PRECIP",1107,,"MXMN, SRG",33.4442,-112.0247,CONTRACTOR,,,,,,,,,,,,,,,,,,,,,,,,,,,,29.94,60,102,0,,-0.01,0,25,29.86,FEW:02 100 FEW:02 160 FEW:02 200,28.76,10,74,270,16,11,,,,,,,,,,,,,,,,,,,,,,,,,,,,,,,,,,,,,MET13308/06/24 10:51:02 METAR KPHX 061751Z 27010G14KT 10SM FEW100 FEW160 FEW200 39/16 A2994 RMK AO2 SLP113 T03890156 10394 20350 50002 (SH),FM-15,7,,,,,,,,,,,,,,,,,,,,,,,,,,,03-04-2007 00:00
72278023183,06-08-2024 11:00,FM-12,4,,N,0.5,mi,"TEMP, PRECIP",1107,,"MXMN, SRG",33.4442,-112.0247,CONTRACTOR,,,,,,,,,,,,,,,,,,,,,,,,,,,,,60,102,,,0.01,9,25,29.86,,28.77,9.94,74,270,,11,,,,,,,,,,,,,,,,,,,,,,,,,,,,,,,,,,,,,SYN08672278 32966 42710 10389 20156 39741 40113 50002 91751 333 10394 20350 91014 555 90618=,FM-12,4,,,,,,,,,,,,,,,,,,,,,,,,,,,03-04-2007 00:00
72278023183,06-08-2024 11:51,FM-15,7,,N,0.5,mi,"TEMP, PRECIP",1107,,"MXMN, SRG",33.4442,-112.0247,CONTRACTOR,,,,,,,,,,,,,,,,,,,,,,,,,,,,29.91,60,103,0,,,,24,29.84,FEW:02 80 FEW:02 160 FEW:02 270,28.73,10,74,270,16,11,,,,,,,,,,,,,,,,,,,,,,,,,,,,,,,,,,,,,MET11508/06/24 11:51:02 METAR KPHX 061851Z 27010G14KT 10SM FEW080 FEW160 FEW270 39/16 A2991 RMK AO2 SLP105 T03940156 (SH),FM-15,7,,,,,,,,,,,,,,,,,,,,,,,,,,,03-04-2007 00:00
72278023183,06-08-2024 12:51,FM-15,7,,N,0.5,mi,"TEMP, PRECIP",1107,,"MXMN, SRG",33.4442,-112.0247,CONTRACTOR,,,,,,,,,,,,,,,,,,,,,,,,,,,,29.9,60,105,0,,,,23,29.82,FEW:02 80 FEW:02 160 FEW:02 270,28.72,10,74,310,23,10,,,,,,,,,,,,,,,,,,,,,,,,,,,,,,,,,,,,,MET14308/06/24 12:51:02 METAR KPHX 061951Z 31009G20KT 10SM FEW080 FEW160 FEW270 41/16 A2990 RMK AO2 SLP099 CB DSNT N TCU DSNT E AND NW T04060156 (SH),FM-15,7,,,,,,,,,,,,,,,,,,,,,,,,,,,03-04-2007 00:00
72278023183,06-08-2024 13:51,FM-15,7,,N,0.5,mi,"TEMP, PRECIP",1107,,"MXMN, SRG",33.4442,-112.0247,CONTRACTOR,,,,,,,,,,,,,,,,,,,,,,,,,,,,29.86,59,106,0,,0.07,8,21,29.79,FEW:02 80 FEW:02 160 FEW:02 270,28.69,10,74,VRB,17,6,,,,,,,,,,,,,,,,,,,,,,,,,,,,,,,,,,,,,MET13108/06/24 13:51:02 METAR KPHX 062051Z VRB05G15KT 10SM FEW080 FEW160 FEW270 41/15 A2986 RMK AO2 SLP088 CB DSNT N T04110150 58024 (SH),FM-15,7,,,,,,,,,,,,,,,,,,,,,,,,,,,03-04-2007 00:00
72278023183,06-08-2024 14:00,FM-12,4,,N,0.5,mi,"TEMP, PRECIP",1107,,"MXMN, SRG",33.4442,-112.0247,CONTRACTOR,,,,,,,,,,,,,,,,,,,,,,,,,,,,,59,106,,,0.07,8,21,29.79,74,28.69,9.94,74,,,6,,,,,,,,,,,,,,,,,,,,,,,,,,,,,,,,,,,,,SYN07472278 32866 2//05 10411 20150 39715 40088 58024 92051 333 91015 555 90621=,FM-12,4,,,,,,,,,,,,,,,,,,,,,,,,,,,03-04-2007 00:00
72278023183,06-08-2024 14:32,FM-16,7,,N,0.5,mi,"TEMP, PRECIP",1107,,"MXMN, SRG",33.4442,-112.0247,CONTRACTOR,,,,,,,,,,,,,,,,,,,,,,,,,,,,29.85,58,108,,,,,19,,FEW:02 80 FEW:02 160 FEW:02 270,28.68,10,74,260,17,13,,,,,,,,,,,,,,,,,,,,,,,,,,,,,,,,,,,,,MET11808/06/24 14:32:02 SPECI KPHX 062132Z 26011G15KT 10SM FEW080 FEW160 FEW270 42/14 A2985 RMK AO2 CB DSNT N T04220144 (JH),FM-16,7,,,,,,,,,,,,,,,,,,,,,,,,,,,03-04-2007 00:00
72278023183,06-08-2024 14:51,FM-15,7,,N,0.5,mi,"TEMP, PRECIP",1107,,"MXMN, SRG",33.4442,-112.0247,CONTRACTOR,,,,,,,,,,,,,,,,,,,,,,,,,,,,29.84,58,109,0,,,,19,29.76,FEW:02 90 FEW:02 180 SCT:04 250,28.66,10,75,260,,7,,,,,,,,,,,,,,,,,,,,,,,,,,,,,,,,,,,,,MET12208/06/24 14:51:02 METAR KPHX 062151Z 26006KT 10SM FEW090 FEW180 SCT250 43/14 A2984 RMK AO2 SLP078 CB DSNT N T04280144 (JH),FM-15,7,,,,,,,,,,,,,,,,,,,,,,,,,,,03-04-2007 00:00
72278023183,06-08-2024 15:51,FM-15,7,,N,0.5,mi,"TEMP, PRECIP",1107,,"MXMN, SRG",33.4442,-112.0247,CONTRACTOR,,,,,,,,,,,,,,,,,,,,,,,,,,,,29.81,58,110,0,,,,18,29.73,FEW:02 90 FEW:02 180 SCT:04 250,28.64,10,75,240,18,11,,,,,,,,,,,,,,,,,,,,,,,,,,,,,,,,,,,,,MET13308/06/24 15:51:02 METAR KPHX 062251Z 24010G16KT 10SM FEW090 FEW180 SCT250 43/14 A2981 RMK AO2 SLP068 CB DSNT NE AND SE T04330144 (JH),FM-15,7,,,,,,,,,,,,,,,,,,,,,,,,,,,03-04-2007 00:00
72278023183,06-08-2024 16:51,FM-15,7,,N,0.5,mi,"TEMP, PRECIP",1107,,"MXMN, SRG",33.4442,-112.0247,CONTRACTOR,,,,,,,,,,,,,,,,,,,,,,,,,,,,29.79,57,108,0,,0.07,6,19,29.72,FEW:02 90 SCT:04 200 BKN:07 250,28.62,10,74,280,26,8,,,,,,,,,,,,,,,,,,,,,,,,,,,,,,,,,,,,,MET15108/06/24 16:51:02 METAR KPHX 062351Z 28007G23KT 10SM FEW090 SCT200 BKN250 42/14 A2979 RMK AO2 SLP063 CB DSNT NE AND SE T04220139 10439 20389 56024 (JH),FM-15,7,,,,,,,,,,,,,,,,,,,,,,,,,,,03-04-2007 00:00
72278023183,06-08-2024 17:00,FM-12,4,,N,0.5,mi,"TEMP, PRECIP",1107,,"MXMN, SRG",33.4442,-112.0247,CONTRACTOR,,,,,,,,,,,,,,,,,,,,,,,,,,,,,57,108,,,0.07,6,19,29.72,,28.62,9.94,74,280,,8,,,,,,,,,,,,,,,,,,,,,,,,,,,,,,,,,,,,,SYN08672278 32966 62807 10422 20139 39692 40063 56024 92351 333 10439 20361 91023 555 90700=,FM-12,4,,,,,,,,,,,,,,,,,,,,,,,,,,,03-04-2007 00:00
72278023183,06-08-2024 17:51,FM-15,7,,N,0.5,mi,"TEMP, PRECIP",1107,,"MXMN, SRG",33.4442,-112.0247,CONTRACTOR,,,,,,,,,,,,,,,,,,,,,,,,,,,,29.78,56,108,0,,,,18,29.71,FEW:02 90 SCT:04 200 BKN:07 250,28.61,10,73,240,,11,,,,,,,,,,,,,,,,,,,,,,,,,,,,,,,,,,,,,MET12708/06/24 17:51:01 METAR KPHX 070051Z 24010KT 10SM FEW090 SCT200 BKN250 42/13 A2978 RMK AO2 SLP061 CB DSNT NE-E AND SE T04220133,FM-15,7,,,,,,,,,,,,,,,,,,,,,,,,,,,03-04-2007 00:00
72278023183,06-08-2024 18:51,FM-15,7,,N,0.5,mi,"TEMP, PRECIP",1107,,"MXMN, SRG",33.4442,-112.0247,CONTRACTOR,,,,,,,,,,,,,,,,,,,,,,,,,,,,29.81,56,108,0,,,,18,29.74,FEW:02 90 SCT:04 140 BKN:07 200,28.64,10,73,VRB,,5,,,,,,,,,,,,,,,,,,,,,,,,,,,,,,,,,,,,,MET12708/06/24 18:51:01 METAR KPHX 070151Z VRB04KT 10SM FEW090 SCT140 BKN200 42/13 A2981 RMK AO2 SLP070 CB DSNT NE AND SE-S T04220133,FM-15,7,,,,,,,,,,,,,,,,,,,,,,,,,,,03-04-2007 00:00
72278023183,06-08-2024 19:51,FM-15,7,,N,0.5,mi,"TEMP, PRECIP",1107,,"MXMN, SRG",33.4442,-112.0247,CONTRACTOR,,,,,,,,,,,,,,,,,,,,,,,,,,,,29.82,61,103,0,,-0.03,3,25,29.75,FEW:02 90 SCT:04 140 BKN:07 200,28.65,10,74,270,28,21,,,,,,,,,,,,,,,,,,,,,,,,,,,,,,,,,,,,,MET17908/06/24 19:51:02 METAR KPHX 070251Z 27018G24KT 10SM FEW090 SCT140 BKN200 39/16 A2982 RMK AO2 PK WND 27026/0237 SLP075 FRQ LTGCGIC DSNT SE AND NW CB DSNT SE AND NW T03940161 53011,FM-15,7,,,,,,,,,,,,,,,,,,,,,,,,,,,03-04-2007 00:00
72278023183,06-08-2024 20:00,FM-12,4,,N,0.5,mi,"TEMP, PRECIP",1107,,"MXMN, SRG",33.4442,-112.0247,CONTRACTOR,,,,,,,,,,,,,,,,,,,,,,,,,,,,,61,103,,,-0.03,3,25,29.75,,28.65,9.94,74,270,,21,,,,,,,,,,,,,,,,,,,,,,,,,,,,,,,,,,,,,SYN07472278 32966 62718 10394 20161 39702 40075 53011 90251 333 91024 555 90703=,FM-12,4,,,,,,,,,,,,,,,,,,,,,,,,,,,03-04-2007 00:00
72278023183,06-08-2024 20:49,FM-16,6,,N,0.5,mi,"TEMP, PRECIP",1107,,"MXMN, SRG",33.4442,-112.0247,CONTRACTOR,,,,,,,,,,,,,,,,,,,,,,,,,,,,29.88,64,99,,||RA s,,,33,,SCT:04 90 BKN:07 110,28.7,4,75,210,22,7,,,,,,,,,,,,,,,,,,,,,,,,,,,,,,,,,,,,,MET15208/06/24 20:49:03 SPECI KPHX 070349Z 21006G19KT 4SM TS HZ BLDU SCT090CB BKN110 BKN1 37/18 A2988 RMK AO2 TSB48 FRQ LTGCGIC OHD-S TS OHD-S MOV W FIBI (JH),FM-16,6,,,,,,,,,,,,,,,,,,,,,,,,,,,03-04-2007 00:00
72278023183,06-08-2024 20:51,FM-15,7,,N,0.5,mi,"TEMP, PRECIP",1107,,"MXMN, SRG",33.4442,-112.0247,CONTRACTOR,,,,,,,,,,,,,,,,,,,,,,,,,,,,29.88,64,98,0,|TS |RA s,,,33,29.81,SCT:04 90 BKN:07 110,28.7,4,75,230,,8,,,,,,,,,,,,,,,,,,,,,,,,,,,,,,,,,,,,,MET14908/06/24 20:51:02 METAR KPHX 070351Z 23007KT 4SM TS BLDU SCT090CB BKN110 BKN1 37/18 A2988 RMK AO2 TSB48 SLP095 FRQ LTGCGIC OHD TS OHD MOV W T03670178,FM-15,7,,,,,,,,,,,,,,,,,,,,,,,,,,,03-04-2007 00:00
72278023183,06-08-2024 21:05,FM-16,7,,N,0.5,mi,"TEMP, PRECIP",1107,,"MXMN, SRG",33.4442,-112.0247,CONTRACTOR,,,,,,,,,,,,,,,,,,,,,,,,,,,,29.91,65,100,,|TS |RA,,,32,,FEW:02 26 SCT:04 90,28.73,9,76,280,28,22,,,,,,,,,,,,,,,,,,,,,,,,,,,,,,,,,,,,,MET15908/06/24 21:05:02 SPECI KPHX 070405Z 28019G24KT 9SM TS FEW026 SCT090CB BKN1 38/18 A2991 RMK AO2 PRESRR FRQ LTGCGIC NE AND SW-NW TS NE AND SW-NW MOV W T03780183,FM-16,7,,,,,,,,,,,,,,,,,,,,,,,,,,,03-04-2007 00:00
72278023183,06-08-2024 21:43,FM-16,7,,N,0.5,mi,"TEMP, PRECIP",1107,,"MXMN, SRG",33.4442,-112.0247,CONTRACTOR,,,,,,,,,,,,,,,,,,,,,,,,,,,,29.93,68,94,T,|RA |RA,,,43,,FEW:02 90 FEW:02 110 SCT:04 140,28.75,10,76,310,,14,,,,,,,,,,,,,,,,,,,,,,,,,,,,,,,,,,,,,MET17108/06/24 21:43:02 SPECI KPHX 070443Z 31012KT 10SM -RA FEW090 FEW110 SCT140 34/20 A2993 RMK AO2 PK WND 28029/0406 RAB43 TSE43 FRQ LTGCGIC DSNT NW CB DSNT NW P0000 T03440200,FM-16,7,,,,,,,,,,,,,,,,,,,,,,,,,,,03-04-2007 00:00
72278023183,06-08-2024 21:51,FM-15,7,,N,0.5,mi,"TEMP, PRECIP",1107,,"MXMN, SRG",33.4442,-112.0247,CONTRACTOR,,,,,,,,,,,,,,,,,,,,,,,,,,,,29.93,67,94,T,,,,41,29.87,FEW:02 110 SCT:04 140 BKN:07 200,28.75,10,75,300,,14,,,,,,,,,,,,,,,,,,,,,,,,,,,,,,,,,,,,,MET19108/06/24 21:51:02 METAR KPHX 070451Z 30012KT 10SM FEW110 SCT140 BKN200 34/19 A2993 RMK AO2 PK WND 28029/0406 RAB43E46 TSE43 SLP114 FRQ LTGCGIC DSNT SE AND NW CB DSNT SE AND NW P0000 T03440194,FM-15,7,,,,,,,,,,,,,,,,,,,,,,,,,,,03-04-2007 00:00
72278023183,06-08-2024 22:51,FM-15,7,,N,0.5,mi,"TEMP, PRECIP",1107,,"MXMN, SRG",33.4442,-112.0247,CONTRACTOR,,,,,,,,,,,,,,,,,,,,,,,,,,,,29.98,67,94,0,,-0.15,1,41,29.91,FEW:02 110 SCT:04 140 BKN:07 200,28.8,10,75,80,,11,,,,,,,,,,,,,,,,,,,,,,,,,,,,,,,,,,,,,MET16708/06/24 22:51:02 METAR KPHX 070551Z 08010KT 10SM FEW110 SCT140 BKN200 34/19 A2998 RMK AO2 SLP130 CONS LTGCGIC DSNT SE-S CB DSNT SE-S 60000 T03440194 10433 20333 51051,FM-15,7,,,,,,,,,,,,,,,,,,,,,,,,,,,03-04-2007 00:00
72278023183,06-08-2024 23:00,FM-12,4,,N,0.5,mi,"TEMP, PRECIP",1107,,"MXMN, SRG",33.4442,-112.0247,CONTRACTOR,,,,,,,,,,,,,,,,,,,,,,,,,,,,,67,94,,,-0.15,1,41,29.91,,28.8,9.94,75,80,,11,,,,,,,,,,,,,,,,,,,,,,,,,,,,,,,,,,,,,SYN08672278 12966 60810 10344 20194 39754 40130 51051 69901 90551 333 10433 20333 555 90706=,FM-12,4,,,,,,,,,,,,,,,,,,,,,,,,,,,03-04-2007 00:00
72278023183,06-08-2024 23:51,FM-15,7,,N,0.5,mi,"TEMP, PRECIP",1107,,"MXMN, SRG",33.4442,-112.0247,CONTRACTOR,,,,,,,,,,,,,,,,,,,,,,,,,,,,29.96,65,91,0,,,,42,29.9,FEW:02 110 SCT:04 140 BKN:07 200,28.78,10,73,160,,13,,,,,,,,,,,,,,,,,,,,,,,,,,,,,,,,,,,,,MET16708/06/24 23:51:02 METAR KPHX 070651Z 16011KT 10SM FEW110 SCT140 BKN200 33/18 A2996 RMK AO2 SLP124 CONS LTGCGIC DSNT SE AND S-SW CB DSNT SE AND S-SW T03280183 404390328,FM-15,7,,,,,,,,,,,,,,,,,,,,,,,,,,,03-04-2007 00:00
72278023183,06-08-2024 23:59,SOD  ,6,,N,0.5,mi,"TEMP, PRECIP",1107,,"MXMN, SRG",33.4442,-112.0247,CONTRACTOR,,,,,,61,101,28,29.8,28.7,74,9.7,36,6.9,0,111,91,280,33,T,,,270,26,TS RA,,,,,,,,,,,,,,,,,,,,,,,,,,,,,,,,,,,,,,,,,,,,,,,,,,,,,,,SOD75824 HR PRECIPITATION (IN):    T SNOW DEPTH (IN):0     24 HR SNOWFALL (IN):0.0  WEATHER(CODE):378  24 HR MAX TEMP (F):11124 HR MIN TEMP (F): 91AVERAGE STATION PRESSURE:28.700 MINIMUM SEA LEVEL PRESSURE:29.71 TIME OF OCCURRENCE:1802 PEAK WIND SPEED (MPH): 33 PEAK WIND DIR (DEG):280 PEAK WIND TIME (LST):      FASTEST 2MIN SPEED (MPH): 26FASTEST 2MIN DIR (DEG):270 FASTEST 2MIN TIME (LST):     AVERAGE WIND SPEED (MPH): 9.7 24 HR AVG TEMP (F):101DEPART FROM NORMAL:  6  HEATING DEGREE DAYS:  0 COOLING DEGREE DAYS: 36 LATEST DAY MAX TEMP (0700-1900 LST):111 LATEST NIGHT MIN TEMP(1900-0800 LST):95 HOURLY INCREMENTAL PRECIPITATION VALUES (IN):.00 0.00 0.00 0.00 0.00 0.00 0.00 0.00 0.00 0.00 0.00 0.00 0.00 0.00 0.00 0.00 0.00 0.00 0.00 0.00 0.00 T    0.00 0.00,SOD  ,6,,,,,,,,,,,,,,,,,,,,,,,,,545,1922,03-04-2007 00:00
72278023183,07-08-2024 00:51,FM-15,7,,N,0.5,mi,"TEMP, PRECIP",1107,,"MXMN, SRG",33.4442,-112.0247,CONTRACTOR,,,,,,,,,,,,,,,,,,,,,,,,,,,,29.96,65,90,0,,,,44,29.89,FEW:02 100 BKN:07 200,28.78,10,73,150,,15,,,,,,,,,,,,,,,,,,,,,,,,,,,,,,,,,,,,,MET15408/07/24 00:51:02 METAR KPHX 070751Z 15013KT 10SM FEW100 BKN200 32/18 A2996 RMK AO2 SLP122 CONS LTGIC DSNT E-SE AND SW CB DSNT E-SE AND SW T03220183 (GEH),FM-15,7,,,,,,,,,,,,,,,,,,,,,,,,,,,03-04-2007 00:00
72278023183,07-08-2024 01:51,FM-15,7,,N,0.5,mi,"TEMP, PRECIP",1107,,"MXMN, SRG",33.4442,-112.0247,CONTRACTOR,,,,,,,,,,,,,,,,,,,,,,,,,,,,30.01,67,87,0,,-0.03,3,51,29.95,SCT:04 100 SCT:04 120 BKN:07 140,28.83,10,73,160,40,23,,,,,,,,,,,,,,,,,,,,,,,,,,,,,,,,,,,,,MET19208/07/24 01:51:02 METAR KPHX 070851Z 16020G35KT 10SM SCT100 SCT120 BKN140 31/19 A3001 RMK AO2 PK WND 14035/0847 SLP141 CONS LTGIC DSNT E-SE AND S-SW CB DSNT E-SE AND S-SW T03060194 53011 (GEH),FM-15,7,,,,,,,,,,,,,,,,,,,,,,,,,,,03-04-2007 00:00
72278023183,07-08-2024 02:00,FM-12,4,,N,0.5,mi,"TEMP, PRECIP",1107,,"MXMN, SRG",33.4442,-112.0247,CONTRACTOR,,,,,,,,,,,,,,,,,,,,,,,,,,,,,67,87,,,-0.03,3,51,29.95,,28.83,9.94,73,160,,23,,,,,,,,,,,,,,,,,,,,,,,,,,,,,,,,,,,,,SYN07472278 32966 61620 10306 20194 39764 40141 53011 90851 333 91035 555 90709=,FM-12,4,,,,,,,,,,,,,,,,,,,,,,,,,,,03-04-2007 00:00
72278023183,07-08-2024 02:09,FM-16,7,,N,0.5,mi,"TEMP, PRECIP",1107,,"MXMN, SRG",33.4442,-112.0247,CONTRACTOR,,,,,,,,,,,,,,,,,,,,,,,,,,,,30.02,68,84,,VCTS:7 ||,,,59,,SCT:04 100 SCT:04 120 BKN:07 140,28.84,10,73,150,45,28,,,,,,,,,,,,,,,,,,,,,,,,,,,,,,,,,,,,,MET20508/07/24 02:09:02 SPECI KPHX 070909Z 15024G39KT 10SM VCTS SCT100 SCT120 BKN140 29/20 A3002 RMK AO2 PK WND 16039/0908 LTG DSNT SE-SW TSE03 CONS LTGIC DSNT E-SE AND S-SW CB DSNT E-SE AND S-SW T02890200 (GEH),FM-16,7,,,,,,,,,,,,,,,,,,,,,,,,,,,03-04-2007 00:00
72278023183,07-08-2024 02:24,FM-16,7,,N,0.5,mi,"TEMP, PRECIP",1107,,"MXMN, SRG",33.4442,-112.0247,CONTRACTOR,,,,,,,,,,,,,,,,,,,,,,,,,,,,30,69,83,,,,,63,,SCT:04 100 SCT:04 120 BKN:07 140,28.82,10,73,170,38,22,,,,,,,,,,,,,,,,,,,,,,,,,,,,,,,,,,,,,MET18708/07/24 02:24:02 SPECI KPHX 070924Z 17019G33KT 10SM SCT100 SCT120 BKN140 28/21 A3000 RMK AO2 PK WND 16039/0908 TSE03 CONS LTGCGIC DSNT E-SE AND S-SW CB DSNT E-SE AND S-SW T02830206 (GEH),FM-16,7,,,,,,,,,,,,,,,,,,,,,,,,,,,03-04-2007 00:00
72278023183,07-08-2024 02:51,FM-15,7,,N,0.5,mi,"TEMP, PRECIP",1107,,"MXMN, SRG",33.4442,-112.0247,CONTRACTOR,,,,,,,,,,,,,,,,,,,,,,,,,,,,30.02,68,85,0,,,,57,29.95,SCT:04 100 SCT:04 120 BKN:07 140,28.84,10,73,200,30,11,,,,,,,,,,,,,,,,,,,,,,,,,,,,,,,,,,,,,MET19008/07/24 02:51:02 METAR KPHX 070951Z 20010G26KT 10SM SCT100 SCT120 BKN140 29/20 A3002 RMK AO2 PK WND 16039/0908 TSE03 SLP142 CONS LTGCGIC DSNT SE AND S-SW CB DSNT SE AND S-SW T02940200 (GEH),FM-15,7,,,,,,,,,,,,,,,,,,,,,,,,,,,03-04-2007 00:00
72278023183,07-08-2024 03:13,FM-16,7,,N,0.5,mi,"TEMP, PRECIP",1107,,"MXMN, SRG",33.4442,-112.0247,CONTRACTOR,,,,,,,,,,,,,,,,,,,,,,,,,,,,30.01,69,86,,,,,57,,SCT:04 100 SCT:04 120 BKN:07 140,28.83,10,74,210,29,18,,,,,,,,,,,,,,,,,,,,,,,,,,,,,,,,,,,,,MET17008/07/24 03:13:02 SPECI KPHX 071013Z 21016G25KT 10SM SCT100 SCT120 BKN140 30/21 A3001 RMK AO2 WSHFT 0953 CONS LTGCGIC DSNT SE AND S-SW CB DSNT SE AND S-SW T03000206 (GEH),FM-16,7,,,,,,,,,,,,,,,,,,,,,,,,,,,03-04-2007 00:00
72278023183,07-08-2024 03:51,FM-15,7,,N,0.5,mi,"TEMP, PRECIP",1107,,"MXMN, SRG",33.4442,-112.0247,CONTRACTOR,,,,,,,,,,,,,,,,,,,,,,,,,,,,30.03,66,85,0,,,,53,29.96,SCT:04 100 SCT:04 120 BKN:07 150,28.85,10,72,40,,5,,,,,,,,,,,,,,,,,,,,,,,,,,,,,,,,,,,,,MET17608/07/24 03:51:02 METAR KPHX 071051Z 04004KT 10SM SCT100 SCT120 BKN150 29/19 A3003 RMK AO2 WSHFT 0953 SLP147 CONS LTGCGICCC DSNT SE AND S-SW CB DSNT SE AND S-SW T02940189 (GEH),FM-15,7,,,,,,,,,,,,,,,,,,,,,,,,,,,03-04-2007 00:00
72278023183,07-08-2024 04:18,FM-16,7,,N,0.5,mi,"TEMP, PRECIP",1107,,"MXMN, SRG",33.4442,-112.0247,CONTRACTOR,,,,,,,,,,,,,,,,,,,,,,,,,,,,30.03,66,83,,,,,57,,SCT:04 100 SCT:04 120 BKN:07 150,28.85,7,72,130,,11,,,,,,,,,,,,,,,,,,,,,,,,,,,,,,,,,,,,,MET16808/07/24 04:18:02 SPECI KPHX 071118Z 13010KT 7SM SCT100 SCT120 BKN150 28/19 A3003 RMK AO2 WSHFT 1058 CONS LTGCGICCC DSNT SE AND S-SW CB DSNT SE AND S-SW T02830189 (GEH),FM-16,7,,,,,,,,,,,,,,,,,,,,,,,,,,,03-04-2007 00:00
72278023183,07-08-2024 04:51,FM-15,7,,N,0.5,mi,"TEMP, PRECIP",1107,,"MXMN, SRG",33.4442,-112.0247,CONTRACTOR,,,,,,,,,,,,,,,,,,,,,,,,,,,,30.04,65,82,0,,-0.02,3,56,29.97,FEW:02 100 SCT:04 130 BKN:07 190,28.86,10,71,130,,9,,,,,,,,,,,,,,,,,,,,,,,,,,,,,,,,,,,,,MET17008/07/24 04:51:02 METAR KPHX 071151Z 13008KT 10SM FEW100 SCT130 BKN190 28/18 A3004 RMK AO2 WSHFT 1058 SLP149 OCNL LTGCG DSNT S CB DSNT S T02780183 10344 20278 53008 (GEH),FM-15,7,,,,,,,,,,,,,,,,,,,,,,,,,,,03-04-2007 00:00
72278023183,07-08-2024 05:00,FM-12,4,,N,0.5,mi,"TEMP, PRECIP",1107,,"MXMN, SRG",33.4442,-112.0247,CONTRACTOR,,,,,,,,,,,,,,,,,,,,,,,,,,,,,65,82,,,-0.02,3,56,29.97,,28.86,9.94,71,130,,9,,,,,,,,,,,,,,,,,,,,,,,,,,,,,,,,,,,,,SYN08072278 32966 61308 10278 20183 39774 40149 53008 91151 333 10439 20278 555 90712=,FM-12,4,,,,,,,,,,,,,,,,,,,,,,,,,,,03-04-2007 00:00
72278023183,07-08-2024 05:51,FM-15,7,,N,0.5,mi,"TEMP, PRECIP",1107,,"MXMN, SRG",33.4442,-112.0247,CONTRACTOR,,,,,,,,,,,,,,,,,,,,,,,,,,,,30.04,65,82,0,,,,56,29.97,FEW:02 60 FEW:02 100 SCT:04 130,28.86,10,71,130,,9,,,,,,,,,,,,,,,,,,,,,,,,,,,,,,,,,,,,,MET12808/07/24 05:51:02 METAR KPHX 071251Z 13008KT 10SM FEW060 FEW100 SCT130 28/18 A3004 RMK AO2 SLP150 SHRA DSNT SE-S T02780183 (GEH),FM-15,7,,,,,,,,,,,,,,,,,,,,,,,,,,,03-04-2007 00:00
72278023183,07-08-2024 06:51,FM-15,7,,N,0.5,mi,"TEMP, PRECIP",1107,,"MXMN, SRG",33.4442,-112.0247,CONTRACTOR,,,,,,,,,,,,,,,,,,,,,,,,,,,,30.04,65,82,0,,,,56,29.97,FEW:02 60 FEW:02 100 SCT:04 130,28.86,10,71,140,,8,,,,,,,,,,,,,,,,,,,,,,,,,,,,,,,,,,,,,MET13708/07/24 06:51:02 METAR KPHX 071351Z 14007KT 10SM FEW060 FEW100 SCT130 28/18 A3004 RMK AO2 SLP149 SHRA DSNT SE AND VIRGA S T02780183 (AR),FM-15,7,,,,,,,,,,,,,,,,,,,,,,,,,,,03-04-2007 00:00
72278023183,07-08-2024 07:51,FM-15,7,,N,0.5,mi,"TEMP, PRECIP",1107,,"MXMN, SRG",33.4442,-112.0247,CONTRACTOR,,,,,,,,,,,,,,,,,,,,,,,,,,,,30.04,71,83,0,,-0.01,3,67,29.98,FEW:02 60 FEW:02 90 SCT:04 120,28.86,10,75,150,,14,,,,,,,,,,,,,,,,,,,,,,,,,,,,,,,,,,,,,MET13108/07/24 07:51:02 METAR KPHX 071451Z 15012KT 10SM FEW060 FEW090 SCT120 28/22 A3004 RMK AO2 SLP152 SHRA DSNT SE T02830217 53002 (AR),FM-15,7,,,,,,,,,,,,,,,,,,,,,,,,,,,03-04-2007 00:00
72278023183,07-08-2024 08:00,FM-12,4,,N,0.5,mi,"TEMP, PRECIP",1107,,"MXMN, SRG",33.4442,-112.0247,CONTRACTOR,,,,,,,,,,,,,,,,,,,,,,,,,,,,,71,83,,,-0.01,3,67,29.98,57,28.86,9.94,75,150,,14,,,,,,,,,,,,,,,,,,,,,,,,,,,,,,,,,,,,,SYN06472278 32766 61512 10283 20217 39774 40152 53002 91451 555 90715=,FM-12,4,,,,,,,,,,,,,,,,,,,,,,,,,,,03-04-2007 00:00
72278023183,07-08-2024 08:51,FM-15,7,,N,0.5,mi,"TEMP, PRECIP",1107,,"MXMN, SRG",33.4442,-112.0247,CONTRACTOR,,,,,,,,,,,,,,,,,,,,,,,,,,,,30.03,68,87,0,,,,53,29.97,FEW:02 90 FEW:02 120 SCT:04 170,28.85,10,74,160,,9,,,,,,,,,,,,,,,,,,,,,,,,,,,,,,,,,,,,,MET11208/07/24 08:51:02 METAR KPHX 071551Z 16008KT 10SM FEW090 FEW120 SCT170 31/20 A3003 RMK AO2 SLP148 T03060200 (AR),FM-15,7,,,,,,,,,,,,,,,,,,,,,,,,,,,03-04-2007 00:00
72278023183,07-08-2024 09:51,FM-15,7,,N,0.5,mi,"TEMP, PRECIP",1107,,"MXMN, SRG",33.4442,-112.0247,CONTRACTOR,,,,,,,,,,,,,,,,,,,,,,,,,,,,30.02,66,91,0,,,,44,29.96,FEW:02 110 FEW:02 150 SCT:04 230,28.84,10,74,VRB,,3,,,,,,,,,,,,,,,,,,,,,,,,,,,,,,,,,,,,,MET11208/07/24 09:51:02 METAR KPHX 071651Z VRB03KT 10SM FEW110 FEW150 SCT230 33/19 A3002 RMK AO2 SLP144 T03280189 (AR),FM-15,7,,,,,,,,,,,,,,,,,,,,,,,,,,,03-04-2007 00:00
72278023183,07-08-2024 10:51,FM-15,7,,N,0.5,mi,"TEMP, PRECIP",1107,,"MXMN, SRG",33.4442,-112.0247,CONTRACTOR,,,,,,,,,,,,,,,,,,,,,,,,,,,,30,64,93,0,,0.04,6,38,29.94,FEW:02 110 FEW:02 150 SCT:04 230,28.82,10,73,VRB,,3,,,,,,,,,,,,,,,,,,,,,,,,,,,,,,,,,,,,,MET13008/07/24 10:51:02 METAR KPHX 071751Z VRB03KT 10SM FEW110 FEW150 SCT230 34/18 A3000 RMK AO2 SLP139 T03390178 10344 20272 56013 (AR),FM-15,7,,,,,,,,,,,,,,,,,,,,,,,,,,,03-04-2007 00:00
72278023183,07-08-2024 11:00,FM-12,4,,N,0.5,mi,"TEMP, PRECIP",1107,,"MXMN, SRG",33.4442,-112.0247,CONTRACTOR,,,,,,,,,,,,,,,,,,,,,,,,,,,,,64,93,,,0.04,6,38,29.94,,28.82,9.94,73,,,3,,,,,,,,,,,,,,,,,,,,,,,,,,,,,,,,,,,,,SYN08072278 32966 6//03 10339 20178 39761 40139 56013 91751 333 10344 20272 555 90718=,FM-12,4,,,,,,,,,,,,,,,,,,,,,,,,,,,03-04-2007 00:00
72278023183,07-08-2024 11:51,FM-15,7,,N,0.5,mi,"TEMP, PRECIP",1107,,"MXMN, SRG",33.4442,-112.0247,CONTRACTOR,,,,,,,,,,,,,,,,,,,,,,,,,,,,29.98,63,95,0,,,,35,29.91,FEW:02 110 FEW:02 150 SCT:04 230,28.8,10,73,VRB,,6,,,,,,,,,,,,,,,,,,,,,,,,,,,,,,,,,,,,,MET11208/07/24 11:51:02 METAR KPHX 071851Z VRB05KT 10SM FEW110 FEW150 SCT230 35/17 A2998 RMK AO2 SLP130 T03500172 (AR),FM-15,7,,,,,,,,,,,,,,,,,,,,,,,,,,,03-04-2007 00:00
72278023183,07-08-2024 12:51,FM-15,7,,N,0.5,mi,"TEMP, PRECIP",1107,,"MXMN, SRG",33.4442,-112.0247,CONTRACTOR,,,,,,,,,,,,,,,,,,,,,,,,,,,,29.95,60,98,0,,,,28,29.88,FEW:02 110 FEW:02 150 SCT:04 180,28.77,10,73,VRB,,7,,,,,,,,,,,,,,,,,,,,,,,,,,,,,,,,,,,,,MET11208/07/24 12:51:02 METAR KPHX 071951Z VRB06KT 10SM FEW110 FEW150 SCT180 37/16 A2995 RMK AO2 SLP119 T03670156 (AR),FM-15,7,,,,,,,,,,,,,,,,,,,,,,,,,,,03-04-2007 00:00
72278023183,07-08-2024 13:51,FM-15,7,,N,0.5,mi,"TEMP, PRECIP",1107,,"MXMN, SRG",33.4442,-112.0247,CONTRACTOR,,,,,,,,,,,,,,,,,,,,,,,,,,,,29.91,61,99,0,,0.09,8,29,29.85,FEW:02 110 FEW:02 130 SCT:04 180,28.73,10,73,310,,8,,,,,,,,,,,,,,,,,,,,,,,,,,,,,,,,,,,,,MET11808/07/24 13:51:02 METAR KPHX 072051Z 31007KT 10SM FEW110 FEW130 SCT180 37/16 A2991 RMK AO2 SLP107 T03720161 58030 (AR),FM-15,7,,,,,,,,,,,,,,,,,,,,,,,,,,,03-04-2007 00:00
72278023183,07-08-2024 14:00,FM-12,4,,N,0.5,mi,"TEMP, PRECIP",1107,,"MXMN, SRG",33.4442,-112.0247,CONTRACTOR,,,,,,,,,,,,,,,,,,,,,,,,,,,,,61,99,,,0.09,8,29,29.85,,28.74,9.94,73,310,,8,,,,,,,,,,,,,,,,,,,,,,,,,,,,,,,,,,,,,SYN06472278 32966 43107 10372 20161 39731 40107 58030 92051 555 90721=,FM-12,4,,,,,,,,,,,,,,,,,,,,,,,,,,,03-04-2007 00:00
72278023183,07-08-2024 14:51,FM-15,7,,N,0.5,mi,"TEMP, PRECIP",1107,,"MXMN, SRG",33.4442,-112.0247,CONTRACTOR,,,,,,,,,,,,,,,,,,,,,,,,,,,,29.87,63,101,0,,,,29,29.8,FEW:02 90 FEW:02 130 SCT:04 250,28.69,10,75,260,20,6,,,,,,,,,,,,,,,,,,,,,,,,,,,,,,,,,,,,,MET11508/07/24 14:51:02 METAR KPHX 072151Z 26005G17KT 10SM FEW090 FEW130 SCT250 38/17 A2987 RMK AO2 SLP092 T03830172 (JH),FM-15,7,,,,,,,,,,,,,,,,,,,,,,,,,,,03-04-2007 00:00
72278023183,07-08-2024 15:51,FM-15,7,,N,0.5,mi,"TEMP, PRECIP",1107,,"MXMN, SRG",33.4442,-112.0247,CONTRACTOR,,,,,,,,,,,,,,,,,,,,,,,,,,,,29.85,63,101,0,,,,29,29.78,FEW:02 90 SCT:04 180 SCT:04 210,28.68,10,75,,,,,,,,,,,,,,,,,,,,,,,,,,,,,,,,,,,,,,,,MET12508/07/24 15:51:02 METAR KPHX 072251Z      KT 10SM FEW090 SCT180 SCT210 38/17 A2985 RMK AO2 SLP086 CB DSNT E-SE T03830172 (JH),FM-15,7,,,,,,,,,,,,,,,,,,,,,,,,,,,03-04-2007 00:00
72278023183,07-08-2024 15:53,FM-16,7,,N,0.5,mi,"TEMP, PRECIP",1107,,"MXMN, SRG",33.4442,-112.0247,CONTRACTOR,,,,,,,,,,,,,,,,,,,,,,,,,,,,29.85,63,102,,,,,28,,FEW:02 90 SCT:04 180 SCT:04 210,28.68,10,75,0,,0,,,,,,,,,,,,,,,,,,,,,,,,,,,,,,,,,,,,,MET11808/07/24 15:53:02 SPECI KPHX 072253Z 00000KT 10SM FEW090 SCT180 SCT210 39/17 A2985 RMK AO2 CB DSNT E-SE T03890172 (JH),FM-16,7,,,,,,,,,,,,,,,,,,,,,,,,,,,03-04-2007 00:00
72278023183,07-08-2024 16:51,FM-15,7,,N,0.5,mi,"TEMP, PRECIP",1107,,"MXMN, SRG",33.4442,-112.0247,CONTRACTOR,,,,,,,,,,,,,,,,,,,,,,,,,,,,29.83,61,102,0,,0.08,6,26,29.76,FEW:02 90 SCT:04 180 SCT:04 210,28.66,10,74,160,,10,,,,,,,,,,,,,,,,,,,,,,,,,,,,,,,,,,,,,MET14008/07/24 16:51:02 METAR KPHX 072351Z 16009KT 10SM FEW090 SCT180 SCT210 39/16 A2983 RMK AO2 SLP078 CB DSNT N T03890161 10400 20333 56028 (JH),FM-15,7,,,,,,,,,,,,,,,,,,,,,,,,,,,03-04-2007 00:00
72278023183,07-08-2024 17:00,FM-12,4,,N,0.5,mi,"TEMP, PRECIP",1107,,"MXMN, SRG",33.4442,-112.0247,CONTRACTOR,,,,,,,,,,,,,,,,,,,,,,,,,,,,,61,102,,,0.08,6,26,29.76,,28.66,9.94,74,160,,10,,,,,,,,,,,,,,,,,,,,,,,,,,,,,,,,,,,,,SYN08072278 32966 61609 10389 20161 39705 40078 56028 92351 333 10400 20278 555 90800=,FM-12,4,,,,,,,,,,,,,,,,,,,,,,,,,,,03-04-2007 00:00
72278023183,07-08-2024 17:51,FM-15,7,,N,0.5,mi,"TEMP, PRECIP",1107,,"MXMN, SRG",33.4442,-112.0247,CONTRACTOR,,,,,,,,,,,,,,,,,,,,,,,,,,,,29.81,62,102,0,,,,27,29.75,FEW:02 90 SCT:04 180 SCT:04 210,28.64,10,75,190,,10,,,,,,,,,,,,,,,,,,,,,,,,,,,,,,,,,,,,,MET12608/07/24 17:51:01 METAR KPHX 080051Z 19009KT 10SM FEW090 SCT180 SCT210 39/17 A2981 RMK AO2 SLP074 CB DSNT N-NE AND S T03890167,FM-15,7,,,,,,,,,,,,,,,,,,,,,,,,,,,03-04-2007 00:00
72278023183,07-08-2024 18:51,FM-15,7,,N,0.5,mi,"TEMP, PRECIP",1107,,"MXMN, SRG",33.4442,-112.0247,CONTRACTOR,,,,,,,,,,,,,,,,,,,,,,,,,,,,29.82,62,100,0,,,,29,29.75,FEW:02 90 SCT:04 180 SCT:04 210,28.65,10,74,190,,10,,,,,,,,,,,,,,,,,,,,,,,,,,,,,,,,,,,,,MET12008/07/24 18:51:01 METAR KPHX 080151Z 19009KT 10SM FEW090 SCT180 SCT210 38/17 A2982 RMK AO2 SLP075 CB DSNT SE-S T03780167,FM-15,7,,,,,,,,,,,,,,,,,,,,,,,,,,,03-04-2007 00:00
72278023183,07-08-2024 19:51,FM-15,7,,N,0.5,mi,"TEMP, PRECIP",1107,,"MXMN, SRG",33.4442,-112.0247,CONTRACTOR,,,,,,,,,,,,,,,,,,,,,,,,,,,,29.81,63,99,0,,0.01,6,31,29.75,FEW:02 90 SCT:04 180 SCT:04 210,28.64,10,74,180,,10,,,,,,,,,,,,,,,,,,,,,,,,,,,,,,,,,,,,,MET15708/07/24 19:51:02 METAR KPHX 080251Z 18009KT 10SM FEW090 SCT180 SCT210 37/17 A2981 RMK AO2 SLP074 FRQ LTGCGIC DSNT NW CB DSNT NW SHRA DSNT NW T03720172 56003,FM-15,7,,,,,,,,,,,,,,,,,,,,,,,,,,,03-04-2007 00:00
72278023183,07-08-2024 20:00,FM-12,4,,N,0.5,mi,"TEMP, PRECIP",1107,,"MXMN, SRG",33.4442,-112.0247,CONTRACTOR,,,,,,,,,,,,,,,,,,,,,,,,,,,,,63,99,,,0.01,6,31,29.75,,28.64,9.94,74,180,,10,,,,,,,,,,,,,,,,,,,,,,,,,,,,,,,,,,,,,SYN06472278 32966 61809 10372 20172 39698 40074 56003 90251 555 90803=,FM-12,4,,,,,,,,,,,,,,,,,,,,,,,,,,,03-04-2007 00:00
72278023183,07-08-2024 20:51,FM-15,7,,N,0.5,mi,"TEMP, PRECIP",1107,,"MXMN, SRG",33.4442,-112.0247,CONTRACTOR,,,,,,,,,,,,,,,,,,,,,,,,,,,,29.84,63,98,0,,,,32,29.77,FEW:02 110 SCT:04 180 BKN:07 210,28.66,10,74,200,,7,,,,,,,,,,,,,,,,,,,,,,,,,,,,,,,,,,,,,MET10708/07/24 20:51:02 METAR KPHX 080351Z 20006KT 10SM FEW110 SCT180 BKN210 37/17 A2984 RMK AO2 SLP082 T03670172,FM-15,7,,,,,,,,,,,,,,,,,,,,,,,,,,,03-04-2007 00:00
72278023183,07-08-2024 21:51,FM-15,7,,N,0.5,mi,"TEMP, PRECIP",1107,,"MXMN, SRG",33.4442,-112.0247,CONTRACTOR,,,,,,,,,,,,,,,,,,,,,,,,,,,,29.85,63,98,0,,,,32,29.78,SCT:04 120 BKN:07 180 BKN:07 210,28.68,10,74,210,,8,,,,,,,,,,,,,,,,,,,,,,,,,,,,,,,,,,,,,MET13908/07/24 21:51:02 METAR KPHX 080451Z 21007KT 10SM SCT120 BKN180 BKN210 37/17 A2985 RMK AO2 SLP085 OCNL LTGCGIC DSNT SW CB DSNT SW T03670172,FM-15,7,,,,,,,,,,,,,,,,,,,,,,,,,,,03-04-2007 00:00
72278023183,07-08-2024 22:22,FM-16,7,,N,0.5,mi,"TEMP, PRECIP",1107,,"MXMN, SRG",33.4442,-112.0247,CONTRACTOR,,,,,,,,,,,,,,,,,,,,,,,,,,,,29.84,71,94,0.01,TS:7 -RA:02 |RA TS TS |RA,,,48,,SCT:04 120 BKN:07 180 BKN:07 210,28.66,9,78,210,,10,,,,,,,,,,,,,,,,,,,,,,,,,,,,,,,,,,,,,MET15408/07/24 22:22:02 SPECI KPHX 080522Z 21009KT 9SM -TSRA SCT120CB BKN180 BKN210 34/22 A2984 RMK AO2 RAB08 TSB16 FRQ LTGICCA OHD TS OHD MOV W P0001 T03440217,FM-16,7,,,,,,,,,,,,,,,,,,,,,,,,,,,03-04-2007 00:00
72278023183,07-08-2024 22:51,FM-15,7,,N,0.5,mi,"TEMP, PRECIP",1107,,"MXMN, SRG",33.4442,-112.0247,CONTRACTOR,,,,,,,,,,,,,,,,,,,,,,,,,,,,29.85,68,91,0.01,TS:7 |TS TS |,-0.03,1,47,29.78,SCT:04 120 BKN:07 140 BKN:07 160,28.68,10,75,240,22,13,,,,,,,,,,,,,,,,,,,,,,,,,,,,,,,,,,,,,MET20108/07/24 22:51:02 METAR KPHX 080551Z 24011G19KT 10SM TS SCT120CB BKN140 BKN160 33/20 A2985 RMK AO2 RAB08E27 TSB16E43B44 SLP086 CONS LTGCGICCCCA S-W TS S-W MOV SW P0001 60001 T03280200 10394 20328 51011,FM-15,7,,,,,,,,,,,,,,,,,,,,,,,,,,,03-04-2007 00:00
72278023183,07-08-2024 23:00,FM-12,4,,N,0.5,mi,"TEMP, PRECIP",1107,,"MXMN, SRG",33.4442,-112.0247,CONTRACTOR,,,,,,,,,,,,,,,,,,,,,,,,,,,,,68,91,,||TS,-0.03,1,47,29.78,,28.68,9.94,75,240,,13,,,,,,,,,,,,,,,,,,,,,,,,,,,,,,,,,,,,,SYN09872278 11966 62411 10328 20200 39712 40086 51011 69931 795// 90551 333 10394 20278 91019 555 90806=,FM-12,4,,,,,,,,,,,,,,,,,,,,,,,,,,,03-04-2007 00:00
72278023183,07-08-2024 23:01,FM-16,7,,N,0.5,mi,"TEMP, PRECIP",1107,,"MXMN, SRG",33.4442,-112.0247,CONTRACTOR,,,,,,,,,,,,,,,,,,,,,,,,,,,,29.85,68,89,,,,,50,,SCT:04 120 BKN:07 140 BKN:07 160,28.68,10,75,230,,15,,,,,,,,,,,,,,,,,,,,,,,,,,,,,,,,,,,,,MET14208/07/24 23:01:02 SPECI KPHX 080601Z 23013KT 10SM SCT120 BKN140 BKN160 32/20 A2985 RMK AO2 TSE01 CONS LTGICCA DSNT S-SW CB DSNT S-SW T03170200,FM-16,7,,,,,,,,,,,,,,,,,,,,,,,,,,,03-04-2007 00:00
72278023183,07-08-2024 23:51,FM-15,7,,N,0.5,mi,"TEMP, PRECIP",1107,,"MXMN, SRG",33.4442,-112.0247,CONTRACTOR,,,,,,,,,,,,,,,,,,,,,,,,,,,,29.86,67,90,0,,,,47,29.8,SCT:04 120 BKN:07 150 BKN:07 200,28.69,10,74,290,,9,,,,,,,,,,,,,,,,,,,,,,,,,,,,,,,,,,,,,MET15308/07/24 23:51:01 METAR KPHX 080651Z 29008KT 10SM SCT120 BKN150 BKN200 32/19 A2986 RMK AO2 TSE01 SLP091 OCNL LTGIC DSNT SW CB DSNT SW T03220194 404000272,FM-15,7,,,,,,,,,,,,,,,,,,,,,,,,,,,03-04-2007 00:00
72278023183,07-08-2024 23:59,SOD  ,6,,N,0.5,mi,"TEMP, PRECIP",1107,,"MXMN, SRG",33.4442,-112.0247,CONTRACTOR,,,,,,65,93,41,29.87,28.74,73,9.4,28,-1,0,104,81,160,45,0.01,,,150,28,TS RA,,,,,,,,,,,,,,,,,,,,,,,,,,,,,,,,,,,,,,,,,,,,,,,,,,,,,,,SOD75624 HR PRECIPITATION (IN): 0.01 SNOW DEPTH (IN):0     24 HR SNOWFALL (IN):0.0  WEATHER(CODE):3  24 HR MAX TEMP (F):10424 HR MIN TEMP (F): 81AVERAGE STATION PRESSURE:28.745 MINIMUM SEA LEVEL PRESSURE:29.74 TIME OF OCCURRENCE:1945 PEAK WIND SPEED (MPH): 44 PEAK WIND DIR (DEG):160 PEAK WIND TIME (LST):      FASTEST 2MIN SPEED (MPH): 28FASTEST 2MIN DIR (DEG):150 FASTEST 2MIN TIME (LST):     AVERAGE WIND SPEED (MPH): 9.4 24 HR AVG TEMP (F): 93DEPART FROM NORMAL: -2  HEATING DEGREE DAYS:  0 COOLING DEGREE DAYS: 28 LATEST DAY MAX TEMP (0700-1900 LST):104 LATEST NIGHT MIN TEMP(1900-0800 LST):81 HOURLY INCREMENTAL PRECIPITATION VALUES (IN):.00 0.00 0.00 0.00 0.00 0.00 0.00 0.00 0.00 0.00 0.00 0.00 0.00 0.00 0.00 0.00 0.00 0.00 0.00 0.00 0.00 0.00 0.01 0.00,SOD  ,6,,,,,,,,,,,,,,,,,,,,,,,,,545,1921,03-04-2007 00:00
72278023183,08-08-2024 00:51,FM-15,7,,N,0.5,mi,"TEMP, PRECIP",1107,,"MXMN, SRG",33.4442,-112.0247,CONTRACTOR,,,,,,,,,,,,,,,,,,,,,,,,,,,,29.87,65,91,0,,,,42,29.8,SCT:04 120 BKN:07 140 BKN:07 180,28.69,10,73,10,,5,,,,,,,,,,,,,,,,,,,,,,,,,,,,,,,,,,,,,MET11308/08/24 00:51:02 METAR KPHX 080751Z 01004KT 10SM SCT120 BKN140 BKN180 33/18 A2987 RMK AO2 SLP091 T03280183 (GEH),FM-15,7,,,,,,,,,,,,,,,,,,,,,,,,,,,03-04-2007 00:00
72278023183,08-08-2024 01:51,FM-15,7,,N,0.5,mi,"TEMP, PRECIP",1107,,"MXMN, SRG",33.4442,-112.0247,CONTRACTOR,,,,,,,,,,,,,,,,,,,,,,,,,,,,29.87,65,92,0,,-0.02,1,41,29.8,FEW:02 120 BKN:07 140 BKN:07 180,28.69,10,74,10,,6,,,,,,,,,,,,,,,,,,,,,,,,,,,,,,,,,,,,,MET11908/08/24 01:51:02 METAR KPHX 080851Z 01005KT 10SM FEW120 BKN140 BKN180 33/18 A2987 RMK AO2 SLP093 T03330183 51008 (GEH),FM-15,7,,,,,,,,,,,,,,,,,,,,,,,,,,,03-04-2007 00:00
72278023183,08-08-2024 02:00,FM-12,4,,N,0.5,mi,"TEMP, PRECIP",1107,,"MXMN, SRG",33.4442,-112.0247,CONTRACTOR,,,,,,,,,,,,,,,,,,,,,,,,,,,,,65,92,,,-0.02,1,41,29.8,,28.7,9.94,74,10,,6,,,,,,,,,,,,,,,,,,,,,,,,,,,,,,,,,,,,,SYN06472278 32966 60105 10333 20183 39718 40093 51008 90851 555 90809=,FM-12,4,,,,,,,,,,,,,,,,,,,,,,,,,,,03-04-2007 00:00
72278023183,08-08-2024 02:51,FM-15,7,,N,0.5,mi,"TEMP, PRECIP",1107,,"MXMN, SRG",33.4442,-112.0247,CONTRACTOR,,,,,,,,,,,,,,,,,,,,,,,,,,,,29.87,66,91,0,,,,44,29.8,FEW:02 120 BKN:07 140 BKN:07 190,28.69,10,74,240,,3,,,,,,,,,,,,,,,,,,,,,,,,,,,,,,,,,,,,,MET11308/08/24 02:51:02 METAR KPHX 080951Z 24003KT 10SM FEW120 BKN140 BKN190 33/19 A2987 RMK AO2 SLP092 T03280189 (GEH),FM-15,7,,,,,,,,,,,,,,,,,,,,,,,,,,,03-04-2007 00:00
72278023183,08-08-2024 03:51,FM-15,7,,N,0.5,mi,"TEMP, PRECIP",1107,,"MXMN, SRG",33.4442,-112.0247,CONTRACTOR,,,,,,,,,,,,,,,,,,,,,,,,,,,,29.86,69,90,0,,,,50,29.8,FEW:02 140 SCT:04 160 SCT:04 190,28.69,10,75,110,,5,,,,,,,,,,,,,,,,,,,,,,,,,,,,,,,,,,,,,MET11308/08/24 03:51:02 METAR KPHX 081051Z 11004KT 10SM FEW140 SCT160 SCT190 32/21 A2986 RMK AO2 SLP090 T03220206 (GEH),FM-15,7,,,,,,,,,,,,,,,,,,,,,,,,,,,03-04-2007 00:00
72278023183,08-08-2024 04:51,FM-15,7,,N,0.5,mi,"TEMP, PRECIP",1107,,"MXMN, SRG",33.4442,-112.0247,CONTRACTOR,,,,,,,,,,,,,,,,,,,,,,,,,,,,29.86,69,89,0,,0.01,6,52,29.79,FEW:02 140 SCT:04 160 SCT:04 190,28.69,10,75,160,,8,,,,,,,,,,,,,,,,,,,,,,,,,,,,,,,,,,,,,MET13708/08/24 04:51:02 METAR KPHX 081151Z 16007KT 10SM FEW140 SCT160 SCT190 32/21 A2986 RMK AO2 SLP089 70001 T03170206 10333 20311 56004 (GEH),FM-15,7,,,,,,,,,,,,,,,,,,,,,,,,,,,03-04-2007 00:00
72278023183,08-08-2024 05:00,FM-12,4,,N,0.5,mi,"TEMP, PRECIP",1107,,"MXMN, SRG",33.4442,-112.0247,CONTRACTOR,,,,,,,,,,,,,,,,,,,,,,,,,,,,,69,89,,,0.01,6,52,29.79,,28.69,9.94,75,160,,8,,,,,,,,,,,,,,,,,,,,,,,,,,,,,,,,,,,,,SYN08672278 32966 41607 10317 20206 39715 40089 56004 91151 333 10400 20311 70003 555 90812=,FM-12,4,,,,,,,,,,,,,,,,,,,,,,,,,,,03-04-2007 00:00
72278023183,08-08-2024 05:51,FM-15,7,,N,0.5,mi,"TEMP, PRECIP",1107,,"MXMN, SRG",33.4442,-112.0247,CONTRACTOR,,,,,,,,,,,,,,,,,,,,,,,,,,,,29.87,68,88,0,,,,52,29.8,SCT:04 140 BKN:07 190,28.69,10,74,160,,7,,,,,,,,,,,,,,,,,,,,,,,,,,,,,,,,,,,,,MET10608/08/24 05:51:02 METAR KPHX 081251Z 16006KT 10SM SCT140 BKN190 31/20 A2987 RMK AO2 SLP093 T03110200 (GEH),FM-15,7,,,,,,,,,,,,,,,,,,,,,,,,,,,03-04-2007 00:00
72278023183,08-08-2024 06:51,FM-15,7,,N,0.5,mi,"TEMP, PRECIP",1107,,"MXMN, SRG",33.4442,-112.0247,CONTRACTOR,,,,,,,,,,,,,,,,,,,,,,,,,,,,29.88,67,89,0,,,,48,29.81,BKN:07 150 BKN:07 190 BKN:07 250,28.7,10,74,160,,7,,,,,,,,,,,,,,,,,,,,,,,,,,,,,,,,,,,,,MET11208/08/24 06:51:02 METAR KPHX 081351Z 16006KT 10SM BKN150 BKN190 BKN250 32/19 A2988 RMK AO2 SLP094 T03170194 (SH),FM-15,7,,,,,,,,,,,,,,,,,,,,,,,,,,,03-04-2007 00:00
72278023183,08-08-2024 07:51,FM-15,7,,N,0.5,mi,"TEMP, PRECIP",1107,,"MXMN, SRG",33.4442,-112.0247,CONTRACTOR,,,,,,,,,,,,,,,,,,,,,,,,,,,,29.88,67,90,0,,-0.02,1,47,29.81,SCT:04 150 BKN:07 190 BKN:07 250,28.7,10,74,150,,9,,,,,,,,,,,,,,,,,,,,,,,,,,,,,,,,,,,,,MET11808/08/24 07:51:02 METAR KPHX 081451Z 15008KT 10SM SCT150 BKN190 BKN250 32/19 A2988 RMK AO2 SLP096 T03220194 51007 (SH),FM-15,7,,,,,,,,,,,,,,,,,,,,,,,,,,,03-04-2007 00:00
72278023183,08-08-2024 08:00,FM-12,4,,N,0.5,mi,"TEMP, PRECIP",1107,,"MXMN, SRG",33.4442,-112.0247,CONTRACTOR,,,,,,,,,,,,,,,,,,,,,,,,,,,,,67,90,,,-0.02,1,47,29.81,,28.71,9.94,74,150,,9,,,,,,,,,,,,,,,,,,,,,,,,,,,,,,,,,,,,,SYN06472278 32966 61508 10322 20194 39721 40096 51007 91451 555 90815=,FM-12,4,,,,,,,,,,,,,,,,,,,,,,,,,,,03-04-2007 00:00
72278023183,08-08-2024 08:51,FM-15,7,,N,0.5,mi,"TEMP, PRECIP",1107,,"MXMN, SRG",33.4442,-112.0247,CONTRACTOR,,,,,,,,,,,,,,,,,,,,,,,,,,,,29.88,67,92,0,,,,44,29.82,SCT:04 150 BKN:07 190 BKN:07 250,28.7,10,75,VRB,,3,,,,,,,,,,,,,,,,,,,,,,,,,,,,,,,,,,,,,MET11208/08/24 08:51:02 METAR KPHX 081551Z VRB03KT 10SM SCT150 BKN190 BKN250 33/19 A2988 RMK AO2 SLP097 T03330194 (SH),FM-15,7,,,,,,,,,,,,,,,,,,,,,,,,,,,03-04-2007 00:00
72278023183,08-08-2024 08:52,FM-16,7,,N,0.5,mi,"TEMP, PRECIP",1107,,"MXMN, SRG",33.4442,-112.0247,CONTRACTOR,,,,,,,,,,,,,,,,,,,,,,,,,,,,29.88,67,93,,,,,42,,FEW:02 150 SCT:04 190 SCT:04 250,28.7,10,75,VRB,,3,,,,,,,,,,,,,,,,,,,,,,,,,,,,,,,,,,,,,MET10508/08/24 08:52:02 SPECI KPHX 081552Z VRB03KT 10SM FEW150 SCT190 SCT250 34/19 A2988 RMK AO2 T03390194 (SH),FM-16,7,,,,,,,,,,,,,,,,,,,,,,,,,,,03-04-2007 00:00
72278023183,08-08-2024 09:51,FM-15,7,,N,0.5,mi,"TEMP, PRECIP",1107,,"MXMN, SRG",33.4442,-112.0247,CONTRACTOR,,,,,,,,,,,,,,,,,,,,,,,,,,,,29.88,65,96,0,,,,36,29.82,FEW:02 150 SCT:04 190 SCT:04 250,28.7,10,75,240,,10,,,,,,,,,,,,,,,,,,,,,,,,,,,,,,,,,,,,,MET11208/08/24 09:51:02 METAR KPHX 081651Z 24009KT 10SM FEW150 SCT190 SCT250 36/18 A2988 RMK AO2 SLP097 T03560183 (SH),FM-15,7,,,,,,,,,,,,,,,,,,,,,,,,,,,03-04-2007 00:00
72278023183,08-08-2024 10:51,FM-15,7,,N,0.5,mi,"TEMP, PRECIP",1107,,"MXMN, SRG",33.4442,-112.0247,CONTRACTOR,,,,,,,,,,,,,,,,,,,,,,,,,,,,29.88,63,98,0,,0,8,32,29.81,FEW:02 80 FEW:02 150 FEW:02 190,28.7,10,74,VRB,,3,,,,,,,,,,,,,,,,,,,,,,,,,,,,,,,,,,,,,MET13008/08/24 10:51:02 METAR KPHX 081751Z VRB03KT 10SM FEW080 FEW150 FEW190 37/17 A2988 RMK AO2 SLP096 T03670172 10372 20311 58000 (SH),FM-15,7,,,,,,,,,,,,,,,,,,,,,,,,,,,03-04-2007 00:00
72278023183,08-08-2024 11:00,FM-12,4,,N,0.5,mi,"TEMP, PRECIP",1107,,"MXMN, SRG",33.4442,-112.0247,CONTRACTOR,,,,,,,,,,,,,,,,,,,,,,,,,,,,,63,98,,,0,4,32,29.81,74,28.71,9.94,74,,,3,,,,,,,,,,,,,,,,,,,,,,,,,,,,,,,,,,,,,SYN08072278 32866 4//03 10367 20172 39721 40096 58000 91751 333 10372 20311 555 90818=,FM-12,4,,,,,,,,,,,,,,,,,,,,,,,,,,,03-04-2007 00:00
72278023183,08-08-2024 11:51,FM-15,7,,N,0.5,mi,"TEMP, PRECIP",1107,,"MXMN, SRG",33.4442,-112.0247,CONTRACTOR,,,,,,,,,,,,,,,,,,,,,,,,,,,,29.86,63,99,0,,,,31,29.79,FEW:02 80 FEW:02 150 FEW:02 190,28.69,10,74,0,,0,,,,,,,,,,,,,,,,,,,,,,,,,,,,,,,,,,,,,MET12408/08/24 11:51:02 METAR KPHX 081851Z 00000KT 10SM FEW080 FEW150 FEW190 37/17 A2986 RMK AO2 SLP089 TCU DSNT NE T03720172 (SH),FM-15,7,,,,,,,,,,,,,,,,,,,,,,,,,,,03-04-2007 00:00
72278023183,08-08-2024 12:51,FM-15,7,,N,0.5,mi,"TEMP, PRECIP",1107,,"MXMN, SRG",33.4442,-112.0247,CONTRACTOR,,,,,,,,,,,,,,,,,,,,,,,,,,,,29.83,63,102,0,,,,28,29.77,FEW:02 80 FEW:02 190 SCT:04 250,28.66,10,75,240,,8,,,,,,,,,,,,,,,,,,,,,,,,,,,,,,,,,,,,,MET13208/08/24 12:51:02 METAR KPHX 081951Z 24007KT 10SM FEW080 FEW190 SCT250 39/17 A2983 RMK AO2 SLP080 CB DSNT NE-E AND NW T03890172 (SH),FM-15,7,,,,,,,,,,,,,,,,,,,,,,,,,,,03-04-2007 00:00
72278023183,08-08-2024 13:51,FM-15,7,,N,0.5,mi,"TEMP, PRECIP",1107,,"MXMN, SRG",33.4442,-112.0247,CONTRACTOR,,,,,,,,,,,,,,,,,,,,,,,,,,,,29.79,62,104,0,,0.08,8,25,29.72,FEW:02 80 FEW:02 190 SCT:04 250,28.62,10,75,220,,6,,,,,,,,,,,,,,,,,,,,,,,,,,,,,,,,,,,,,MET14008/08/24 13:51:02 METAR KPHX 082051Z 22005KT 10SM FEW080 FEW190 SCT250 40/17 A2979 RMK AO2 SLP066 CB DSNT N-E SE AND NW T04000167 58028 (SH),FM-15,7,,,,,,,,,,,,,,,,,,,,,,,,,,,03-04-2007 00:00
72278023183,08-08-2024 14:00,FM-12,4,,N,0.5,mi,"TEMP, PRECIP",1107,,"MXMN, SRG",33.4442,-112.0247,CONTRACTOR,,,,,,,,,,,,,,,,,,,,,,,,,,,,,62,104,,,0.08,8,25,29.72,74,28.62,9.94,75,220,,6,,,,,,,,,,,,,,,,,,,,,,,,,,,,,,,,,,,,,SYN06472278 32866 42205 10400 20167 39692 40066 58028 92051 555 90821=,FM-12,4,,,,,,,,,,,,,,,,,,,,,,,,,,,03-04-2007 00:00
72278023183,08-08-2024 14:51,FM-15,7,,N,0.5,mi,"TEMP, PRECIP",1107,,"MXMN, SRG",33.4442,-112.0247,CONTRACTOR,,,,,,,,,,,,,,,,,,,,,,,,,,,,29.76,62,105,0,,,,25,29.69,FEW:02 80 FEW:02 170 SCT:04 250,28.59,10,75,VRB,17,10,,,,,,,,,,,,,,,,,,,,,,,,,,,,,,,,,,,,,MET13508/08/24 14:51:02 METAR KPHX 082151Z 34009G15KT 10SM FEW080 FEW170 SCT250 41/17 A2976 RMK AO2 SLP054 CB DSNT N-E AND NW T04060167 (ANH),FM-15,7,,,,,,,,,,,,,,,,,,,,,,,,,,,03-04-2007 00:00
72278023183,08-08-2024 15:51,FM-15,7,,N,0.5,mi,"TEMP, PRECIP",1107,,"MXMN, SRG",33.4442,-112.0247,CONTRACTOR,,,,,,,,,,,,,,,,,,,,,,,,,,,,29.73,61,106,0,,,,23,29.66,FEW:02 80 FEW:02 170 SCT:04 250,28.56,10,75,VRB,20,14,,,,,,,,,,,,,,,,,,,,,,,,,,,,,,,,,,,,,MET13408/08/24 15:51:02 METAR KPHX 082251Z 23012G17KT 10SM FEW080 FEW170 SCT250 41/16 A2973 RMK AO2 SLP045 CB DSNT NE AND NW T04110161 (ANH),FM-15,7,,,,,,,,,,,,,,,,,,,,,,,,,,,03-04-2007 00:00
72278023183,08-08-2024 16:51,FM-15,7,,N,0.5,mi,"TEMP, PRECIP",1107,,"MXMN, SRG",33.4442,-112.0247,CONTRACTOR,,,,,,,,,,,,,,,,,,,,,,,,,,,,29.72,60,106,0,,0.07,6,22,29.65,FEW:02 70 SCT:04 110 SCT:04 180,28.55,10,75,280,17,10,,,,,,,,,,,,,,,,,,,,,,,,,,,,,,,,,,,,,MET15108/08/24 16:51:02 METAR KPHX 082351Z 28009G15KT 10SM FEW070 SCT110 SCT180 41/16 A2972 RMK AO2 SLP040 CB DSNT N AND NW T04110156 10417 20361 56025 (ANH),FM-15,7,,,,,,,,,,,,,,,,,,,,,,,,,,,03-04-2007 00:00
72278023183,08-08-2024 17:00,FM-12,4,,N,0.5,mi,"TEMP, PRECIP",1107,,"MXMN, SRG",33.4442,-112.0247,CONTRACTOR,,,,,,,,,,,,,,,,,,,,,,,,,,,,,60,106,,,0.07,6,22,29.65,74,28.55,9.94,75,280,,10,,,,,,,,,,,,,,,,,,,,,,,,,,,,,,,,,,,,,SYN08672278 32866 62809 10411 20156 39669 40040 56025 92351 333 10417 20311 91015 555 90900=,FM-12,4,,,,,,,,,,,,,,,,,,,,,,,,,,,03-04-2007 00:00
72278023183,08-08-2024 17:51,FM-15,7,,N,0.5,mi,"TEMP, PRECIP",1107,,"MXMN, SRG",33.4442,-112.0247,CONTRACTOR,,,,,,,,,,,,,,,,,,,,,,,,,,,,29.73,59,105,0,,,,22,29.66,FEW:02 70 SCT:04 100 BKN:07 180,28.56,10,74,VRB,,5,,,,,,,,,,,,,,,,,,,,,,,,,,,,,,,,,,,,,MET15708/08/24 17:51:01 METAR KPHX 090051Z VRB04KT 10SM FEW070 SCT100 BKN180 41/15 A2973 RMK AO2 SLP043 OCNL LTGCG DSNT NE CB DSNT N-NE AND S TCU DSNT SE T04060150,FM-15,7,,,,,,,,,,,,,,,,,,,,,,,,,,,03-04-2007 00:00
72278023183,08-08-2024 18:51,FM-15,7,,N,0.5,mi,"TEMP, PRECIP",1107,,"MXMN, SRG",33.4442,-112.0247,CONTRACTOR,,,,,,,,,,,,,,,,,,,,,,,,,,,,29.77,61,95,0,,,,32,29.7,FEW:02 20 BKN:07 100 BKN:07 140,28.6,10,72,40,38,24,,,,,,,,,,,,,,,,,,,,,,,,,,,,,,,,,,,,,MET19808/08/24 18:51:01 METAR KPHX 090151Z 04021G33KT 10SM FEW020 BKN100 BKN140 35/16 A2977 RMK AO2 PK WND 05040/0137 SLP059 OCNL LTGCG DSNT N VIRGA BLDU FEW020 CB DSNT N S AND W-NW SHRA DSNT NW T03500161,FM-15,7,,,,,,,,,,,,,,,,,,,,,,,,,,,03-04-2007 00:00
72278023183,08-08-2024 19:51,FM-15,7,,N,0.5,mi,"TEMP, PRECIP",1107,,"MXMN, SRG",33.4442,-112.0247,CONTRACTOR,,,,,,,,,,,,,,,,,,,,,,,,,,,,29.78,60,96,0,,-0.06,3,30,29.72,BKN:07 100 BKN:07 140 BKN:07 200,28.61,10,72,10,23,10,,,,,,,,,,,,,,,,,,,,,,,,,,,,,,,,,,,,,MET20908/08/24 19:51:02 METAR KPHX 090251Z 01009G20KT 10SM BKN100 BKN140 BKN200 36/16 A2978 RMK AO2 PK WND 06029/0157 SLP064 FRQ LTGCGCAIC DSNT SE-SW AND NW CB DSNT SE-SW AND NW SHRA DSNT SW-NW T03560156 53022 (ANH),FM-15,7,,,,,,,,,,,,,,,,,,,,,,,,,,,03-04-2007 00:00
72278023183,08-08-2024 20:00,FM-12,4,,N,0.5,mi,"TEMP, PRECIP",1107,,"MXMN, SRG",33.4442,-112.0247,CONTRACTOR,,,,,,,,,,,,,,,,,,,,,,,,,,,,,60,96,,,-0.06,3,30,29.72,,28.61,9.94,72,10,,10,,,,,,,,,,,,,,,,,,,,,,,,,,,,,,,,,,,,,SYN07472278 32966 60109 10356 20156 39689 40064 53022 90251 333 91020 555 90903=,FM-12,4,,,,,,,,,,,,,,,,,,,,,,,,,,,03-04-2007 00:00
72278023183,08-08-2024 20:28,FM-16,7,,N,0.5,mi,"TEMP, PRECIP",1107,,"MXMN, SRG",33.4442,-112.0247,CONTRACTOR,,,,,,,,,,,,,,,,,,,,,,,,,,,,29.79,57,96,,TS:7 |TS TS |,,,27,,BKN:07 100 BKN:07 180 OVC:08 200,28.62,10,71,VRB,,6,,,,,,,,,,,,,,,,,,,,,,,,,,,,,,,,,,,,,MET14408/08/24 20:28:02 SPECI KPHX 090328Z VRB05KT 10SM TS BKN100CB BKN180 OVC200 36/14 A2979 RMK AO2 TSB28 FRQ LTGCGICCA SE-SW TS SE MOV SW T03560139,FM-16,7,,,,,,,,,,,,,,,,,,,,,,,,,,,03-04-2007 00:00
72278023183,08-08-2024 20:51,FM-15,7,,N,0.5,mi,"TEMP, PRECIP",1107,,"MXMN, SRG",33.4442,-112.0247,CONTRACTOR,,,,,,,,,,,,,,,,,,,,,,,,,,,,29.81,63,93,0,TS:7 |TS TS |,,,37,29.75,BKN:07 100 BKN:07 170 BKN:07 200,28.64,10,73,200,28,13,,,,,,,,,,,,,,,,,,,,,,,,,,,,,,,,,,,,,MET18208/08/24 20:51:02 METAR KPHX 090351Z 20011G24KT 10SM TS BKN100CB BKN170 BKN200 34/17 A2981 RMK AO2 TSB28 SLP073 FRQ LTGCGICCACC S-SW OCNL LTGCC DSNT N TS S MOV SW CB DSNT N T03390172,FM-15,7,,,,,,,,,,,,,,,,,,,,,,,,,,,03-04-2007 00:00
72278023183,08-08-2024 21:16,FM-16,7,,N,0.5,mi,"TEMP, PRECIP",1107,,"MXMN, SRG",33.4442,-112.0247,CONTRACTOR,,,,,,,,,,,,,,,,,,,,,,,,,,,,29.82,65,91,,,,,42,,SCT:04 100 BKN:07 130 BKN:07 170,28.65,10,73,140,,13,,,,,,,,,,,,,,,,,,,,,,,,,,,,,,,,,,,,,MET15008/08/24 21:16:02 SPECI KPHX 090416Z 14011KT 10SM SCT100 BKN130 BKN170 33/18 A2982 RMK AO2 TSE16 OCNL LTGCGCC DSNT N AND SW CB DSNT N AND SW T03280183,FM-16,7,,,,,,,,,,,,,,,,,,,,,,,,,,,03-04-2007 00:00
72278023183,08-08-2024 21:51,FM-15,7,,N,0.5,mi,"TEMP, PRECIP",1107,,"MXMN, SRG",33.4442,-112.0247,CONTRACTOR,,,,,,,,,,,,,,,,,,,,,,,,,,,,29.82,65,90,0,,,,44,29.75,FEW:02 55 SCT:04 90 BKN:07 110,28.65,10,73,80,,13,,,,,,,,,,,,,,,,,,,,,,,,,,,,,,,,,,,,,MET12808/08/24 21:51:02 METAR KPHX 090451Z 08011KT 10SM FEW055 SCT090 BKN110 32/18 A2982 RMK AO2 RAB27E38 TSE16 SLP076 P0000 T03220183,FM-15,7,,,,,,,,,,,,,,,,,,,,,,,,,,,03-04-2007 00:00
72278023183,08-08-2024 22:51,FM-15,7,,N,0.5,mi,"TEMP, PRECIP",1107,,"MXMN, SRG",33.4442,-112.0247,CONTRACTOR,,,,,,,,,,,,,,,,,,,,,,,,,,,,29.82,67,89,0,,-0.03,0,48,29.75,FEW:02 110 SCT:04 170 BKN:07 200,28.65,10,74,90,,11,,,,,,,,,,,,,,,,,,,,,,,,,,,,,,,,,,,,,MET16108/08/24 22:51:02 METAR KPHX 090551Z 09010KT 10SM FEW110 SCT170 BKN200 32/19 A2982 RMK AO2 SLP075 CONS LTGIC DSNT SE CB DSNT SE 60000 T03170194 10417 20311 50010,FM-15,7,,,,,,,,,,,,,,,,,,,,,,,,,,,03-04-2007 00:00
72278023183,08-08-2024 23:00,FM-12,4,,N,0.5,mi,"TEMP, PRECIP",1107,,"MXMN, SRG",33.4442,-112.0247,CONTRACTOR,,,,,,,,,,,,,,,,,,,,,,,,,,,,,67,89,,,0.03,9,48,29.75,,28.65,9.94,74,90,,11,,,,,,,,,,,,,,,,,,,,,,,,,,,,,,,,,,,,,SYN08672278 12966 60910 10317 20194 39702 40075 50010 69901 90551 333 10417 20311 555 90906=,FM-12,4,,,,,,,,,,,,,,,,,,,,,,,,,,,03-04-2007 00:00
72278023183,08-08-2024 23:51,FM-15,7,,N,0.5,mi,"TEMP, PRECIP",1107,,"MXMN, SRG",33.4442,-112.0247,CONTRACTOR,,,,,,,,,,,,,,,,,,,,,,,,,,,,29.83,66,88,0,,,,48,29.77,SCT:04 140 SCT:04 170,28.66,10,73,90,,11,,,,,,,,,,,,,,,,,,,,,,,,,,,,,,,,,,,,,MET13908/08/24 23:51:02 METAR KPHX 090651Z 09010KT 10SM SCT140 SCT170 31/19 A2983 RMK AO2 SLP081 FRQ LTGIC DSNT SE CB DSNT SE T03110189 404170311,FM-15,7,,,,,,,,,,,,,,,,,,,,,,,,,,,03-04-2007 00:00
72278023183,08-08-2024 23:59,SOD  ,6,,N,0.5,mi,"TEMP, PRECIP",1107,,"MXMN, SRG",33.4442,-112.0247,CONTRACTOR,,,,,,64,98,37,29.76,28.64,74,8.4,33,4,0,107,88,50,46,0,,,40,33,TS,,,,,,,,,,,,,,,,,,,,,,,,,,,,,,,,,,,,,,,,,,,,,,,,,,,,,,,SOD75624 HR PRECIPITATION (IN): 0.00 SNOW DEPTH (IN):0     24 HR SNOWFALL (IN):0.0  WEATHER(CODE):3  24 HR MAX TEMP (F):10724 HR MIN TEMP (F): 88AVERAGE STATION PRESSURE:28.635 MINIMUM SEA LEVEL PRESSURE:29.65 TIME OF OCCURRENCE:1736 PEAK WIND SPEED (MPH): 46 PEAK WIND DIR (DEG): 50 PEAK WIND TIME (LST):      FASTEST 2MIN SPEED (MPH): 33FASTEST 2MIN DIR (DEG): 40 FASTEST 2MIN TIME (LST):     AVERAGE WIND SPEED (MPH): 8.4 24 HR AVG TEMP (F): 98DEPART FROM NORMAL:  3  HEATING DEGREE DAYS:  0 COOLING DEGREE DAYS: 33 LATEST DAY MAX TEMP (0700-1900 LST):107 LATEST NIGHT MIN TEMP(1900-0800 LST):88 HOURLY INCREMENTAL PRECIPITATION VALUES (IN):.00 0.00 0.00 0.00 0.00 0.00 0.00 0.00 0.00 0.00 0.00 0.00 0.00 0.00 0.00 0.00 0.00 0.00 0.00 0.00 0.00 T    0.00 0.00,SOD  ,6,,,,,,,,,,,,,,,,,,,,,,,,,546,1920,03-04-2007 00:00
72278023183,09-08-2024 00:51,FM-15,7,,N,0.5,mi,"TEMP, PRECIP",1107,,"MXMN, SRG",33.4442,-112.0247,CONTRACTOR,,,,,,,,,,,,,,,,,,,,,,,,,,,,29.87,68,89,0,,,,50,29.8,SCT:04 140 BKN:07 170 BKN:07 190,28.69,10,75,150,16,11,,,,,,,,,,,,,,,,,,,,,,,,,,,,,,,,,,,,,MET11608/09/24 00:51:02 METAR KPHX 090751Z 15010G14KT 10SM SCT140 BKN170 BKN190 32/20 A2987 RMK AO2 SLP093 T03170200 (GEH),FM-15,7,,,,,,,,,,,,,,,,,,,,,,,,,,,03-04-2007 00:00
72278023183,09-08-2024 01:51,FM-15,7,,N,0.5,mi,"TEMP, PRECIP",1107,,"MXMN, SRG",33.4442,-112.0247,CONTRACTOR,,,,,,,,,,,,,,,,,,,,,,,,,,,,29.85,67,89,0,,-0.03,0,48,29.78,BKN:07 170 BKN:07 220,28.68,10,74,150,,7,,,,,,,,,,,,,,,,,,,,,,,,,,,,,,,,,,,,,MET15608/09/24 01:51:02 METAR KPHX 090851Z 15006KT 10SM BKN170 BKN220 32/19 A2985 RMK AO2 SLP086 CONS LTGIC DSNT N AND S-W CB DSNT N AND S-W T03170194 50011 (GEH),FM-15,7,,,,,,,,,,,,,,,,,,,,,,,,,,,03-04-2007 00:00
72278023183,09-08-2024 02:00,FM-12,4,,N,0.5,mi,"TEMP, PRECIP",1107,,"MXMN, SRG",33.4442,-112.0247,CONTRACTOR,,,,,,,,,,,,,,,,,,,,,,,,,,,,,67,89,,,0.03,9,48,29.78,,28.68,9.94,74,150,,7,,,,,,,,,,,,,,,,,,,,,,,,,,,,,,,,,,,,,SYN06472278 32966 61506 10317 20194 39712 40086 50011 90851 555 90909=,FM-12,4,,,,,,,,,,,,,,,,,,,,,,,,,,,03-04-2007 00:00
72278023183,09-08-2024 02:51,FM-15,7,,N,0.5,mi,"TEMP, PRECIP",1107,,"MXMN, SRG",33.4442,-112.0247,CONTRACTOR,,,,,,,,,,,,,,,,,,,,,,,,,,,,29.86,66,88,0,,,,48,29.79,FEW:02 120 SCT:04 150 BKN:07 170,28.69,10,73,200,,8,,,,,,,,,,,,,,,,,,,,,,,,,,,,,,,,,,,,,MET16608/09/24 02:51:02 METAR KPHX 090951Z 20007KT 10SM FEW120 SCT150 BKN170 31/19 A2986 RMK AO2 SLP087 FRQ LTGICCC DSNT N AND S AND W CB DSNT N AND S AND W T03110189 (GEH),FM-15,7,,,,,,,,,,,,,,,,,,,,,,,,,,,03-04-2007 00:00
72278023183,09-08-2024 03:51,FM-15,7,,N,0.5,mi,"TEMP, PRECIP",1107,,"MXMN, SRG",33.4442,-112.0247,CONTRACTOR,,,,,,,,,,,,,,,,,,,,,,,,,,,,29.86,66,89,0,,,,47,29.79,BKN:07 150 BKN:07 180,28.69,10,73,0,,0,,,,,,,,,,,,,,,,,,,,,,,,,,,,,,,,,,,,,MET10608/09/24 03:51:02 METAR KPHX 091051Z 00000KT 10SM BKN150 BKN180 32/19 A2986 RMK AO2 SLP089 T03170189 (GEH),FM-15,7,,,,,,,,,,,,,,,,,,,,,,,,,,,03-04-2007 00:00
72278023183,09-08-2024 04:51,FM-15,7,,N,0.5,mi,"TEMP, PRECIP",1107,,"MXMN, SRG",33.4442,-112.0247,CONTRACTOR,,,,,,,,,,,,,,,,,,,,,,,,,,,,29.85,64,90,0,,0,0,42,29.78,FEW:02 130 BKN:07 150 BKN:07 200,28.68,10,73,360,,7,,,,,,,,,,,,,,,,,,,,,,,,,,,,,,,,,,,,,MET13108/09/24 04:51:02 METAR KPHX 091151Z 36006KT 10SM FEW130 BKN150 BKN200 32/18 A2985 RMK AO2 SLP086 T03220178 10322 20306 50000 (GEH),FM-15,7,,,,,,,,,,,,,,,,,,,,,,,,,,,03-04-2007 00:00
72278023183,09-08-2024 05:00,FM-12,4,,N,0.5,mi,"TEMP, PRECIP",1107,,"MXMN, SRG",33.4442,-112.0247,CONTRACTOR,,,,,,,,,,,,,,,,,,,,,,,,,,,,,64,90,,,0,9,42,29.78,,28.68,9.94,73,360,,7,,,,,,,,,,,,,,,,,,,,,,,,,,,,,,,,,,,,,SYN08072278 32966 63606 10322 20178 39712 40086 50000 91151 333 10417 20306 555 90912=,FM-12,4,,,,,,,,,,,,,,,,,,,,,,,,,,,03-04-2007 00:00
72278023183,09-08-2024 05:51,FM-15,7,,N,0.5,mi,"TEMP, PRECIP",1107,,"MXMN, SRG",33.4442,-112.0247,CONTRACTOR,,,,,,,,,,,,,,,,,,,,,,,,,,,,29.85,66,89,0,,,,47,29.78,SCT:04 130 BKN:07 150 BKN:07 200,28.68,10,73,320,,5,,,,,,,,,,,,,,,,,,,,,,,,,,,,,,,,,,,,,MET11308/09/24 05:51:02 METAR KPHX 091251Z 32004KT 10SM SCT130 BKN150 BKN200 32/19 A2985 RMK AO2 SLP086 T03170189 (GEH),FM-15,7,,,,,,,,,,,,,,,,,,,,,,,,,,,03-04-2007 00:00
72278023183,09-08-2024 06:51,FM-15,7,,N,0.5,mi,"TEMP, PRECIP",1107,,"MXMN, SRG",33.4442,-112.0247,CONTRACTOR,,,,,,,,,,,,,,,,,,,,,,,,,,,,29.87,68,89,0,,,,50,29.81,SCT:04 130 BKN:07 170 BKN:07 210,28.69,10,75,170,,7,,,,,,,,,,,,,,,,,,,,,,,,,,,,,,,,,,,,,MET11208/09/24 06:51:02 METAR KPHX 091351Z 17006KT 10SM SCT130 BKN170 BKN210 32/20 A2987 RMK AO2 SLP094 T03170200 (SH),FM-15,7,,,,,,,,,,,,,,,,,,,,,,,,,,,03-04-2007 00:00
72278023183,09-08-2024 07:51,FM-15,7,,N,0.5,mi,"TEMP, PRECIP",1107,,"MXMN, SRG",33.4442,-112.0247,CONTRACTOR,,,,,,,,,,,,,,,,,,,,,,,,,,,,29.87,67,91,0,,-0.02,0,45,29.81,SCT:04 130 SCT:04 170 BKN:07 230,28.69,10,74,VRB,,3,,,,,,,,,,,,,,,,,,,,,,,,,,,,,,,,,,,,,MET11808/09/24 07:51:02 METAR KPHX 091451Z VRB03KT 10SM SCT130 SCT170 BKN230 33/19 A2987 RMK AO2 SLP094 T03280194 50007 (SH),FM-15,7,,,,,,,,,,,,,,,,,,,,,,,,,,,03-04-2007 00:00
72278023183,09-08-2024 08:00,FM-12,4,,N,0.5,mi,"TEMP, PRECIP",1107,,"MXMN, SRG",33.4442,-112.0247,CONTRACTOR,,,,,,,,,,,,,,,,,,,,,,,,,,,,,67,91,,,0.02,9,45,29.81,,28.7,9.94,74,,,3,,,,,,,,,,,,,,,,,,,,,,,,,,,,,,,,,,,,,SYN06472278 32966 6//03 10328 20194 39718 40094 50007 91451 555 90915=,FM-12,4,,,,,,,,,,,,,,,,,,,,,,,,,,,03-04-2007 00:00
72278023183,09-08-2024 08:51,FM-15,7,,N,0.5,mi,"TEMP, PRECIP",1107,,"MXMN, SRG",33.4442,-112.0247,CONTRACTOR,,,,,,,,,,,,,,,,,,,,,,,,,,,,29.87,65,93,0,,,,40,29.81,SCT:04 130 SCT:04 170 BKN:07 230,28.69,10,74,0,,0,,,,,,,,,,,,,,,,,,,,,,,,,,,,,,,,,,,,,MET11208/09/24 08:51:02 METAR KPHX 091551Z 00000KT 10SM SCT130 SCT170 BKN230 34/18 A2987 RMK AO2 SLP094 T03390183 (SH),FM-15,7,,,,,,,,,,,,,,,,,,,,,,,,,,,03-04-2007 00:00
72278023183,09-08-2024 09:51,FM-15,7,,N,0.5,mi,"TEMP, PRECIP",1107,,"MXMN, SRG",33.4442,-112.0247,CONTRACTOR,,,,,,,,,,,,,,,,,,,,,,,,,,,,29.88,64,95,0,,,,36,29.81,FEW:02 130 BKN:07 190 BKN:07 250,28.7,10,74,VRB,,3,,,,,,,,,,,,,,,,,,,,,,,,,,,,,,,,,,,,,MET11208/09/24 09:51:02 METAR KPHX 091651Z VRB03KT 10SM FEW130 BKN190 BKN250 35/18 A2988 RMK AO2 SLP095 T03500178 (SH),FM-15,7,,,,,,,,,,,,,,,,,,,,,,,,,,,03-04-2007 00:00
72278023183,09-08-2024 10:51,FM-15,7,,N,0.5,mi,"TEMP, PRECIP",1107,,"MXMN, SRG",33.4442,-112.0247,CONTRACTOR,,,,,,,,,,,,,,,,,,,,,,,,,,,,29.86,62,96,0,,0.01,8,32,29.8,SCT:04 140 BKN:07 190 BKN:07 250,28.69,10,73,VRB,,3,,,,,,,,,,,,,,,,,,,,,,,,,,,,,,,,,,,,,MET13008/09/24 10:51:02 METAR KPHX 091751Z VRB03KT 10SM SCT140 BKN190 BKN250 36/17 A2986 RMK AO2 SLP091 T03560167 10367 20311 58003 (SH),FM-15,7,,,,,,,,,,,,,,,,,,,,,,,,,,,03-04-2007 00:00
72278023183,09-08-2024 11:00,FM-12,4,,N,0.5,mi,"TEMP, PRECIP",1107,,"MXMN, SRG",33.4442,-112.0247,CONTRACTOR,,,,,,,,,,,,,,,,,,,,,,,,,,,,,62,96,,,0.01,8,32,29.8,,28.69,9.94,73,,,3,,,,,,,,,,,,,,,,,,,,,,,,,,,,,,,,,,,,,SYN08072278 32966 6//03 10356 20167 39715 40091 58003 91751 333 10367 20311 555 90918=,FM-12,4,,,,,,,,,,,,,,,,,,,,,,,,,,,03-04-2007 00:00
72278023183,09-08-2024 11:51,FM-15,7,,N,0.5,mi,"TEMP, PRECIP",1107,,"MXMN, SRG",33.4442,-112.0247,CONTRACTOR,,,,,,,,,,,,,,,,,,,,,,,,,,,,29.84,62,100,0,,,,29,29.78,BKN:07 140 BKN:07 190 BKN:07 220,28.66,10,74,20,,5,,,,,,,,,,,,,,,,,,,,,,,,,,,,,,,,,,,,,MET11208/09/24 11:51:02 METAR KPHX 091851Z 02004KT 10SM BKN140 BKN190 BKN220 38/17 A2984 RMK AO2 SLP084 T03780167 (SH),FM-15,7,,,,,,,,,,,,,,,,,,,,,,,,,,,03-04-2007 00:00
72278023183,09-08-2024 12:51,FM-15,7,,N,0.5,mi,"TEMP, PRECIP",1107,,"MXMN, SRG",33.4442,-112.0247,CONTRACTOR,,,,,,,,,,,,,,,,,,,,,,,,,,,,29.83,59,103,0,,,,24,29.76,FEW:02 90 SCT:04 140 SCT:04 190,28.66,10,73,190,,7,,,,,,,,,,,,,,,,,,,,,,,,,,,,,,,,,,,,,MET12308/09/24 12:51:02 METAR KPHX 091951Z 19006KT 10SM FEW090 SCT140 SCT190 39/15 A2983 RMK AO2 SLP078 TCU DSNT N T03940150 (SH),FM-15,7,,,,,,,,,,,,,,,,,,,,,,,,,,,03-04-2007 00:00
72278023183,09-08-2024 13:51,FM-15,7,,N,0.5,mi,"TEMP, PRECIP",1107,,"MXMN, SRG",33.4442,-112.0247,CONTRACTOR,,,,,,,,,,,,,,,,,,,,,,,,,,,,29.8,58,104,0,,0.06,8,22,29.73,FEW:02 90 SCT:04 140 SCT:04 190,28.63,10,73,VRB,,5,,,,,,,,,,,,,,,,,,,,,,,,,,,,,,,,,,,,,MET13208/09/24 13:51:02 METAR KPHX 092051Z VRB04KT 10SM FEW090 SCT140 SCT190 40/14 A2980 RMK AO2 SLP069 CB DSNT NW-NE T04000144 58020 (SH),FM-15,7,,,,,,,,,,,,,,,,,,,,,,,,,,,03-04-2007 00:00
72278023183,09-08-2024 14:00,FM-12,4,,N,0.5,mi,"TEMP, PRECIP",1107,,"MXMN, SRG",33.4442,-112.0247,CONTRACTOR,,,,,,,,,,,,,,,,,,,,,,,,,,,,,58,104,,,0.06,8,22,29.73,,28.63,9.94,73,,,5,,,,,,,,,,,,,,,,,,,,,,,,,,,,,,,,,,,,,SYN06472278 32966 4//04 10400 20144 39695 40069 58020 92051 555 90921=,FM-12,4,,,,,,,,,,,,,,,,,,,,,,,,,,,03-04-2007 00:00
72278023183,09-08-2024 14:51,FM-15,7,,N,0.5,mi,"TEMP, PRECIP",1107,,"MXMN, SRG",33.4442,-112.0247,CONTRACTOR,,,,,,,,,,,,,,,,,,,,,,,,,,,,29.77,55,106,0,,,,19,29.7,FEW:02 90 SCT:04 140 SCT:04 190,28.6,10,72,VRB,17,7,,,,,,,,,,,,,,,,,,,,,,,,,,,,,,,,,,,,,MET13408/09/24 14:51:02 METAR KPHX 092151Z VRB06G15KT 10SM FEW090 SCT140 SCT190 41/13 A2977 RMK AO2 SLP058 CB DSNT SW AND NW T04110128 (ADH),FM-15,7,,,,,,,,,,,,,,,,,,,,,,,,,,,03-04-2007 00:00
72278023183,09-08-2024 14:52,FM-16,7,,N,0.5,mi,"TEMP, PRECIP",1107,,"MXMN, SRG",33.4442,-112.0247,CONTRACTOR,,,,,,,,,,,,,,,,,,,,,,,,,,,,29.77,55,106,,,,,19,,FEW:02 90 SCT:04 140 SCT:04 190,28.6,10,72,140,17,7,,,,,,,,,,,,,,,,,,,,,,,,,,,,,,,,,,,,,MET12708/09/24 14:52:02 SPECI KPHX 092152Z 14006G15KT 10SM FEW090 SCT140 SCT190 41/13 A2977 RMK AO2 CB DSNT SW AND NW T04110128 (ADH),FM-16,7,,,,,,,,,,,,,,,,,,,,,,,,,,,03-04-2007 00:00
72278023183,09-08-2024 14:54,FM-16,7,,N,0.5,mi,"TEMP, PRECIP",1107,,"MXMN, SRG",33.4442,-112.0247,CONTRACTOR,,,,,,,,,,,,,,,,,,,,,,,,,,,,29.77,55,106,,,,,19,,FEW:02 90 SCT:04 140 SCT:04 190,28.6,10,72,170,16,9,,,,,,,,,,,,,,,,,,,,,,,,,,,,,,,,,,,,,MET12708/09/24 14:54:02 SPECI KPHX 092154Z 17008G14KT 10SM FEW090 SCT140 SCT190 41/13 A2977 RMK AO2 CB DSNT SW AND NW T04110128 (ADH),FM-16,7,,,,,,,,,,,,,,,,,,,,,,,,,,,03-04-2007 00:00
72278023183,09-08-2024 15:51,FM-15,7,,N,0.5,mi,"TEMP, PRECIP",1107,,"MXMN, SRG",33.4442,-112.0247,CONTRACTOR,,,,,,,,,,,,,,,,,,,,,,,,,,,,29.74,56,108,0,,,,18,29.67,FEW:02 90 FEW:02 140 SCT:04 200,28.57,10,73,170,,9,,,,,,,,,,,,,,,,,,,,,,,,,,,,,,,,,,,,,MET11308/09/24 15:51:02 METAR KPHX 092251Z 17008KT 10SM FEW090 FEW140 SCT200 42/13 A2974 RMK AO2 SLP047 T04220133 (ADH),FM-15,7,,,,,,,,,,,,,,,,,,,,,,,,,,,03-04-2007 00:00
72278023183,09-08-2024 16:51,FM-15,7,,N,0.5,mi,"TEMP, PRECIP",1107,,"MXMN, SRG",33.4442,-112.0247,CONTRACTOR,,,,,,,,,,,,,,,,,,,,,,,,,,,,29.73,55,106,0,,0.07,6,19,29.66,FEW:02 90 FEW:02 140 FEW:02 200,28.56,10,72,VRB,,3,,,,,,,,,,,,,,,,,,,,,,,,,,,,,,,,,,,,,MET14408/09/24 16:51:02 METAR KPHX 092351Z VRB03KT 10SM FEW090 FEW140 FEW200 41/13 A2973 RMK AO2 SLP044 CB DSNT E-SE T04110128 10428 20356 56024 (ADH),FM-15,7,,,,,,,,,,,,,,,,,,,,,,,,,,,03-04-2007 00:00
72278023183,09-08-2024 17:00,FM-12,4,,N,0.5,mi,"TEMP, PRECIP",1107,,"MXMN, SRG",33.4442,-112.0247,CONTRACTOR,,,,,,,,,,,,,,,,,,,,,,,,,,,,,55,106,,,0.07,6,19,29.66,,28.56,9.94,72,,,3,,,,,,,,,,,,,,,,,,,,,,,,,,,,,,,,,,,,,SYN08072278 32966 4//03 10411 20128 39672 40044 56024 92351 333 10428 20306 555 91000=,FM-12,4,,,,,,,,,,,,,,,,,,,,,,,,,,,03-04-2007 00:00
72278023183,09-08-2024 17:51,FM-15,7,,N,0.5,mi,"TEMP, PRECIP",1107,,"MXMN, SRG",33.4442,-112.0247,CONTRACTOR,,,,,,,,,,,,,,,,,,,,,,,,,,,,29.72,55,106,0,,,,19,29.65,FEW:02 90 FEW:02 140 FEW:02 200,28.55,10,72,170,,9,,,,,,,,,,,,,,,,,,,,,,,,,,,,,,,,,,,,,MET11708/09/24 17:51:01 METAR KPHX 100051Z 17008KT 10SM FEW090 FEW140 FEW200 41/13 A2972 RMK AO2 SLP042 CB DSNT E T04110128,FM-15,7,,,,,,,,,,,,,,,,,,,,,,,,,,,03-04-2007 00:00
72278023183,09-08-2024 18:51,FM-15,7,,N,0.5,mi,"TEMP, PRECIP",1107,,"MXMN, SRG",33.4442,-112.0247,CONTRACTOR,,,,,,,,,,,,,,,,,,,,,,,,,,,,29.73,57,104,0,,,,21,29.66,FEW:02 90 FEW:02 140 FEW:02 200,28.56,10,73,210,,5,,,,,,,,,,,,,,,,,,,,,,,,,,,,,,,,,,,,,MET12008/09/24 18:51:01 METAR KPHX 100151Z 21004KT 10SM FEW090 FEW140 FEW200 40/14 A2973 RMK AO2 SLP043 CB DSNT NE-E T04000139,FM-15,7,,,,,,,,,,,,,,,,,,,,,,,,,,,03-04-2007 00:00
72278023183,09-08-2024 19:51,FM-15,7,,N,0.5,mi,"TEMP, PRECIP",1107,,"MXMN, SRG",33.4442,-112.0247,CONTRACTOR,,,,,,,,,,,,,,,,,,,,,,,,,,,,29.75,56,103,0,,-0.02,3,21,29.68,FEW:02 90 FEW:02 150 SCT:04 250,28.58,10,72,210,,6,,,,,,,,,,,,,,,,,,,,,,,,,,,,,,,,,,,,,MET14508/09/24 19:51:02 METAR KPHX 100251Z 21005KT 10SM FEW090 FEW150 SCT250 39/13 A2975 RMK AO2 SLP050 CONS LTGICCG DSNT NE CB DSNT NE T03940133 53006,FM-15,7,,,,,,,,,,,,,,,,,,,,,,,,,,,03-04-2007 00:00
72278023183,09-08-2024 20:00,FM-12,4,,N,0.5,mi,"TEMP, PRECIP",1107,,"MXMN, SRG",33.4442,-112.0247,CONTRACTOR,,,,,,,,,,,,,,,,,,,,,,,,,,,,,56,103,,,-0.02,3,21,29.68,,28.58,9.94,72,210,,6,,,,,,,,,,,,,,,,,,,,,,,,,,,,,,,,,,,,,SYN06472278 32966 42105 10394 20133 39679 40050 53006 90251 555 91003=,FM-12,4,,,,,,,,,,,,,,,,,,,,,,,,,,,03-04-2007 00:00
72278023183,09-08-2024 20:51,FM-15,7,,N,0.5,mi,"TEMP, PRECIP",1107,,"MXMN, SRG",33.4442,-112.0247,CONTRACTOR,,,,,,,,,,,,,,,,,,,,,,,,,,,,29.77,56,102,0,,,,22,29.7,FEW:02 90 FEW:02 150 SCT:04 250,28.6,10,72,0,,0,,,,,,,,,,,,,,,,,,,,,,,,,,,,,,,,,,,,,MET10708/09/24 20:51:02 METAR KPHX 100351Z 00000KT 10SM FEW090 FEW150 SCT250 39/13 A2977 RMK AO2 SLP058 T03890133,FM-15,7,,,,,,,,,,,,,,,,,,,,,,,,,,,03-04-2007 00:00
72278023183,09-08-2024 21:51,FM-15,7,,N,0.5,mi,"TEMP, PRECIP",1107,,"MXMN, SRG",33.4442,-112.0247,CONTRACTOR,,,,,,,,,,,,,,,,,,,,,,,,,,,,29.78,56,101,0,,,,22,29.71,FEW:02 150 SCT:04 180 SCT:04 250,28.61,10,72,190,,3,,,,,,,,,,,,,,,,,,,,,,,,,,,,,,,,,,,,,MET10708/09/24 21:51:02 METAR KPHX 100451Z 19003KT 10SM FEW150 SCT180 SCT250 38/13 A2978 RMK AO2 SLP061 T03830133,FM-15,7,,,,,,,,,,,,,,,,,,,,,,,,,,,03-04-2007 00:00
72278023183,09-08-2024 22:51,FM-15,7,,N,0.5,mi,"TEMP, PRECIP",1107,,"MXMN, SRG",33.4442,-112.0247,CONTRACTOR,,,,,,,,,,,,,,,,,,,,,,,,,,,,29.79,58,99,0,,-0.04,1,26,29.72,FEW:02 150 SCT:04 180 BKN:07 250,28.62,10,72,70,,8,,,,,,,,,,,,,,,,,,,,,,,,,,,,,,,,,,,,,MET12508/09/24 22:51:02 METAR KPHX 100551Z 07007KT 10SM FEW150 SCT180 BKN250 37/14 A2979 RMK AO2 SLP064 T03720144 10422 20372 51013,FM-15,7,,,,,,,,,,,,,,,,,,,,,,,,,,,03-04-2007 00:00
72278023183,09-08-2024 23:00,FM-12,4,,N,0.5,mi,"TEMP, PRECIP",1107,,"MXMN, SRG",33.4442,-112.0247,CONTRACTOR,,,,,,,,,,,,,,,,,,,,,,,,,,,,,58,99,,,-0.04,1,26,29.72,,28.62,9.94,72,70,,8,,,,,,,,,,,,,,,,,,,,,,,,,,,,,,,,,,,,,SYN08072278 32966 60707 10372 20144 39692 40064 51013 90551 333 10422 20306 555 91006=,FM-12,4,,,,,,,,,,,,,,,,,,,,,,,,,,,03-04-2007 00:00
72278023183,09-08-2024 23:51,FM-15,7,,N,0.5,mi,"TEMP, PRECIP",1107,,"MXMN, SRG",33.4442,-112.0247,CONTRACTOR,,,,,,,,,,,,,,,,,,,,,,,,,,,,29.8,58,98,0,,,,26,29.73,FEW:02 100 FEW:02 150 BKN:07 180,28.63,10,72,100,,10,,,,,,,,,,,,,,,,,,,,,,,,,,,,,,,,,,,,,MET11708/09/24 23:51:02 METAR KPHX 100651Z 10009KT 10SM FEW100 FEW150 BKN180 37/14 A2980 RMK AO2 SLP068 T03670144 404280306,FM-15,7,,,,,,,,,,,,,,,,,,,,,,,,,,,03-04-2007 00:00
72278023183,09-08-2024 23:59,SOD  ,6,,N,0.5,mi,"TEMP, PRECIP",1107,,"MXMN, SRG",33.4442,-112.0247,CONTRACTOR,,,,,,61,98,31,29.75,28.63,73,5.5,33,4.1,0,109,87,210,22,0,,,330,15,,,,,,,,,,,,,,,,,,,,,,,,,,,,,,,,,,,,,,,,,,,,,,,,,,,,,,,,SOD73924 HR PRECIPITATION (IN): 0.00 SNOW DEPTH (IN):0     24 HR SNOWFALL (IN):0.0  24 HR MAX TEMP (F):10924 HR MIN TEMP (F): 87AVERAGE STATION PRESSURE:28.625 MINIMUM SEA LEVEL PRESSURE:29.65 TIME OF OCCURRENCE:1806 PEAK WIND SPEED (MPH): 22 PEAK WIND DIR (DEG):210 PEAK WIND TIME (LST):      FASTEST 2MIN SPEED (MPH): 15FASTEST 2MIN DIR (DEG):330 FASTEST 2MIN TIME (LST):     AVERAGE WIND SPEED (MPH): 5.5 24 HR AVG TEMP (F): 98DEPART FROM NORMAL:  3  HEATING DEGREE DAYS:  0 COOLING DEGREE DAYS: 33 LATEST DAY MAX TEMP (0700-1900 LST):109 LATEST NIGHT MIN TEMP(1900-0800 LST):87 HOURLY INCREMENTAL PRECIPITATION VALUES (IN):.00 0.00 0.00 0.00 0.00 0.00 0.00 0.00 0.00 0.00 0.00 0.00 0.00 0.00 0.00 0.00 0.00 0.00 0.00 0.00 0.00 0.00 0.00 0.00,SOD  ,6,,,,,,,,,,,,,,,,,,,,,,,,,547,1919,03-04-2007 00:00
72278023183,10-08-2024 00:51,FM-15,7,,N,0.5,mi,"TEMP, PRECIP",1107,,"MXMN, SRG",33.4442,-112.0247,CONTRACTOR,,,,,,,,,,,,,,,,,,,,,,,,,,,,29.8,58,97,0,,,,27,29.72,FEW:02 150 SCT:04 180,28.63,10,71,80,,9,,,,,,,,,,,,,,,,,,,,,,,,,,,,,,,,,,,,,MET10608/10/24 00:51:02 METAR KPHX 100751Z 08008KT 10SM FEW150 SCT180 36/14 A2980 RMK AO2 SLP066 T03610144 (ANH),FM-15,7,,,,,,,,,,,,,,,,,,,,,,,,,,,03-04-2007 00:00
72278023183,10-08-2024 01:51,FM-15,7,,N,0.5,mi,"TEMP, PRECIP",1107,,"MXMN, SRG",33.4442,-112.0247,CONTRACTOR,,,,,,,,,,,,,,,,,,,,,,,,,,,,29.8,59,95,0,,-0.01,1,30,29.73,FEW:02 150 SCT:04 180,28.63,10,71,90,,10,,,,,,,,,,,,,,,,,,,,,,,,,,,,,,,,,,,,,MET11208/10/24 01:51:02 METAR KPHX 100851Z 09009KT 10SM FEW150 SCT180 35/15 A2980 RMK AO2 SLP068 T03500150 51005 (ANH),FM-15,7,,,,,,,,,,,,,,,,,,,,,,,,,,,03-04-2007 00:00
72278023183,10-08-2024 02:00,FM-12,4,,N,0.5,mi,"TEMP, PRECIP",1107,,"MXMN, SRG",33.4442,-112.0247,CONTRACTOR,,,,,,,,,,,,,,,,,,,,,,,,,,,,,59,95,,,-0.01,1,30,29.73,,28.63,9.94,71,90,,10,,,,,,,,,,,,,,,,,,,,,,,,,,,,,,,,,,,,,SYN06472278 32966 40909 10350 20150 39695 40068 51005 90851 555 91009=,FM-12,4,,,,,,,,,,,,,,,,,,,,,,,,,,,03-04-2007 00:00
72278023183,10-08-2024 02:51,FM-15,7,,N,0.5,mi,"TEMP, PRECIP",1107,,"MXMN, SRG",33.4442,-112.0247,CONTRACTOR,,,,,,,,,,,,,,,,,,,,,,,,,,,,29.8,59,95,0,,,,30,29.73,FEW:02 150 SCT:04 200,28.63,10,71,100,,9,,,,,,,,,,,,,,,,,,,,,,,,,,,,,,,,,,,,,MET10608/10/24 02:51:02 METAR KPHX 100951Z 10008KT 10SM FEW150 SCT200 35/15 A2980 RMK AO2 SLP069 T03500150 (ANH),FM-15,7,,,,,,,,,,,,,,,,,,,,,,,,,,,03-04-2007 00:00
72278023183,10-08-2024 03:51,FM-15,7,,N,0.5,mi,"TEMP, PRECIP",1107,,"MXMN, SRG",33.4442,-112.0247,CONTRACTOR,,,,,,,,,,,,,,,,,,,,,,,,,,,,29.81,60,94,0,,,,32,29.74,FEW:02 150,28.64,10,72,100,,10,,,,,,,,,,,,,,,,,,,,,,,,,,,,,,,,,,,,,MET09908/10/24 03:51:02 METAR KPHX 101051Z 10009KT 10SM FEW150 34/16 A2981 RMK AO2 SLP070 T03440156 (ANH),FM-15,7,,,,,,,,,,,,,,,,,,,,,,,,,,,03-04-2007 00:00
72278023183,10-08-2024 04:51,FM-15,7,,N,0.5,mi,"TEMP, PRECIP",1107,,"MXMN, SRG",33.4442,-112.0247,CONTRACTOR,,,,,,,,,,,,,,,,,,,,,,,,,,,,29.82,60,93,0,,-0.01,3,33,29.75,SCT:04 150 BKN:07 180,28.65,10,71,110,,7,,,,,,,,,,,,,,,,,,,,,,,,,,,,,,,,,,,,,MET12408/10/24 04:51:02 METAR KPHX 101151Z 11006KT 10SM SCT150 BKN180 34/16 A2982 RMK AO2 SLP074 T03390156 10372 20339 53005 (ANH),FM-15,7,,,,,,,,,,,,,,,,,,,,,,,,,,,03-04-2007 00:00
72278023183,10-08-2024 05:00,FM-12,4,,N,0.5,mi,"TEMP, PRECIP",1107,,"MXMN, SRG",33.4442,-112.0247,CONTRACTOR,,,,,,,,,,,,,,,,,,,,,,,,,,,,,60,93,,,-0.01,3,33,29.75,,28.65,9.94,71,110,,7,,,,,,,,,,,,,,,,,,,,,,,,,,,,,,,,,,,,,SYN08072278 32966 61106 10339 20156 39702 40074 53005 91151 333 10428 20339 555 91012=,FM-12,4,,,,,,,,,,,,,,,,,,,,,,,,,,,03-04-2007 00:00
72278023183,10-08-2024 05:51,FM-15,7,,N,0.5,mi,"TEMP, PRECIP",1107,,"MXMN, SRG",33.4442,-112.0247,CONTRACTOR,,,,,,,,,,,,,,,,,,,,,,,,,,,,29.84,60,93,0,,,,33,29.77,FEW:02 100 SCT:04 150 BKN:07 170,28.66,10,71,90,,7,,,,,,,,,,,,,,,,,,,,,,,,,,,,,,,,,,,,,MET11308/10/24 05:51:02 METAR KPHX 101251Z 09006KT 10SM FEW100 SCT150 BKN170 34/16 A2984 RMK AO2 SLP082 T03390156 (ANH),FM-15,7,,,,,,,,,,,,,,,,,,,,,,,,,,,03-04-2007 00:00
72278023183,10-08-2024 06:51,FM-15,7,,N,0.5,mi,"TEMP, PRECIP",1107,,"MXMN, SRG",33.4442,-112.0247,CONTRACTOR,,,,,,,,,,,,,,,,,,,,,,,,,,,,29.86,60,94,0,,,,32,29.79,FEW:02 100 FEW:02 120 SCT:04 160,28.69,10,72,100,,8,,,,,,,,,,,,,,,,,,,,,,,,,,,,,,,,,,,,,MET11208/10/24 06:51:02 METAR KPHX 101351Z 10007KT 10SM FEW100 FEW120 SCT160 34/16 A2986 RMK AO2 SLP088 T03440156 (AR),FM-15,7,,,,,,,,,,,,,,,,,,,,,,,,,,,03-04-2007 00:00
72278023183,10-08-2024 07:51,FM-15,7,,N,0.5,mi,"TEMP, PRECIP",1107,,"MXMN, SRG",33.4442,-112.0247,CONTRACTOR,,,,,,,,,,,,,,,,,,,,,,,,,,,,29.87,60,95,0,,-0.05,1,31,29.8,FEW:02 120 SCT:04 150 BKN:07 190,28.69,10,72,90,,10,,,,,,,,,,,,,,,,,,,,,,,,,,,,,,,,,,,,,MET11808/10/24 07:51:02 METAR KPHX 101451Z 09009KT 10SM FEW120 SCT150 BKN190 35/16 A2987 RMK AO2 SLP093 T03500156 51018 (AR),FM-15,7,,,,,,,,,,,,,,,,,,,,,,,,,,,03-04-2007 00:00
72278023183,10-08-2024 08:00,FM-12,4,,N,0.5,mi,"TEMP, PRECIP",1107,,"MXMN, SRG",33.4442,-112.0247,CONTRACTOR,,,,,,,,,,,,,,,,,,,,,,,,,,,,,60,95,,,-0.05,1,31,29.8,,28.7,9.94,72,90,,10,,,,,,,,,,,,,,,,,,,,,,,,,,,,,,,,,,,,,SYN06472278 32966 60909 10350 20156 39718 40093 51018 91451 555 91015=,FM-12,4,,,,,,,,,,,,,,,,,,,,,,,,,,,03-04-2007 00:00
72278023183,10-08-2024 08:51,FM-15,7,,N,0.5,mi,"TEMP, PRECIP",1107,,"MXMN, SRG",33.4442,-112.0247,CONTRACTOR,,,,,,,,,,,,,,,,,,,,,,,,,,,,29.88,60,98,0,,,,28,29.81,FEW:02 120 SCT:04 150 SCT:04 190,28.7,10,73,100,,8,,,,,,,,,,,,,,,,,,,,,,,,,,,,,,,,,,,,,MET11208/10/24 08:51:02 METAR KPHX 101551Z 10007KT 10SM FEW120 SCT150 SCT190 37/16 A2988 RMK AO2 SLP095 T03670156 (AR),FM-15,7,,,,,,,,,,,,,,,,,,,,,,,,,,,03-04-2007 00:00
72278023183,10-08-2024 09:51,FM-15,7,,N,0.5,mi,"TEMP, PRECIP",1107,,"MXMN, SRG",33.4442,-112.0247,CONTRACTOR,,,,,,,,,,,,,,,,,,,,,,,,,,,,29.88,58,103,0,,,,23,29.81,FEW:02 120 FEW:02 150 SCT:04 190,28.7,10,73,110,,8,,,,,,,,,,,,,,,,,,,,,,,,,,,,,,,,,,,,,MET11208/10/24 09:51:02 METAR KPHX 101651Z 11007KT 10SM FEW120 FEW150 SCT190 39/14 A2988 RMK AO2 SLP096 T03940144 (AR),FM-15,7,,,,,,,,,,,,,,,,,,,,,,,,,,,03-04-2007 00:00
72278023183,10-08-2024 10:51,FM-15,7,,N,0.5,mi,"TEMP, PRECIP",1107,,"MXMN, SRG",33.4442,-112.0247,CONTRACTOR,,,,,,,,,,,,,,,,,,,,,,,,,,,,29.88,58,105,0,,0,0,21,29.8,FEW:02 120 FEW:02 140 SCT:04 200,28.7,10,74,150,17,10,,,,,,,,,,,,,,,,,,,,,,,,,,,,,,,,,,,,,MET13308/10/24 10:51:02 METAR KPHX 101751Z 15009G15KT 10SM FEW120 FEW140 SCT200 41/14 A2988 RMK AO2 SLP093 T04060144 10406 20339 50001 (AR),FM-15,7,,,,,,,,,,,,,,,,,,,,,,,,,,,03-04-2007 00:00
72278023183,10-08-2024 11:00,FM-12,4,,N,0.5,mi,"TEMP, PRECIP",1107,,"MXMN, SRG",33.4442,-112.0247,CONTRACTOR,,,,,,,,,,,,,,,,,,,,,,,,,,,,,58,105,,,0,9,21,29.8,,28.71,9.94,74,150,,10,,,,,,,,,,,,,,,,,,,,,,,,,,,,,,,,,,,,,SYN08672278 32966 41509 10406 20144 39721 40093 50001 91751 333 10406 20339 91015 555 91018=,FM-12,4,,,,,,,,,,,,,,,,,,,,,,,,,,,03-04-2007 00:00
72278023183,10-08-2024 11:51,FM-15,7,,N,0.5,mi,"TEMP, PRECIP",1107,,"MXMN, SRG",33.4442,-112.0247,CONTRACTOR,,,,,,,,,,,,,,,,,,,,,,,,,,,,29.86,58,106,0,,,,21,29.79,FEW:02 120 FEW:02 140 SCT:04 200,28.69,10,74,150,,5,,,,,,,,,,,,,,,,,,,,,,,,,,,,,,,,,,,,,MET13508/10/24 11:51:02 METAR KPHX 101851Z 15004KT 10SM FEW120 FEW140 SCT200 41/14 A2986 RMK AO2 SLP089 CB DSNT SW TCU DSNT NW T04110144 (AR),FM-15,7,,,,,,,,,,,,,,,,,,,,,,,,,,,03-04-2007 00:00
72278023183,10-08-2024 12:51,FM-15,7,,N,0.5,mi,"TEMP, PRECIP",1107,,"MXMN, SRG",33.4442,-112.0247,CONTRACTOR,,,,,,,,,,,,,,,,,,,,,,,,,,,,29.84,58,109,0,,,,19,29.77,FEW:02 90 FEW:02 120 SCT:04 150,28.66,10,75,120,22,11,,,,,,,,,,,,,,,,,,,,,,,,,,,,,,,,,,,,,MET12608/10/24 12:51:02 METAR KPHX 101951Z 12010G19KT 10SM FEW090 FEW120 SCT150 43/14 A2984 RMK AO2 SLP081 CB DSNT SW T04280144 (AR),FM-15,7,,,,,,,,,,,,,,,,,,,,,,,,,,,03-04-2007 00:00
72278023183,10-08-2024 13:51,FM-15,7,,N,0.5,mi,"TEMP, PRECIP",1107,,"MXMN, SRG",33.4442,-112.0247,CONTRACTOR,,,,,,,,,,,,,,,,,,,,,,,,,,,,29.81,58,111,0,,0.06,8,18,29.74,FEW:02 90 FEW:02 120 SCT:04 150,28.64,10,75,VRB,22,14,,,,,,,,,,,,,,,,,,,,,,,,,,,,,,,,,,,,,MET13208/10/24 13:51:02 METAR KPHX 102051Z 17012G19KT 10SM FEW090 FEW120 SCT150 44/14 A2981 RMK AO2 SLP071 CB DSNT SW T04390144 58021 (AR),FM-15,7,,,,,,,,,,,,,,,,,,,,,,,,,,,03-04-2007 00:00
72278023183,10-08-2024 14:00,FM-12,4,,N,0.5,mi,"TEMP, PRECIP",1107,,"MXMN, SRG",33.4442,-112.0247,CONTRACTOR,,,,,,,,,,,,,,,,,,,,,,,,,,,,,58,111,,,0.06,8,18,29.74,,28.64,9.94,75,170,,14,,,,,,,,,,,,,,,,,,,,,,,,,,,,,,,,,,,,,SYN07472278 32966 61712 10439 20144 39698 40071 58021 92051 333 91019 555 91021=,FM-12,4,,,,,,,,,,,,,,,,,,,,,,,,,,,03-04-2007 00:00
72278023183,10-08-2024 14:51,FM-15,7,,N,0.5,mi,"TEMP, PRECIP",1107,,"MXMN, SRG",33.4442,-112.0247,CONTRACTOR,,,,,,,,,,,,,,,,,,,,,,,,,,,,29.8,58,109,0,,,,19,29.73,FEW:02 90 FEW:02 120 SCT:04 150,28.63,10,75,150,20,11,,,,,,,,,,,,,,,,,,,,,,,,,,,,,,,,,,,,,MET15408/10/24 14:51:02 METAR KPHX 102151Z 15010G17KT 10SM FEW090 FEW120 SCT150 43/14 A2980 RMK AO2 PK WND 17029/2110 SLP067 CB DSNT SE AND W-NW T04280144 (ADH),FM-15,7,,,,,,,,,,,,,,,,,,,,,,,,,,,03-04-2007 00:00
72278023183,10-08-2024 15:51,FM-15,7,,N,0.5,mi,"TEMP, PRECIP",1107,,"MXMN, SRG",33.4442,-112.0247,CONTRACTOR,,,,,,,,,,,,,,,,,,,,,,,,,,,,29.77,60,110,0,,,,20,29.7,FEW:02 90 FEW:02 150 SCT:04 180,28.6,10,76,VRB,23,11,,,,,,,,,,,,,,,,,,,,,,,,,,,,,,,,,,,,,MET13808/10/24 15:51:02 METAR KPHX 102251Z 18010G20KT 10SM FEW090 FEW150 SCT180 43/16 A2977 RMK AO2 SLP058 CB DSNT SE TCU DSNT N T04330156 (ADH),FM-15,7,,,,,,,,,,,,,,,,,,,,,,,,,,,03-04-2007 00:00
72278023183,10-08-2024 16:51,FM-15,7,,N,0.5,mi,"TEMP, PRECIP",1107,,"MXMN, SRG",33.4442,-112.0247,CONTRACTOR,,,,,,,,,,,,,,,,,,,,,,,,,,,,29.77,61,109,0,,0.04,6,21,29.7,FEW:02 90 FEW:02 150 SCT:04 180,28.6,10,76,210,26,13,,,,,,,,,,,,,,,,,,,,,,,,,,,,,,,,,,,,,MET16308/10/24 16:51:02 METAR KPHX 102351Z 21011G23KT 10SM FEW090 FEW150 SCT180 43/16 A2977 RMK AO2 PK WND 18031/2257 SLP057 CB DSNT SE T04280161 10444 20400 56014 (ADH),FM-15,7,,,,,,,,,,,,,,,,,,,,,,,,,,,03-04-2007 00:00
72278023183,10-08-2024 17:00,FM-12,4,,N,0.5,mi,"TEMP, PRECIP",1107,,"MXMN, SRG",33.4442,-112.0247,CONTRACTOR,,,,,,,,,,,,,,,,,,,,,,,,,,,,,61,109,,,0.04,6,21,29.7,,28.6,9.94,76,210,,13,,,,,,,,,,,,,,,,,,,,,,,,,,,,,,,,,,,,,SYN08672278 32966 62111 10428 20161 39685 40057 56014 92351 333 10444 20339 91023 555 91100=,FM-12,4,,,,,,,,,,,,,,,,,,,,,,,,,,,03-04-2007 00:00
72278023183,10-08-2024 17:51,FM-15,7,,N,0.5,mi,"TEMP, PRECIP",1107,,"MXMN, SRG",33.4442,-112.0247,CONTRACTOR,,,,,,,,,,,,,,,,,,,,,,,,,,,,29.79,60,107,0,,,,22,29.72,FEW:02 90 SCT:04 150 BKN:07 180,28.62,10,75,240,,18,,,,,,,,,,,,,,,,,,,,,,,,,,,,,,,,,,,,,MET15108/10/24 17:51:01 METAR KPHX 110051Z 24016KT 10SM FEW090 SCT150 BKN180 42/16 A2979 RMK AO2 SLP063 OCNL LTGCG DSNT NE AND SE CB DSNT NE AND SE T04170156,FM-15,7,,,,,,,,,,,,,,,,,,,,,,,,,,,03-04-2007 00:00
72278023183,10-08-2024 18:51,FM-15,7,,N,0.5,mi,"TEMP, PRECIP",1107,,"MXMN, SRG",33.4442,-112.0247,CONTRACTOR,,,,,,,,,,,,,,,,,,,,,,,,,,,,29.83,62,100,0,,,,29,29.77,FEW:02 100 SCT:04 140 BKN:07 180,28.66,10,74,250,28,16,,,,,,,,,,,,,,,,,,,,,,,,,,,,,,,,,,,,,MET17408/10/24 18:51:01 METAR KPHX 110151Z 25014G24KT 10SM FEW100 SCT140 BKN180 38/17 A2983 RMK AO2 PK WND 24028/0112 SLP080 OCNL LTGCG DSNT N-NE AND S CB DSNT N-NE AND S T03780167,FM-15,7,,,,,,,,,,,,,,,,,,,,,,,,,,,03-04-2007 00:00
72278023183,10-08-2024 19:51,FM-15,7,,N,0.5,mi,"TEMP, PRECIP",1107,,"MXMN, SRG",33.4442,-112.0247,CONTRACTOR,,,,,,,,,,,,,,,,,,,,,,,,,,,,29.87,65,97,0,,-0.1,3,35,29.8,FEW:02 100 SCT:04 140 BKN:07 200,28.69,10,75,300,28,21,,,,,,,,,,,,,,,,,,,,,,,,,,,,,,,,,,,,,MET15108/10/24 19:51:02 METAR KPHX 110251Z 30018G24KT 10SM FEW100 SCT140 BKN200 36/18 A2987 RMK AO2 SLP093 FRQ LTGICCG DSNT N-NE CB DSNT N-NE T03610183 53033,FM-15,7,,,,,,,,,,,,,,,,,,,,,,,,,,,03-04-2007 00:00
72278023183,10-08-2024 20:00,FM-12,4,,N,0.5,mi,"TEMP, PRECIP",1107,,"MXMN, SRG",33.4442,-112.0247,CONTRACTOR,,,,,,,,,,,,,,,,,,,,,,,,,,,,,65,97,,,-0.1,3,35,29.8,,28.7,9.94,75,300,,21,,,,,,,,,,,,,,,,,,,,,,,,,,,,,,,,,,,,,SYN07472278 32966 63018 10361 20183 39718 40093 53033 90251 333 91024 555 91103=,FM-12,4,,,,,,,,,,,,,,,,,,,,,,,,,,,03-04-2007 00:00
72278023183,10-08-2024 20:51,FM-15,7,,N,0.5,mi,"TEMP, PRECIP",1107,,"MXMN, SRG",33.4442,-112.0247,CONTRACTOR,,,,,,,,,,,,,,,,,,,,,,,,,,,,29.89,64,96,0,,,,35,29.83,FEW:02 100 SCT:04 140 BKN:07 200,28.71,10,74,330,25,10,,,,,,,,,,,,,,,,,,,,,,,,,,,,,,,,,,,,,MET11008/10/24 20:51:02 METAR KPHX 110351Z 33009G22KT 10SM FEW100 SCT140 BKN200 36/18 A2989 RMK AO2 SLP101 T03560178,FM-15,7,,,,,,,,,,,,,,,,,,,,,,,,,,,03-04-2007 00:00
72278023183,10-08-2024 21:51,FM-15,7,,N,0.5,mi,"TEMP, PRECIP",1107,,"MXMN, SRG",33.4442,-112.0247,CONTRACTOR,,,,,,,,,,,,,,,,,,,,,,,,,,,,29.89,64,95,0,,,,36,29.82,FEW:02 100 SCT:04 140 SCT:04 200,28.71,10,74,270,,7,,,,,,,,,,,,,,,,,,,,,,,,,,,,,,,,,,,,,MET10708/10/24 21:51:02 METAR KPHX 110451Z 27006KT 10SM FEW100 SCT140 SCT200 35/18 A2989 RMK AO2 SLP099 T03500178,FM-15,7,,,,,,,,,,,,,,,,,,,,,,,,,,,03-04-2007 00:00
72278023183,10-08-2024 22:51,FM-15,7,,N,0.5,mi,"TEMP, PRECIP",1107,,"MXMN, SRG",33.4442,-112.0247,CONTRACTOR,,,,,,,,,,,,,,,,,,,,,,,,,,,,29.9,63,94,0,,-0.02,1,36,29.83,SCT:04 140 SCT:04 200 BKN:07 250,28.72,10,73,250,,5,,,,,,,,,,,,,,,,,,,,,,,,,,,,,,,,,,,,,MET12508/10/24 22:51:02 METAR KPHX 110551Z 25004KT 10SM SCT140 SCT200 BKN250 34/17 A2990 RMK AO2 SLP100 T03440172 10433 20344 51008,FM-15,7,,,,,,,,,,,,,,,,,,,,,,,,,,,03-04-2007 00:00
72278023183,10-08-2024 23:00,FM-12,4,,N,0.5,mi,"TEMP, PRECIP",1107,,"MXMN, SRG",33.4442,-112.0247,CONTRACTOR,,,,,,,,,,,,,,,,,,,,,,,,,,,,,63,94,,,-0.02,1,36,29.83,,28.73,9.94,73,250,,5,,,,,,,,,,,,,,,,,,,,,,,,,,,,,,,,,,,,,SYN08072278 32966 62504 10344 20172 39728 40100 51008 90551 333 10433 20339 555 91106=,FM-12,4,,,,,,,,,,,,,,,,,,,,,,,,,,,03-04-2007 00:00
72278023183,10-08-2024 23:51,FM-15,7,,N,0.5,mi,"TEMP, PRECIP",1107,,"MXMN, SRG",33.4442,-112.0247,CONTRACTOR,,,,,,,,,,,,,,,,,,,,,,,,,,,,29.9,65,93,0,,,,40,29.83,SCT:04 200,28.72,10,74,110,,5,,,,,,,,,,,,,,,,,,,,,,,,,,,,,,,,,,,,,MET10308/10/24 23:51:02 METAR KPHX 110651Z 11004KT 10SM SCT200 34/18 A2990 RMK AO2 SLP100 T03390183 404440339,FM-15,7,,,,,,,,,,,,,,,,,,,,,,,,,,,03-04-2007 00:00
72278023183,10-08-2024 23:59,SOD  ,6,,N,0.5,mi,"TEMP, PRECIP",1107,,"MXMN, SRG",33.4442,-112.0247,CONTRACTOR,,,,,,60,103,28,29.77,28.66,73,10.2,38,9.1,0,112,93,180,35,0,,,240,25,,,,,,,,,,,,,,,,,,,,,,,,,,,,,,,,,,,,,,,,,,,,,,,,,,,,,,,,SOD73924 HR PRECIPITATION (IN): 0.00 SNOW DEPTH (IN):0     24 HR SNOWFALL (IN):0.0  24 HR MAX TEMP (F):11224 HR MIN TEMP (F): 93AVERAGE STATION PRESSURE:28.660 MINIMUM SEA LEVEL PRESSURE:29.69 TIME OF OCCURRENCE:1612 PEAK WIND SPEED (MPH): 35 PEAK WIND DIR (DEG):180 PEAK WIND TIME (LST):      FASTEST 2MIN SPEED (MPH): 25FASTEST 2MIN DIR (DEG):240 FASTEST 2MIN TIME (LST):     AVERAGE WIND SPEED (MPH):10.2 24 HR AVG TEMP (F):103DEPART FROM NORMAL:  8  HEATING DEGREE DAYS:  0 COOLING DEGREE DAYS: 38 LATEST DAY MAX TEMP (0700-1900 LST):112 LATEST NIGHT MIN TEMP(1900-0800 LST):93 HOURLY INCREMENTAL PRECIPITATION VALUES (IN):.00 0.00 0.00 0.00 0.00 0.00 0.00 0.00 0.00 0.00 0.00 0.00 0.00 0.00 0.00 0.00 0.00 0.00 0.00 0.00 0.00 0.00 0.00 0.00,SOD  ,6,,,,,,,,,,,,,,,,,,,,,,,,,547,1918,03-04-2007 00:00
72278023183,11-08-2024 00:51,FM-15,7,,N,0.5,mi,"TEMP, PRECIP",1107,,"MXMN, SRG",33.4442,-112.0247,CONTRACTOR,,,,,,,,,,,,,,,,,,,,,,,,,,,,29.89,66,92,0,,,,43,29.82,FEW:02 150,28.71,10,74,100,,6,,,,,,,,,,,,,,,,,,,,,,,,,,,,,,,,,,,,,MET09908/11/24 00:51:02 METAR KPHX 110751Z 10005KT 10SM FEW150 33/19 A2989 RMK AO2 SLP099 T03330189 (ANH),FM-15,7,,,,,,,,,,,,,,,,,,,,,,,,,,,03-04-2007 00:00
72278023183,11-08-2024 01:51,FM-15,7,,N,0.5,mi,"TEMP, PRECIP",1107,,"MXMN, SRG",33.4442,-112.0247,CONTRACTOR,,,,,,,,,,,,,,,,,,,,,,,,,,,,29.9,66,91,0,,0,3,44,29.83,CLR:00,28.72,10,74,160,,6,,,,,,,,,,,,,,,,,,,,,,,,,,,,,,,,,,,,,MET10208/11/24 01:51:02 METAR KPHX 110851Z 16005KT 10SM CLR 33/19 A2990 RMK AO2 SLP101 T03280189 53001 (ANH),FM-15,7,,,,,,,,,,,,,,,,,,,,,,,,,,,03-04-2007 00:00
72278023183,11-08-2024 02:00,FM-12,4,,N,0.5,mi,"TEMP, PRECIP",1107,,"MXMN, SRG",33.4442,-112.0247,CONTRACTOR,,,,,,,,,,,,,,,,,,,,,,,,,,,,,66,91,,,0,3,44,29.83,,28.73,9.94,74,160,,6,,,,,,,,,,,,,,,,,,,,,,,,,,,,,,,,,,,,,SYN06472278 32966 01605 10328 20189 39728 40101 53001 90851 555 91109=,FM-12,4,,,,,,,,,,,,,,,,,,,,,,,,,,,03-04-2007 00:00
72278023183,11-08-2024 02:51,FM-15,7,,N,0.5,mi,"TEMP, PRECIP",1107,,"MXMN, SRG",33.4442,-112.0247,CONTRACTOR,,,,,,,,,,,,,,,,,,,,,,,,,,,,29.9,65,90,0,,,,44,29.83,FEW:02 200,28.72,10,73,150,,8,,,,,,,,,,,,,,,,,,,,,,,,,,,,,,,,,,,,,MET09908/11/24 02:51:02 METAR KPHX 110951Z 15007KT 10SM FEW200 32/18 A2990 RMK AO2 SLP103 T03220183 (ANH),FM-15,7,,,,,,,,,,,,,,,,,,,,,,,,,,,03-04-2007 00:00
72278023183,11-08-2024 03:51,FM-15,7,,N,0.5,mi,"TEMP, PRECIP",1107,,"MXMN, SRG",33.4442,-112.0247,CONTRACTOR,,,,,,,,,,,,,,,,,,,,,,,,,,,,29.91,67,89,0,,,,48,29.84,FEW:02 200,28.73,10,74,130,,8,,,,,,,,,,,,,,,,,,,,,,,,,,,,,,,,,,,,,MET09908/11/24 03:51:02 METAR KPHX 111051Z 13007KT 10SM FEW200 32/19 A2991 RMK AO2 SLP106 T03170194 (ANH),FM-15,7,,,,,,,,,,,,,,,,,,,,,,,,,,,03-04-2007 00:00
72278023183,11-08-2024 04:51,FM-15,7,,N,0.5,mi,"TEMP, PRECIP",1107,,"MXMN, SRG",33.4442,-112.0247,CONTRACTOR,,,,,,,,,,,,,,,,,,,,,,,,,,,,29.93,65,89,0,,-0.03,3,45,29.86,FEW:02 150 FEW:02 200,28.75,10,73,100,,6,,,,,,,,,,,,,,,,,,,,,,,,,,,,,,,,,,,,,MET12408/11/24 04:51:02 METAR KPHX 111151Z 10005KT 10SM FEW150 FEW200 32/18 A2993 RMK AO2 SLP113 T03170183 10344 20317 53011 (ANH),FM-15,7,,,,,,,,,,,,,,,,,,,,,,,,,,,03-04-2007 00:00
72278023183,11-08-2024 05:00,FM-12,4,,N,0.5,mi,"TEMP, PRECIP",1107,,"MXMN, SRG",33.4442,-112.0247,CONTRACTOR,,,,,,,,,,,,,,,,,,,,,,,,,,,,,65,89,,,-0.03,3,45,29.86,,28.76,9.94,73,100,,6,,,,,,,,,,,,,,,,,,,,,,,,,,,,,,,,,,,,,SYN08072278 32966 21005 10317 20183 39738 40113 53011 91151 333 10444 20317 555 91112=,FM-12,4,,,,,,,,,,,,,,,,,,,,,,,,,,,03-04-2007 00:00
72278023183,11-08-2024 05:51,FM-15,7,,N,0.5,mi,"TEMP, PRECIP",1107,,"MXMN, SRG",33.4442,-112.0247,CONTRACTOR,,,,,,,,,,,,,,,,,,,,,,,,,,,,29.96,66,88,0,,,,48,29.89,FEW:02 70 FEW:02 120 SCT:04 150,28.78,10,73,120,,7,,,,,,,,,,,,,,,,,,,,,,,,,,,,,,,,,,,,,MET11308/11/24 05:51:02 METAR KPHX 111251Z 12006KT 10SM FEW070 FEW120 SCT150 31/19 A2996 RMK AO2 SLP122 T03110189 (ANH),FM-15,7,,,,,,,,,,,,,,,,,,,,,,,,,,,03-04-2007 00:00
72278023183,11-08-2024 06:51,FM-15,7,,N,0.5,mi,"TEMP, PRECIP",1107,,"MXMN, SRG",33.4442,-112.0247,CONTRACTOR,,,,,,,,,,,,,,,,,,,,,,,,,,,,29.99,66,88,0,,,,48,29.93,FEW:02 90 FEW:02 130 SCT:04 160,28.81,10,73,150,,11,,,,,,,,,,,,,,,,,,,,,,,,,,,,,,,,,,,,,MET11208/11/24 06:51:02 METAR KPHX 111351Z 15010KT 10SM FEW090 FEW130 SCT160 31/19 A2999 RMK AO2 SLP134 T03110189 (AR),FM-15,7,,,,,,,,,,,,,,,,,,,,,,,,,,,03-04-2007 00:00
72278023183,11-08-2024 07:51,FM-15,7,,N,0.5,mi,"TEMP, PRECIP",1107,,"MXMN, SRG",33.4442,-112.0247,CONTRACTOR,,,,,,,,,,,,,,,,,,,,,,,,,,,,30.01,66,91,0,,-0.07,1,44,29.94,FEW:02 90 FEW:02 130 SCT:04 160,28.83,10,74,190,,11,,,,,,,,,,,,,,,,,,,,,,,,,,,,,,,,,,,,,MET11808/11/24 07:51:02 METAR KPHX 111451Z 19010KT 10SM FEW090 FEW130 SCT160 33/19 A3001 RMK AO2 SLP139 T03280189 51024 (AR),FM-15,7,,,,,,,,,,,,,,,,,,,,,,,,,,,03-04-2007 00:00
72278023183,11-08-2024 08:00,FM-12,4,,N,0.5,mi,"TEMP, PRECIP",1107,,"MXMN, SRG",33.4442,-112.0247,CONTRACTOR,,,,,,,,,,,,,,,,,,,,,,,,,,,,,66,91,,,-0.07,1,44,29.94,,28.83,9.94,74,190,,11,,,,,,,,,,,,,,,,,,,,,,,,,,,,,,,,,,,,,SYN06472278 32966 61910 10328 20189 39764 40139 51024 91451 555 91115=,FM-12,4,,,,,,,,,,,,,,,,,,,,,,,,,,,03-04-2007 00:00
72278023183,11-08-2024 08:51,FM-15,7,,N,0.5,mi,"TEMP, PRECIP",1107,,"MXMN, SRG",33.4442,-112.0247,CONTRACTOR,,,,,,,,,,,,,,,,,,,,,,,,,,,,30.02,64,93,0,,,,38,29.95,FEW:02 100 FEW:02 150 SCT:04 200,28.84,10,73,160,,14,,,,,,,,,,,,,,,,,,,,,,,,,,,,,,,,,,,,,MET11208/11/24 08:51:02 METAR KPHX 111551Z 16012KT 10SM FEW100 FEW150 SCT200 34/18 A3002 RMK AO2 SLP143 T03390178 (AR),FM-15,7,,,,,,,,,,,,,,,,,,,,,,,,,,,03-04-2007 00:00
72278023183,11-08-2024 09:51,FM-15,7,,N,0.5,mi,"TEMP, PRECIP",1107,,"MXMN, SRG",33.4442,-112.0247,CONTRACTOR,,,,,,,,,,,,,,,,,,,,,,,,,,,,30.02,65,90,0,,,,44,29.96,FEW:02 100 FEW:02 150 SCT:04 180,28.84,10,73,150,24,16,,,,,,,,,,,,,,,,,,,,,,,,,,,,,,,,,,,,,MET11508/11/24 09:51:02 METAR KPHX 111651Z 15014G21KT 10SM FEW100 FEW150 SCT180 32/18 A3002 RMK AO2 SLP146 T03220183 (AR),FM-15,7,,,,,,,,,,,,,,,,,,,,,,,,,,,03-04-2007 00:00
72278023183,11-08-2024 10:03,FM-16,7,,N,0.5,mi,"TEMP, PRECIP",1107,,"MXMN, SRG",33.4442,-112.0247,CONTRACTOR,,,,,,,,,,,,,,,,,,,,,,,,,,,,30.02,64,89,,,,,43,,FEW:02 100 FEW:02 150 SCT:04 180,28.84,10,72,170,,13,,,,,,,,,,,,,,,,,,,,,,,,,,,,,,,,,,,,,MET10508/11/24 10:03:02 SPECI KPHX 111703Z 17011KT 10SM FEW100 FEW150 SCT180 32/18 A3002 RMK AO2 T03170178 (AR),FM-16,7,,,,,,,,,,,,,,,,,,,,,,,,,,,03-04-2007 00:00
72278023183,11-08-2024 10:51,FM-15,7,,N,0.5,mi,"TEMP, PRECIP",1107,,"MXMN, SRG",33.4442,-112.0247,CONTRACTOR,,,,,,,,,,,,,,,,,,,,,,,,,,,,30.01,64,93,0,,-0.01,0,38,29.95,FEW:02 110 FEW:02 160 SCT:04 180,28.83,10,73,140,,5,,,,,,,,,,,,,,,,,,,,,,,,,,,,,,,,,,,,,MET13008/11/24 10:51:02 METAR KPHX 111751Z 14004KT 10SM FEW110 FEW160 SCT180 34/18 A3001 RMK AO2 SLP142 T03390178 10350 20311 50002 (AR),FM-15,7,,,,,,,,,,,,,,,,,,,,,,,,,,,03-04-2007 00:00
72278023183,11-08-2024 11:00,FM-12,4,,N,0.5,mi,"TEMP, PRECIP",1107,,"MXMN, SRG",33.4442,-112.0247,CONTRACTOR,,,,,,,,,,,,,,,,,,,,,,,,,,,,,64,93,,,0.01,9,38,29.95,,28.83,9.94,73,140,,5,,,,,,,,,,,,,,,,,,,,,,,,,,,,,,,,,,,,,SYN08072278 32966 41404 10339 20178 39764 40142 50002 91751 333 10350 20311 555 91118=,FM-12,4,,,,,,,,,,,,,,,,,,,,,,,,,,,03-04-2007 00:00
72278023183,11-08-2024 11:51,FM-15,7,,N,0.5,mi,"TEMP, PRECIP",1107,,"MXMN, SRG",33.4442,-112.0247,CONTRACTOR,,,,,,,,,,,,,,,,,,,,,,,,,,,,29.98,64,96,0,,,,35,29.91,FEW:02 110 FEW:02 150 FEW:02 180,28.8,10,74,320,,8,,,,,,,,,,,,,,,,,,,,,,,,,,,,,,,,,,,,,MET11208/11/24 11:51:02 METAR KPHX 111851Z 32007KT 10SM FEW110 FEW150 FEW180 36/18 A2998 RMK AO2 SLP130 T03560178 (AR),FM-15,7,,,,,,,,,,,,,,,,,,,,,,,,,,,03-04-2007 00:00
72278023183,11-08-2024 12:51,FM-15,7,,N,0.5,mi,"TEMP, PRECIP",1107,,"MXMN, SRG",33.4442,-112.0247,CONTRACTOR,,,,,,,,,,,,,,,,,,,,,,,,,,,,29.95,64,99,0,,,,32,29.88,FEW:02 120 FEW:02 180 SCT:04 220,28.77,10,75,100,,5,,,,,,,,,,,,,,,,,,,,,,,,,,,,,,,,,,,,,MET11208/11/24 12:51:02 METAR KPHX 111951Z 10004KT 10SM FEW120 FEW180 SCT220 37/18 A2995 RMK AO2 SLP119 T03720178 (AR),FM-15,7,,,,,,,,,,,,,,,,,,,,,,,,,,,03-04-2007 00:00
72278023183,11-08-2024 13:51,FM-15,7,,N,0.5,mi,"TEMP, PRECIP",1107,,"MXMN, SRG",33.4442,-112.0247,CONTRACTOR,,,,,,,,,,,,,,,,,,,,,,,,,,,,29.92,62,100,0,,0.09,6,29,29.85,FEW:02 120 FEW:02 180 SCT:04 220,28.74,10,74,140,,6,,,,,,,,,,,,,,,,,,,,,,,,,,,,,,,,,,,,,MET11808/11/24 13:51:02 METAR KPHX 112051Z 14005KT 10SM FEW120 FEW180 SCT220 38/17 A2992 RMK AO2 SLP108 T03780167 56031 (AR),FM-15,7,,,,,,,,,,,,,,,,,,,,,,,,,,,03-04-2007 00:00
72278023183,11-08-2024 14:51,FM-15,7,,N,0.5,mi,"TEMP, PRECIP",1107,,"MXMN, SRG",33.4442,-112.0247,CONTRACTOR,,,,,,,,,,,,,,,,,,,,,,,,,,,,29.88,62,101,0,,,,28,29.81,FEW:02 120 FEW:02 180 SCT:04 220,28.7,10,74,VRB,,3,,,,,,,,,,,,,,,,,,,,,,,,,,,,,,,,,,,,,MET11308/11/24 14:51:02 METAR KPHX 112151Z VRB03KT 10SM FEW120 FEW180 SCT220 38/17 A2988 RMK AO2 SLP095 T03830167 (ADH),FM-15,7,,,,,,,,,,,,,,,,,,,,,,,,,,,03-04-2007 00:00
72278023183,11-08-2024 15:51,FM-15,7,,N,0.5,mi,"TEMP, PRECIP",1107,,"MXMN, SRG",33.4442,-112.0247,CONTRACTOR,,,,,,,,,,,,,,,,,,,,,,,,,,,,29.84,62,103,0,,,,26,29.78,FEW:02 120 FEW:02 180 SCT:04 220,28.66,10,75,VRB,18,9,,,,,,,,,,,,,,,,,,,,,,,,,,,,,,,,,,,,,MET12708/11/24 15:51:02 METAR KPHX 112251Z 21008G16KT 10SM FEW120 FEW180 SCT220 39/17 A2984 RMK AO2 SLP083 CB DSNT NW T03940167 (ADH),FM-15,7,,,,,,,,,,,,,,,,,,,,,,,,,,,03-04-2007 00:00
72278023183,11-08-2024 16:51,FM-15,7,,N,0.5,mi,"TEMP, PRECIP",1107,,"MXMN, SRG",33.4442,-112.0247,CONTRACTOR,,,,,,,,,,,,,,,,,,,,,,,,,,,,29.83,60,102,0,,0.08,6,25,29.76,FEW:02 100 SCT:04 200 SCT:04 250,28.66,10,74,0,,0,,,,,,,,,,,,,,,,,,,,,,,,,,,,,,,,,,,,,MET13108/11/24 16:51:02 METAR KPHX 112351Z 00000KT 10SM FEW100 SCT200 SCT250 39/16 A2983 RMK AO2 SLP079 T03890156 10406 20339 56028 (ADH),FM-15,7,,,,,,,,,,,,,,,,,,,,,,,,,,,03-04-2007 00:00
72278023183,11-08-2024 17:51,FM-15,7,,N,0.5,mi,"TEMP, PRECIP",1107,,"MXMN, SRG",33.4442,-112.0247,CONTRACTOR,,,,,,,,,,,,,,,,,,,,,,,,,,,,29.82,61,103,0,,,,25,29.75,FEW:02 100 FEW:02 150 SCT:04 200,28.65,10,74,260,,7,,,,,,,,,,,,,,,,,,,,,,,,,,,,,,,,,,,,,MET12908/11/24 17:51:01 METAR KPHX 120051Z 26006KT 10SM FEW100 FEW150 SCT200 39/16 A2982 RMK AO2 SLP076 CB DSNT NE TCU DSNT N T03940161,FM-15,7,,,,,,,,,,,,,,,,,,,,,,,,,,,03-04-2007 00:00
72278023183,11-08-2024 18:51,FM-15,7,,N,0.5,mi,"TEMP, PRECIP",1107,,"MXMN, SRG",33.4442,-112.0247,CONTRACTOR,,,,,,,,,,,,,,,,,,,,,,,,,,,,29.84,61,100,0,,,,28,29.77,FEW:02 100 FEW:02 150 SCT:04 200,28.66,10,74,250,,8,,,,,,,,,,,,,,,,,,,,,,,,,,,,,,,,,,,,,MET11808/11/24 18:51:01 METAR KPHX 120151Z 25007KT 10SM FEW100 FEW150 SCT200 38/16 A2984 RMK AO2 SLP082 CB DSNT NE T03780161,FM-15,7,,,,,,,,,,,,,,,,,,,,,,,,,,,03-04-2007 00:00
72278023183,11-08-2024 19:51,FM-15,7,,N,0.5,mi,"TEMP, PRECIP",1107,,"MXMN, SRG",33.4442,-112.0247,CONTRACTOR,,,,,,,,,,,,,,,,,,,,,,,,,,,,29.86,62,99,0,,-0.03,3,30,29.79,FEW:02 100 SCT:04 150 SCT:04 200,28.69,10,74,240,21,14,,,,,,,,,,,,,,,,,,,,,,,,,,,,,,,,,,,,,MET11608/11/24 19:51:02 METAR KPHX 120251Z 24012G18KT 10SM FEW100 SCT150 SCT200 37/17 A2986 RMK AO2 SLP088 T03720167 53009,FM-15,7,,,,,,,,,,,,,,,,,,,,,,,,,,,03-04-2007 00:00
72278023183,11-08-2024 20:51,FM-15,7,,N,0.5,mi,"TEMP, PRECIP",1107,,"MXMN, SRG",33.4442,-112.0247,CONTRACTOR,,,,,,,,,,,,,,,,,,,,,,,,,,,,29.88,61,96,0,,,,31,29.81,FEW:02 150 SCT:04 200 SCT:04 250,28.7,10,73,250,22,11,,,,,,,,,,,,,,,,,,,,,,,,,,,,,,,,,,,,,MET11008/11/24 20:51:02 METAR KPHX 120351Z 25010G19KT 10SM FEW150 SCT200 SCT250 36/16 A2988 RMK AO2 SLP095 T03560161,FM-15,7,,,,,,,,,,,,,,,,,,,,,,,,,,,03-04-2007 00:00
72278023183,11-08-2024 21:51,FM-15,7,,N,0.5,mi,"TEMP, PRECIP",1107,,"MXMN, SRG",33.4442,-112.0247,CONTRACTOR,,,,,,,,,,,,,,,,,,,,,,,,,,,,29.9,60,96,0,,,,30,29.83,FEW:02 150 SCT:04 200 SCT:04 250,28.72,10,72,260,,11,,,,,,,,,,,,,,,,,,,,,,,,,,,,,,,,,,,,,MET13508/11/24 21:51:02 METAR KPHX 120451Z 26010KT 10SM FEW150 SCT200 SCT250 36/16 A2990 RMK AO2 SLP102 OCNL LTGIC DSNT N CB DSNT N T03560156,FM-15,7,,,,,,,,,,,,,,,,,,,,,,,,,,,03-04-2007 00:00
72278023183,11-08-2024 22:51,FM-15,7,,N,0.5,mi,"TEMP, PRECIP",1107,,"MXMN, SRG",33.4442,-112.0247,CONTRACTOR,,,,,,,,,,,,,,,,,,,,,,,,,,,,29.91,60,95,0,,-0.05,1,31,29.85,FEW:02 150 SCT:04 200,28.73,10,72,280,,13,,,,,,,,,,,,,,,,,,,,,,,,,,,,,,,,,,,,,MET14708/11/24 22:51:01 METAR KPHX 120551Z 28011KT 10SM FEW150 SCT200 35/16 A2991 RMK AO2 SLP107 FRQ LTGCGIC DSNT E CB DSNT E T03500156 10400 20350 51018,FM-15,7,,,,,,,,,,,,,,,,,,,,,,,,,,,03-04-2007 00:00
72278023183,11-08-2024 23:51,FM-15,7,,N,0.5,mi,"TEMP, PRECIP",1107,,"MXMN, SRG",33.4442,-112.0247,CONTRACTOR,,,,,,,,,,,,,,,,,,,,,,,,,,,,29.91,60,94,0,,,,32,29.84,FEW:02 150,28.73,10,72,240,,5,,,,,,,,,,,,,,,,,,,,,,,,,,,,,,,,,,,,,MET13208/11/24 23:51:02 METAR KPHX 120651Z 24004KT 10SM FEW150 34/16 A2991 RMK AO2 SLP105 FRQ LTGCGIC DSNT E CB DSNT E T03440156 404060311,FM-15,7,,,,,,,,,,,,,,,,,,,,,,,,,,,03-04-2007 00:00
72278023183,11-08-2024 23:59,SOD  ,6,,N,0.5,mi,"TEMP, PRECIP",1107,,"MXMN, SRG",33.4442,-112.0247,CONTRACTOR,,,,,,63,97,36,29.85,28.74,74,8.2,32,3.1,0,105,88,160,24,0,,,260,18,,,,,,,,,,,,,,,,,,,,,,,,,,,,,,,,,,,,,,,,,,,,,,,,,,,,,,,,SOD73924 HR PRECIPITATION (IN): 0.00 SNOW DEPTH (IN):0     24 HR SNOWFALL (IN):0.0  24 HR MAX TEMP (F):10524 HR MIN TEMP (F): 88AVERAGE STATION PRESSURE:28.740 MINIMUM SEA LEVEL PRESSURE:29.75 TIME OF OCCURRENCE:1814 PEAK WIND SPEED (MPH): 24 PEAK WIND DIR (DEG):160 PEAK WIND TIME (LST):      FASTEST 2MIN SPEED (MPH): 18FASTEST 2MIN DIR (DEG):260 FASTEST 2MIN TIME (LST):     AVERAGE WIND SPEED (MPH): 8.2 24 HR AVG TEMP (F): 97DEPART FROM NORMAL:  2  HEATING DEGREE DAYS:  0 COOLING DEGREE DAYS: 32 LATEST DAY MAX TEMP (0700-1900 LST):105 LATEST NIGHT MIN TEMP(1900-0800 LST):88 HOURLY INCREMENTAL PRECIPITATION VALUES (IN):.00 0.00 0.00 0.00 0.00 0.00 0.00 0.00 0.00 0.00 0.00 0.00 0.00 0.00 0.00 0.00 0.00 0.00 0.00 0.00 0.00 0.00 0.00 0.00,SOD  ,6,,,,,,,,,,,,,,,,,,,,,,,,,548,1917,03-04-2007 00:00
72278023183,12-08-2024 00:51,FM-15,7,,N,0.5,mi,"TEMP, PRECIP",1107,,"MXMN, SRG",33.4442,-112.0247,CONTRACTOR,,,,,,,,,,,,,,,,,,,,,,,,,,,,29.91,60,93,0,,,,33,29.84,FEW:02 150,28.73,10,71,290,,11,,,,,,,,,,,,,,,,,,,,,,,,,,,,,,,,,,,,,MET09908/12/24 00:51:02 METAR KPHX 120751Z 29010KT 10SM FEW150 34/16 A2991 RMK AO2 SLP106 T03390156 (GEH),FM-15,7,,,,,,,,,,,,,,,,,,,,,,,,,,,03-04-2007 00:00
72278023183,12-08-2024 01:51,FM-15,6,,N,0.5,mi,"TEMP, PRECIP",1107,,"MXMN, SRG",33.4442,-112.0247,CONTRACTOR,,,,,,,,,,,,,,,,,,,,,,,,,,,,29.9,61,92,0,,0.01,6,36,29.84,CLR:00,28.72,10,71,280,,9,,,,,,,,,,,,,,,,,,,,,,,,,,,,,,,,,,,,,MET10208/12/24 01:51:02 METAR KPHX 120851Z 28008KT 10SM CLR 33/16 A2990 RMK AO2 SLP104 T03330161 56002 (GEH),FM-15,6,,,,,,,,,,,,,,,,,,,,,,,,,,,03-04-2007 00:00
72278023183,12-08-2024 02:51,FM-15,7,,N,0.5,mi,"TEMP, PRECIP",1107,,"MXMN, SRG",33.4442,-112.0247,CONTRACTOR,,,,,,,,,,,,,,,,,,,,,,,,,,,,29.9,62,91,0,,,,38,29.83,FEW:02 140 SCT:04 200,28.72,10,72,300,,6,,,,,,,,,,,,,,,,,,,,,,,,,,,,,,,,,,,,,MET10608/12/24 02:51:02 METAR KPHX 120951Z 30005KT 10SM FEW140 SCT200 33/17 A2990 RMK AO2 SLP103 T03280167 (GEH),FM-15,7,,,,,,,,,,,,,,,,,,,,,,,,,,,03-04-2007 00:00
72278023183,12-08-2024 03:51,FM-15,7,,N,0.5,mi,"TEMP, PRECIP",1107,,"MXMN, SRG",33.4442,-112.0247,CONTRACTOR,,,,,,,,,,,,,,,,,,,,,,,,,,,,29.89,62,90,0,,,,39,29.83,FEW:02 200,28.71,10,71,220,,6,,,,,,,,,,,,,,,,,,,,,,,,,,,,,,,,,,,,,MET09908/12/24 03:51:02 METAR KPHX 121051Z 22005KT 10SM FEW200 32/17 A2989 RMK AO2 SLP100 T03220167 (GEH),FM-15,7,,,,,,,,,,,,,,,,,,,,,,,,,,,03-04-2007 00:00
72278023183,12-08-2024 04:51,FM-15,7,,N,0.5,mi,"TEMP, PRECIP",1107,,"MXMN, SRG",33.4442,-112.0247,CONTRACTOR,,,,,,,,,,,,,,,,,,,,,,,,,,,,29.9,62,89,0,,0.01,5,41,29.83,FEW:02 200,28.72,10,71,230,,3,,,,,,,,,,,,,,,,,,,,,,,,,,,,,,,,,,,,,MET11708/12/24 04:51:02 METAR KPHX 121151Z 23003KT 10SM FEW200 32/17 A2990 RMK AO2 SLP101 T03170167 10350 20311 55003 (GEH),FM-15,7,,,,,,,,,,,,,,,,,,,,,,,,,,,03-04-2007 00:00
72278023183,12-08-2024 05:51,FM-15,7,,N,0.5,mi,"TEMP, PRECIP",1107,,"MXMN, SRG",33.4442,-112.0247,CONTRACTOR,,,,,,,,,,,,,,,,,,,,,,,,,,,,29.91,63,89,0,,,,42,29.84,FEW:02 120 FEW:02 200 FEW:02 250,28.73,10,72,0,,0,,,,,,,,,,,,,,,,,,,,,,,,,,,,,,,,,,,,,MET11308/12/24 05:51:02 METAR KPHX 121251Z 00000KT 10SM FEW120 FEW200 FEW250 32/17 A2991 RMK AO2 SLP106 T03170172 (GEH),FM-15,7,,,,,,,,,,,,,,,,,,,,,,,,,,,03-04-2007 00:00
72278023183,12-08-2024 06:51,FM-15,7,,N,0.5,mi,"TEMP, PRECIP",1107,,"MXMN, SRG",33.4442,-112.0247,CONTRACTOR,,,,,,,,,,,,,,,,,,,,,,,,,,,,29.93,63,91,0,,,,39,29.86,FEW:02 120 FEW:02 200 FEW:02 250,28.75,10,72,150,,5,,,,,,,,,,,,,,,,,,,,,,,,,,,,,,,,,,,,,MET11208/12/24 06:51:02 METAR KPHX 121351Z 15004KT 10SM FEW120 FEW200 FEW250 33/17 A2993 RMK AO2 SLP112 T03280172 (SH),FM-15,7,,,,,,,,,,,,,,,,,,,,,,,,,,,03-04-2007 00:00
72278023183,12-08-2024 07:51,FM-15,7,,N,0.5,mi,"TEMP, PRECIP",1107,,"MXMN, SRG",33.4442,-112.0247,CONTRACTOR,,,,,,,,,,,,,,,,,,,,,,,,,,,,29.94,62,92,0,,-0.05,3,37,29.88,FEW:02 120 SCT:04 160 SCT:04 270,28.76,10,72,130,,3,,,,,,,,,,,,,,,,,,,,,,,,,,,,,,,,,,,,,MET11808/12/24 07:51:02 METAR KPHX 121451Z 13003KT 10SM FEW120 SCT160 SCT270 33/17 A2994 RMK AO2 SLP117 T03330167 53016 (SH),FM-15,7,,,,,,,,,,,,,,,,,,,,,,,,,,,03-04-2007 00:00
72278023183,12-08-2024 08:51,FM-15,7,,N,0.5,mi,"TEMP, PRECIP",1107,,"MXMN, SRG",33.4442,-112.0247,CONTRACTOR,,,,,,,,,,,,,,,,,,,,,,,,,,,,29.94,62,94,0,,,,35,29.88,FEW:02 120 SCT:04 160 SCT:04 270,28.76,10,73,210,,3,,,,,,,,,,,,,,,,,,,,,,,,,,,,,,,,,,,,,MET11208/12/24 08:51:02 METAR KPHX 121551Z 21003KT 10SM FEW120 SCT160 SCT270 34/17 A2994 RMK AO2 SLP118 T03440167 (SH),FM-15,7,,,,,,,,,,,,,,,,,,,,,,,,,,,03-04-2007 00:00
72278023183,12-08-2024 09:51,FM-15,7,,N,0.5,mi,"TEMP, PRECIP",1107,,"MXMN, SRG",33.4442,-112.0247,CONTRACTOR,,,,,,,,,,,,,,,,,,,,,,,,,,,,29.94,61,96,0,,,,31,29.88,FEW:02 120 SCT:04 160 SCT:04 270,28.76,10,73,140,,6,,,,,,,,,,,,,,,,,,,,,,,,,,,,,,,,,,,,,MET11208/12/24 09:51:02 METAR KPHX 121651Z 14005KT 10SM FEW120 SCT160 SCT270 36/16 A2994 RMK AO2 SLP118 T03560161 (SH),FM-15,7,,,,,,,,,,,,,,,,,,,,,,,,,,,03-04-2007 00:00
72278023183,12-08-2024 10:51,FM-15,7,,N,0.5,mi,"TEMP, PRECIP",1107,,"MXMN, SRG",33.4442,-112.0247,CONTRACTOR,,,,,,,,,,,,,,,,,,,,,,,,,,,,29.93,61,100,0,,0.01,8,28,29.86,FEW:02 80 FEW:02 120 FEW:02 180,28.75,10,74,VRB,,5,,,,,,,,,,,,,,,,,,,,,,,,,,,,,,,,,,,,,MET13008/12/24 10:51:02 METAR KPHX 121751Z VRB04KT 10SM FEW080 FEW120 FEW180 38/16 A2993 RMK AO2 SLP113 T03780161 10378 20311 58005 (SH),FM-15,7,,,,,,,,,,,,,,,,,,,,,,,,,,,03-04-2007 00:00
72278023183,12-08-2024 11:51,FM-15,7,,N,0.5,mi,"TEMP, PRECIP",1107,,"MXMN, SRG",33.4442,-112.0247,CONTRACTOR,,,,,,,,,,,,,,,,,,,,,,,,,,,,29.91,59,101,0,,,,25,29.84,FEW:02 80 FEW:02 120 FEW:02 180,28.73,10,73,280,,8,,,,,,,,,,,,,,,,,,,,,,,,,,,,,,,,,,,,,MET12908/12/24 11:51:02 METAR KPHX 121851Z 28007KT 10SM FEW080 FEW120 FEW180 38/15 A2991 RMK AO2 SLP105 TCU DSNT N AND E T03830150 (SH),FM-15,7,,,,,,,,,,,,,,,,,,,,,,,,,,,03-04-2007 00:00
72278023183,12-08-2024 12:51,FM-15,7,,N,0.5,mi,"TEMP, PRECIP",1107,,"MXMN, SRG",33.4442,-112.0247,CONTRACTOR,,,,,,,,,,,,,,,,,,,,,,,,,,,,29.88,59,103,0,,,,24,29.81,FEW:02 80 FEW:02 160 FEW:02 210,28.7,10,73,260,16,11,,,,,,,,,,,,,,,,,,,,,,,,,,,,,,,,,,,,,MET13308/12/24 12:51:02 METAR KPHX 121951Z 26010G14KT 10SM FEW080 FEW160 FEW210 39/15 A2988 RMK AO2 SLP096 CB DSNT N-E AND S T03940150 (SH),FM-15,7,,,,,,,,,,,,,,,,,,,,,,,,,,,03-04-2007 00:00
72278023183,12-08-2024 13:51,FM-15,7,,N,0.5,mi,"TEMP, PRECIP",1107,,"MXMN, SRG",33.4442,-112.0247,CONTRACTOR,,,,,,,,,,,,,,,,,,,,,,,,,,,,29.85,59,102,0,,0.08,8,24,29.78,FEW:02 80 FEW:02 160 FEW:02 210,28.68,10,73,290,,5,,,,,,,,,,,,,,,,,,,,,,,,,,,,,,,,,,,,,MET13608/12/24 13:51:02 METAR KPHX 122051Z 29004KT 10SM FEW080 FEW160 FEW210 39/15 A2985 RMK AO2 SLP084 CB DSNT N-E AND S T03890150 58028 (SH),FM-15,7,,,,,,,,,,,,,,,,,,,,,,,,,,,03-04-2007 00:00
72278023183,12-08-2024 14:51,FM-15,7,,N,0.5,mi,"TEMP, PRECIP",1107,,"MXMN, SRG",33.4442,-112.0247,CONTRACTOR,,,,,,,,,,,,,,,,,,,,,,,,,,,,29.8,58,105,0,,,,21,29.73,FEW:02 80 FEW:02 160 FEW:02 250,28.63,10,74,VRB,,5,,,,,,,,,,,,,,,,,,,,,,,,,,,,,,,,,,,,,MET13208/12/24 14:51:02 METAR KPHX 122151Z VRB04KT 10SM FEW080 FEW160 FEW250 41/14 A2980 RMK AO2 SLP068 CB DSNT N-NE AND S T04060144 (ADH),FM-15,7,,,,,,,,,,,,,,,,,,,,,,,,,,,03-04-2007 00:00
72278023183,12-08-2024 15:51,FM-15,7,,N,0.5,mi,"TEMP, PRECIP",1107,,"MXMN, SRG",33.4442,-112.0247,CONTRACTOR,,,,,,,,,,,,,,,,,,,,,,,,,,,,29.77,57,106,0,,,,20,29.7,FEW:02 80 FEW:02 160 FEW:02 250,28.6,10,73,280,,9,,,,,,,,,,,,,,,,,,,,,,,,,,,,,,,,,,,,,MET12408/12/24 15:51:02 METAR KPHX 122251Z 28008KT 10SM FEW080 FEW160 FEW250 41/14 A2977 RMK AO2 SLP059 CB DSNT NE T04110139 (ADH),FM-15,7,,,,,,,,,,,,,,,,,,,,,,,,,,,03-04-2007 00:00
72278023183,12-08-2024 16:51,FM-15,7,,N,0.5,mi,"TEMP, PRECIP",1107,,"MXMN, SRG",33.4442,-112.0247,CONTRACTOR,,,,,,,,,,,,,,,,,,,,,,,,,,,,29.76,55,106,0,,0.09,6,19,29.69,FEW:02 80 FEW:02 160 SCT:04 250,28.59,10,72,270,18,11,,,,,,,,,,,,,,,,,,,,,,,,,,,,,,,,,,,,,MET15608/12/24 16:51:02 METAR KPHX 122351Z 27010G16KT 10SM FEW080 FEW160 SCT250 41/13 A2976 RMK AO2 SLP053 CB DSNT NE TCU DSNT S T04110128 10422 20367 56029 (ADH),FM-15,7,,,,,,,,,,,,,,,,,,,,,,,,,,,03-04-2007 00:00
72278023183,12-08-2024 17:00,FM-12,4,,N,0.5,mi,"TEMP, PRECIP",1107,,"MXMN, SRG",33.4442,-112.0247,CONTRACTOR,,,,,,,,,,,,,,,,,,,,,,,,,,,,,55,106,,,0.09,6,19,29.69,74,28.59,9.94,72,270,,11,,,,,,,,,,,,,,,,,,,,,,,,,,,,,,,,,,,,,SYN08672278 32866 42710 10411 20128 39682 40053 56029 92351 333 10422 20311 91016 555 91300=,FM-12,4,,,,,,,,,,,,,,,,,,,,,,,,,,,03-04-2007 00:00
72278023183,12-08-2024 17:51,FM-15,7,,N,0.5,mi,"TEMP, PRECIP",1107,,"MXMN, SRG",33.4442,-112.0247,CONTRACTOR,,,,,,,,,,,,,,,,,,,,,,,,,,,,29.74,54,106,0,,,,18,29.67,FEW:02 80 FEW:02 160 SCT:04 250,28.57,10,72,300,18,11,,,,,,,,,,,,,,,,,,,,,,,,,,,,,,,,,,,,,MET11008/12/24 17:51:01 METAR KPHX 130051Z 30010G16KT 10SM FEW080 FEW160 SCT250 41/12 A2974 RMK AO2 SLP049 T04110122,FM-15,7,,,,,,,,,,,,,,,,,,,,,,,,,,,03-04-2007 00:00
72278023183,12-08-2024 18:51,FM-15,7,,N,0.5,mi,"TEMP, PRECIP",1107,,"MXMN, SRG",33.4442,-112.0247,CONTRACTOR,,,,,,,,,,,,,,,,,,,,,,,,,,,,29.75,53,104,0,,,,18,29.68,FEW:02 80 FEW:02 160 SCT:04 250,28.58,10,71,280,,13,,,,,,,,,,,,,,,,,,,,,,,,,,,,,,,,,,,,,MET10708/12/24 18:51:02 METAR KPHX 130151Z 28011KT 10SM FEW080 FEW160 SCT250 40/12 A2975 RMK AO2 SLP051 T04000117,FM-15,7,,,,,,,,,,,,,,,,,,,,,,,,,,,03-04-2007 00:00
72278023183,12-08-2024 19:51,FM-15,7,,N,0.5,mi,"TEMP, PRECIP",1107,,"MXMN, SRG",33.4442,-112.0247,CONTRACTOR,,,,,,,,,,,,,,,,,,,,,,,,,,,,29.76,55,103,0,,-0.01,3,20,29.69,FEW:02 80 FEW:02 160 SCT:04 250,28.59,10,72,260,,10,,,,,,,,,,,,,,,,,,,,,,,,,,,,,,,,,,,,,MET11308/12/24 19:51:02 METAR KPHX 130251Z 26009KT 10SM FEW080 FEW160 SCT250 39/13 A2976 RMK AO2 SLP055 T03940128 53002,FM-15,7,,,,,,,,,,,,,,,,,,,,,,,,,,,03-04-2007 00:00
72278023183,12-08-2024 20:00,FM-12,4,,N,0.5,mi,"TEMP, PRECIP",1107,,"MXMN, SRG",33.4442,-112.0247,CONTRACTOR,,,,,,,,,,,,,,,,,,,,,,,,,,,,,55,103,,,-0.01,3,20,29.69,74,28.59,9.94,72,260,,10,,,,,,,,,,,,,,,,,,,,,,,,,,,,,,,,,,,,,SYN06472278 32866 42609 10394 20128 39682 40055 53002 90251 555 91303=,FM-12,4,,,,,,,,,,,,,,,,,,,,,,,,,,,03-04-2007 00:00
72278023183,12-08-2024 20:51,FM-15,7,,N,0.5,mi,"TEMP, PRECIP",1107,,"MXMN, SRG",33.4442,-112.0247,CONTRACTOR,,,,,,,,,,,,,,,,,,,,,,,,,,,,29.78,55,102,0,,,,21,29.71,FEW:02 150 FEW:02 250,28.61,10,71,280,,11,,,,,,,,,,,,,,,,,,,,,,,,,,,,,,,,,,,,,MET10008/12/24 20:51:02 METAR KPHX 130351Z 28010KT 10SM FEW150 FEW250 39/13 A2978 RMK AO2 SLP061 T03890128,FM-15,7,,,,,,,,,,,,,,,,,,,,,,,,,,,03-04-2007 00:00
72278023183,12-08-2024 21:51,FM-15,7,,N,0.5,mi,"TEMP, PRECIP",1107,,"MXMN, SRG",33.4442,-112.0247,CONTRACTOR,,,,,,,,,,,,,,,,,,,,,,,,,,,,29.79,55,100,0,,,,22,29.72,FEW:02 150,28.62,10,71,250,,7,,,,,,,,,,,,,,,,,,,,,,,,,,,,,,,,,,,,,MET09308/12/24 21:51:02 METAR KPHX 130451Z 25006KT 10SM FEW150 38/13 A2979 RMK AO2 SLP065 T03780128,FM-15,7,,,,,,,,,,,,,,,,,,,,,,,,,,,03-04-2007 00:00
72278023183,12-08-2024 22:51,FM-15,7,,N,0.5,mi,"TEMP, PRECIP",1107,,"MXMN, SRG",33.4442,-112.0247,CONTRACTOR,,,,,,,,,,,,,,,,,,,,,,,,,,,,29.79,56,99,0,,-0.03,1,24,29.72,FEW:02 150,28.62,10,71,270,,6,,,,,,,,,,,,,,,,,,,,,,,,,,,,,,,,,,,,,MET11108/12/24 22:51:02 METAR KPHX 130551Z 27005KT 10SM FEW150 37/13 A2979 RMK AO2 SLP065 T03720133 10411 20367 51010,FM-15,7,,,,,,,,,,,,,,,,,,,,,,,,,,,03-04-2007 00:00
72278023183,12-08-2024 23:00,FM-12,4,,N,0.5,mi,"TEMP, PRECIP",1107,,"MXMN, SRG",33.4442,-112.0247,CONTRACTOR,,,,,,,,,,,,,,,,,,,,,,,,,,,,,56,99,,,-0.03,1,24,29.72,,28.62,9.94,71,270,,6,,,,,,,,,,,,,,,,,,,,,,,,,,,,,,,,,,,,,SYN08072278 32966 22705 10372 20133 39692 40065 51010 90551 333 10411 20311 555 91306=,FM-12,4,,,,,,,,,,,,,,,,,,,,,,,,,,,03-04-2007 00:00
72278023183,12-08-2024 23:51,FM-15,7,,N,0.5,mi,"TEMP, PRECIP",1107,,"MXMN, SRG",33.4442,-112.0247,CONTRACTOR,,,,,,,,,,,,,,,,,,,,,,,,,,,,29.81,56,97,0,,,,25,29.73,FEW:02 150,28.64,10,70,250,,7,,,,,,,,,,,,,,,,,,,,,,,,,,,,,,,,,,,,,MET10308/12/24 23:51:01 METAR KPHX 130651Z 25006KT 10SM FEW150 36/13 A2981 RMK AO2 SLP069 T03610133 404220311,FM-15,7,,,,,,,,,,,,,,,,,,,,,,,,,,,03-04-2007 00:00
72278023183,12-08-2024 23:59,SOD  ,6,,N,0.5,mi,"TEMP, PRECIP",1107,,"MXMN, SRG",33.4442,-112.0247,CONTRACTOR,,,,,,59,98,28,29.79,28.66,72,7,33,4.2,0,108,88,320,28,0,,,270,16,,,,,,,,,,,,,,,,,,,,,,,,,,,,,,,,,,,,,,,,,,,,,,,,,,,,,,,,SOD75624 HR PRECIPITATION (IN): 0.00 SNOW DEPTH (IN):0     24 HR SNOWFALL (IN):0.0  WEATHER(CODE):8  24 HR MAX TEMP (F):10824 HR MIN TEMP (F): 88AVERAGE STATION PRESSURE:28.660 MINIMUM SEA LEVEL PRESSURE:29.67 TIME OF OCCURRENCE:1811 PEAK WIND SPEED (MPH): 28 PEAK WIND DIR (DEG):320 PEAK WIND TIME (LST):      FASTEST 2MIN SPEED (MPH): 16FASTEST 2MIN DIR (DEG):270 FASTEST 2MIN TIME (LST):     AVERAGE WIND SPEED (MPH): 7.0 24 HR AVG TEMP (F): 98DEPART FROM NORMAL:  3  HEATING DEGREE DAYS:  0 COOLING DEGREE DAYS: 33 LATEST DAY MAX TEMP (0700-1900 LST):108 LATEST NIGHT MIN TEMP(1900-0800 LST):88 HOURLY INCREMENTAL PRECIPITATION VALUES (IN):.00 0.00 0.00 0.00 0.00 0.00 0.00 0.00 0.00 0.00 0.00 0.00 0.00 0.00 0.00 0.00 0.00 0.00 0.00 0.00 0.00 0.00 0.00 0.00,SOD  ,6,,,,,,,,,,,,,,,,,,,,,,,,,549,1916,03-04-2007 00:00
72278023183,13-08-2024 00:51,FM-15,7,,N,0.5,mi,"TEMP, PRECIP",1107,,"MXMN, SRG",33.4442,-112.0247,CONTRACTOR,,,,,,,,,,,,,,,,,,,,,,,,,,,,29.81,58,95,0,,,,29,29.74,FEW:02 130 FEW:02 150,28.64,10,71,250,,6,,,,,,,,,,,,,,,,,,,,,,,,,,,,,,,,,,,,,MET13608/13/24 00:51:02 METAR KPHX 130751Z 25005KT 10SM FEW130 FEW150 35/14 A2981 RMK AO2 SLP071 OCNL LTGIC DSNT NE CB DSNT NE T03500144 (GEH),FM-15,7,,,,,,,,,,,,,,,,,,,,,,,,,,,03-04-2007 00:00
72278023183,13-08-2024 01:51,FM-15,7,,N,0.5,mi,"TEMP, PRECIP",1107,,"MXMN, SRG",33.4442,-112.0247,CONTRACTOR,,,,,,,,,,,,,,,,,,,,,,,,,,,,29.81,58,95,0,,-0.01,0,29,29.74,FEW:02 140,28.64,10,71,270,,6,,,,,,,,,,,,,,,,,,,,,,,,,,,,,,,,,,,,,MET13208/13/24 01:51:02 METAR KPHX 130851Z 27005KT 10SM FEW140 35/14 A2981 RMK AO2 SLP070 FRQ LTGIC DSNT E CB DSNT E T03500144 50005 (GEH),FM-15,7,,,,,,,,,,,,,,,,,,,,,,,,,,,03-04-2007 00:00
72278023183,13-08-2024 02:00,FM-12,4,,N,0.5,mi,"TEMP, PRECIP",1107,,"MXMN, SRG",33.4442,-112.0247,CONTRACTOR,,,,,,,,,,,,,,,,,,,,,,,,,,,,,58,95,,,0.01,9,29,29.74,,28.64,9.94,71,270,,6,,,,,,,,,,,,,,,,,,,,,,,,,,,,,,,,,,,,,SYN06472278 32966 22705 10350 20144 39698 40070 50005 90851 555 91309=,FM-12,4,,,,,,,,,,,,,,,,,,,,,,,,,,,03-04-2007 00:00
72278023183,13-08-2024 02:51,FM-15,7,,N,0.5,mi,"TEMP, PRECIP",1107,,"MXMN, SRG",33.4442,-112.0247,CONTRACTOR,,,,,,,,,,,,,,,,,,,,,,,,,,,,29.81,58,95,0,,,,29,29.74,FEW:02 110 FEW:02 150,28.64,10,71,270,,7,,,,,,,,,,,,,,,,,,,,,,,,,,,,,,,,,,,,,MET10608/13/24 02:51:02 METAR KPHX 130951Z 27006KT 10SM FEW110 FEW150 35/14 A2981 RMK AO2 SLP071 T03500144 (GEH),FM-15,7,,,,,,,,,,,,,,,,,,,,,,,,,,,03-04-2007 00:00
72278023183,13-08-2024 03:51,FM-15,7,,N,0.5,mi,"TEMP, PRECIP",1107,,"MXMN, SRG",33.4442,-112.0247,CONTRACTOR,,,,,,,,,,,,,,,,,,,,,,,,,,,,29.82,58,93,0,,,,31,29.75,FEW:02 130 SCT:04 150,28.65,10,70,120,,3,,,,,,,,,,,,,,,,,,,,,,,,,,,,,,,,,,,,,MET10608/13/24 03:51:02 METAR KPHX 131051Z 12003KT 10SM FEW130 SCT150 34/14 A2982 RMK AO2 SLP076 T03390144 (GEH),FM-15,7,,,,,,,,,,,,,,,,,,,,,,,,,,,03-04-2007 00:00
72278023183,13-08-2024 04:51,FM-15,7,,N,0.5,mi,"TEMP, PRECIP",1107,,"MXMN, SRG",33.4442,-112.0247,CONTRACTOR,,,,,,,,,,,,,,,,,,,,,,,,,,,,29.84,61,91,0,,-0.03,3,37,29.77,SCT:04 100 SCT:04 130 SCT:04 150,28.66,10,71,90,,8,,,,,,,,,,,,,,,,,,,,,,,,,,,,,,,,,,,,,MET13108/13/24 04:51:02 METAR KPHX 131151Z 09007KT 10SM SCT100 SCT130 SCT150 33/16 A2984 RMK AO2 SLP080 T03280161 10372 20328 53010 (GEH),FM-15,7,,,,,,,,,,,,,,,,,,,,,,,,,,,03-04-2007 00:00
72278023183,13-08-2024 05:00,FM-12,4,,N,0.5,mi,"TEMP, PRECIP",1107,,"MXMN, SRG",33.4442,-112.0247,CONTRACTOR,,,,,,,,,,,,,,,,,,,,,,,,,,,,,61,91,,,-0.03,3,37,29.77,,28.67,9.94,71,90,,8,,,,,,,,,,,,,,,,,,,,,,,,,,,,,,,,,,,,,SYN08072278 32966 40907 10328 20161 39708 40080 53010 91151 333 10422 20328 555 91312=,FM-12,4,,,,,,,,,,,,,,,,,,,,,,,,,,,03-04-2007 00:00
72278023183,13-08-2024 05:51,FM-15,7,,N,0.5,mi,"TEMP, PRECIP",1107,,"MXMN, SRG",33.4442,-112.0247,CONTRACTOR,,,,,,,,,,,,,,,,,,,,,,,,,,,,29.86,62,91,0,,,,38,29.79,BKN:07 110 BKN:07 130 BKN:07 150,28.69,10,72,110,,8,,,,,,,,,,,,,,,,,,,,,,,,,,,,,,,,,,,,,MET11308/13/24 05:51:02 METAR KPHX 131251Z 11007KT 10SM BKN110 BKN130 BKN150 33/17 A2986 RMK AO2 SLP088 T03280167 (GEH),FM-15,7,,,,,,,,,,,,,,,,,,,,,,,,,,,03-04-2007 00:00
72278023183,13-08-2024 06:51,FM-15,7,,N,0.5,mi,"TEMP, PRECIP",1107,,"MXMN, SRG",33.4442,-112.0247,CONTRACTOR,,,,,,,,,,,,,,,,,,,,,,,,,,,,29.88,63,90,T,,,,41,29.81,FEW:02 35 SCT:04 60 SCT:04 95,28.7,10,72,140,,8,,,,,,,,,,,,,,,,,,,,,,,,,,,,,,,,,,,,,MET13708/13/24 06:51:02 METAR KPHX 131351Z 14007KT 10SM FEW035 SCT060 SCT095 32/17 A2988 RMK AO2 RAB29E42 SLP094 CB DSNT S P0000 T03220172 (SH),FM-15,7,,,,,,,,,,,,,,,,,,,,,,,,,,,03-04-2007 00:00
72278023183,13-08-2024 07:51,FM-15,7,,N,0.5,mi,"TEMP, PRECIP",1107,,"MXMN, SRG",33.4442,-112.0247,CONTRACTOR,,,,,,,,,,,,,,,,,,,,,,,,,,,,29.89,62,93,0,,-0.05,1,36,29.82,FEW:02 30 FEW:02 60 SCT:04 95,28.71,10,72,140,,9,,,,,,,,,,,,,,,,,,,,,,,,,,,,,,,,,,,,,MET12408/13/24 07:51:02 METAR KPHX 131451Z 14008KT 10SM FEW030 FEW060 SCT095 34/17 A2989 RMK AO2 SLP099 60000 T03390167 51017 (SH),FM-15,7,,,,,,,,,,,,,,,,,,,,,,,,,,,03-04-2007 00:00
72278023183,13-08-2024 08:00,FM-12,4,,N,0.5,mi,"TEMP, PRECIP",1107,,"MXMN, SRG",33.4442,-112.0247,CONTRACTOR,,,,,,,,,,,,,,,,,,,,,,,,,,,,,62,93,,,-0.05,1,36,29.82,26,28.72,9.94,72,140,,9,,,,,,,,,,,,,,,,,,,,,,,,,,,,,,,,,,,,,SYN07072278 12566 61408 10339 20167 39725 40099 51017 69907 91451 555 91315=,FM-12,4,,,,,,,,,,,,,,,,,,,,,,,,,,,03-04-2007 00:00
72278023183,13-08-2024 08:16,FM-16,7,,N,0.5,mi,"TEMP, PRECIP",1107,,"MXMN, SRG",33.4442,-112.0247,CONTRACTOR,,,,,,,,,,,,,,,,,,,,,,,,,,,,29.89,63,92,,,,,38,,FEW:02 30 FEW:02 60 SCT:04 95,28.71,10,73,150,,6,,,,,,,,,,,,,,,,,,,,,,,,,,,,,,,,,,,,,MET10508/13/24 08:16:02 SPECI KPHX 131516Z 15005KT 10SM FEW030 FEW060 SCT095 33/17 A2989 RMK AO2 T03330172 (SH),FM-16,7,,,,,,,,,,,,,,,,,,,,,,,,,,,03-04-2007 00:00
72278023183,13-08-2024 08:51,FM-15,7,,N,0.5,mi,"TEMP, PRECIP",1107,,"MXMN, SRG",33.4442,-112.0247,CONTRACTOR,,,,,,,,,,,,,,,,,,,,,,,,,,,,29.89,62,95,0,,,,34,29.82,FEW:02 60 FEW:02 95 FEW:02 130,28.71,10,73,140,,10,,,,,,,,,,,,,,,,,,,,,,,,,,,,,,,,,,,,,MET12208/13/24 08:51:02 METAR KPHX 131551Z 14009KT 10SM FEW060 FEW095 FEW130 35/17 A2989 RMK AO2 SLP098 CB DSNT S T03500167 (SH),FM-15,7,,,,,,,,,,,,,,,,,,,,,,,,,,,03-04-2007 00:00
72278023183,13-08-2024 09:51,FM-15,7,,N,0.5,mi,"TEMP, PRECIP",1107,,"MXMN, SRG",33.4442,-112.0247,CONTRACTOR,,,,,,,,,,,,,,,,,,,,,,,,,,,,29.9,63,96,0,,,,34,29.83,FEW:02 60 FEW:02 95 FEW:02 130,28.72,10,74,110,,7,,,,,,,,,,,,,,,,,,,,,,,,,,,,,,,,,,,,,MET11708/13/24 09:51:02 METAR KPHX 131651Z 11006KT 10SM FEW060 FEW095 FEW130 36/17 A2990 RMK AO2 SLP102 CB DSNT S T03560172,FM-15,7,,,,,,,,,,,,,,,,,,,,,,,,,,,03-04-2007 00:00
72278023183,13-08-2024 10:51,FM-15,7,,N,0.5,mi,"TEMP, PRECIP",1107,,"MXMN, SRG",33.4442,-112.0247,CONTRACTOR,,,,,,,,,,,,,,,,,,,,,,,,,,,,29.9,60,100,0,,-0.01,3,27,29.83,SCT:04 90 SCT:04 130 BKN:07 200,28.72,10,73,220,,7,,,,,,,,,,,,,,,,,,,,,,,,,,,,,,,,,,,,,MET14108/13/24 10:51:02 METAR KPHX 131751Z 22006KT 10SM SCT090 SCT130 BKN200 38/16 A2990 RMK AO2 SLP102 SHRA W-NW 60000 T03780156 10378 20317 53003,FM-15,7,,,,,,,,,,,,,,,,,,,,,,,,,,,03-04-2007 00:00
72278023183,13-08-2024 11:00,FM-12,4,,N,0.5,mi,"TEMP, PRECIP",1107,,"MXMN, SRG",33.4442,-112.0247,CONTRACTOR,,,,,,,,,,,,,,,,,,,,,,,,,,,,,60,100,,,-0.01,3,27,29.83,,28.73,9.94,73,220,,7,,,,,,,,,,,,,,,,,,,,,,,,,,,,,,,,,,,,,SYN08672278 12966 62206 10378 20156 39728 40102 53003 69901 91751 333 10378 20317 555 91318=,FM-12,4,,,,,,,,,,,,,,,,,,,,,,,,,,,03-04-2007 00:00
72278023183,13-08-2024 11:14,FM-16,7,,N,0.5,mi,"TEMP, PRECIP",1107,,"MXMN, SRG",33.4442,-112.0247,CONTRACTOR,,,,,,,,,,,,,,,,,,,,,,,,,,,,29.89,59,100,,|TS |,,,26,,SCT:04 95 SCT:04 130,28.71,10,73,260,,7,,,,,,,,,,,,,,,,,,,,,,,,,,,,,,,,,,,,,MET14608/13/24 11:14:02 SPECI KPHX 131814Z 26006KT 10SM TS SCT095CB SCT130 BKN2 38/15 A2989 RMK AO2 TSE09B14 OCNL LTGCG NW-N TS VC NW-N MOV NE T03780150,FM-16,7,,,,,,,,,,,,,,,,,,,,,,,,,,,03-04-2007 00:00
72278023183,13-08-2024 11:17,FM-16,7,,N,0.5,mi,"TEMP, PRECIP",1107,,"MXMN, SRG",33.4442,-112.0247,CONTRACTOR,,,,,,,,,,,,,,,,,,,,,,,,,,,,29.89,59,99,,|TS |,,,27,,SCT:04 95 SCT:04 130,28.71,10,72,260,,7,,,,,,,,,,,,,,,,,,,,,,,,,,,,,,,,,,,,,MET14908/13/24 11:17:02 SPECI KPHX 131817Z 26006KT 10SM TS SCT095CB SCT130 BKN2 37/15 A2989 RMK AO2 TSE09B14 OCNL LTGCG VC NW-N TS VC NW-N MOV NE T03720150,FM-16,7,,,,,,,,,,,,,,,,,,,,,,,,,,,03-04-2007 00:00
72278023183,13-08-2024 11:35,FM-16,7,,N,0.5,mi,"TEMP, PRECIP",1107,,"MXMN, SRG",33.4442,-112.0247,CONTRACTOR,,,,,,,,,,,,,,,,,,,,,,,,,,,,29.89,59,99,,,,,27,,SCT:04 95 SCT:04 130 BKN:07 200,28.71,10,72,0,,0,,,,,,,,,,,,,,,,,,,,,,,,,,,,,,,,,,,,,MET12208/13/24 11:35:02 SPECI KPHX 131835Z 00000KT 10SM SCT095 SCT130 BKN200 37/15 A2989 RMK AO2 TSE09B14E35 CB DSNT N T03720150,FM-16,7,,,,,,,,,,,,,,,,,,,,,,,,,,,03-04-2007 00:00
72278023183,13-08-2024 11:51,FM-15,7,,N,0.5,mi,"TEMP, PRECIP",1107,,"MXMN, SRG",33.4442,-112.0247,CONTRACTOR,,,,,,,,,,,,,,,,,,,,,,,,,,,,29.88,63,98,0,,,,32,29.81,SCT:04 95 SCT:04 130 BKN:07 200,28.7,10,74,330,,9,,,,,,,,,,,,,,,,,,,,,,,,,,,,,,,,,,,,,MET14108/13/24 11:51:02 METAR KPHX 131851Z 33008KT 10SM SCT095 SCT130 BKN200 37/17 A2988 RMK AO2 TSE09B14E35 SLP096 CB DSNT N NE E AND SE T03670172,FM-15,7,,,,,,,,,,,,,,,,,,,,,,,,,,,03-04-2007 00:00
72278023183,13-08-2024 12:51,FM-15,7,,N,0.5,mi,"TEMP, PRECIP",1107,,"MXMN, SRG",33.4442,-112.0247,CONTRACTOR,,,,,,,,,,,,,,,,,,,,,,,,,,,,29.86,59,102,0,,,,24,29.79,SCT:04 95 SCT:04 130 BKN:07 200,28.69,10,73,0,,0,,,,,,,,,,,,,,,,,,,,,,,,,,,,,,,,,,,,,MET12208/13/24 12:51:02 METAR KPHX 131951Z 00000KT 10SM SCT095 SCT130 BKN200 39/15 A2986 RMK AO2 SLP087 CB DSNT N-E-SE T03890150,FM-15,7,,,,,,,,,,,,,,,,,,,,,,,,,,,03-04-2007 00:00
72278023183,13-08-2024 13:51,FM-15,7,,N,0.5,mi,"TEMP, PRECIP",1107,,"MXMN, SRG",33.4442,-112.0247,CONTRACTOR,,,,,,,,,,,,,,,,,,,,,,,,,,,,29.83,58,106,0,,0.07,8,21,29.76,FEW:02 95 FEW:02 130 SCT:04 200,28.66,10,74,VRB,,5,,,,,,,,,,,,,,,,,,,,,,,,,,,,,,,,,,,,,MET13308/13/24 13:51:02 METAR KPHX 132051Z VRB04KT 10SM FEW095 FEW130 SCT200 41/14 A2983 RMK AO2 SLP077 CB DSNT N AND NE-SE T04110144 58024,FM-15,7,,,,,,,,,,,,,,,,,,,,,,,,,,,03-04-2007 00:00
72278023183,13-08-2024 14:00,FM-12,4,,N,0.5,mi,"TEMP, PRECIP",1107,,"MXMN, SRG",33.4442,-112.0247,CONTRACTOR,,,,,,,,,,,,,,,,,,,,,,,,,,,,,58,106,,,0.07,8,21,29.76,,28.66,9.94,74,,,5,,,,,,,,,,,,,,,,,,,,,,,,,,,,,,,,,,,,,SYN06472278 32966 4//04 10411 20144 39705 40077 58024 92051 555 91321=,FM-12,4,,,,,,,,,,,,,,,,,,,,,,,,,,,03-04-2007 00:00
72278023183,13-08-2024 14:51,FM-15,7,,N,0.5,mi,"TEMP, PRECIP",1107,,"MXMN, SRG",33.4442,-112.0247,CONTRACTOR,,,,,,,,,,,,,,,,,,,,,,,,,,,,29.81,58,106,0,,,,21,29.74,FEW:02 95 SCT:04 130 SCT:04 200,28.64,10,74,VRB,,8,,,,,,,,,,,,,,,,,,,,,,,,,,,,,,,,,,,,,MET12608/13/24 14:51:02 METAR KPHX 132151Z 27007KT 10SM FEW095 SCT130 SCT200 41/14 A2981 RMK AO2 SLP070 CB DSNT N AND E-SE T04110144,FM-15,7,,,,,,,,,,,,,,,,,,,,,,,,,,,03-04-2007 00:00
72278023183,13-08-2024 15:51,FM-15,7,,N,0.5,mi,"TEMP, PRECIP",1107,,"MXMN, SRG",33.4442,-112.0247,CONTRACTOR,,,,,,,,,,,,,,,,,,,,,,,,,,,,29.78,55,106,0,,,,19,29.71,FEW:02 95 SCT:04 130 SCT:04 200,28.61,10,72,VRB,,6,,,,,,,,,,,,,,,,,,,,,,,,,,,,,,,,,,,,,MET12408/13/24 15:51:02 METAR KPHX 132251Z VRB05KT 10SM FEW095 SCT130 SCT200 41/13 A2978 RMK AO2 SLP061 CB DSNT N AND SE T04110128,FM-15,7,,,,,,,,,,,,,,,,,,,,,,,,,,,03-04-2007 00:00
72278023183,13-08-2024 16:51,FM-15,7,,N,0.5,mi,"TEMP, PRECIP",1107,,"MXMN, SRG",33.4442,-112.0247,CONTRACTOR,,,,,,,,,,,,,,,,,,,,,,,,,,,,29.77,53,108,0,,0.06,6,16,29.7,FEW:02 90 SCT:04 140 SCT:04 200,28.6,10,72,260,21,11,,,,,,,,,,,,,,,,,,,,,,,,,,,,,,,,,,,,,MET12808/13/24 16:51:02 METAR KPHX 132351Z 26010G18KT 10SM FEW090 SCT140 SCT200 42/12 A2977 RMK AO2 SLP057 T04220117 10428 20361 56020,FM-15,7,,,,,,,,,,,,,,,,,,,,,,,,,,,03-04-2007 00:00
72278023183,13-08-2024 17:00,FM-12,4,,N,0.5,mi,"TEMP, PRECIP",1107,,"MXMN, SRG",33.4442,-112.0247,CONTRACTOR,,,,,,,,,,,,,,,,,,,,,,,,,,,,,53,108,,,0.06,6,16,29.7,,28.6,9.94,72,260,,11,,,,,,,,,,,,,,,,,,,,,,,,,,,,,,,,,,,,,SYN08672278 32966 42610 10422 20117 39685 40057 56020 92351 333 10428 20328 91018 555 91400=,FM-12,4,,,,,,,,,,,,,,,,,,,,,,,,,,,03-04-2007 00:00
72278023183,13-08-2024 17:51,FM-15,7,,N,0.5,mi,"TEMP, PRECIP",1107,,"MXMN, SRG",33.4442,-112.0247,CONTRACTOR,,,,,,,,,,,,,,,,,,,,,,,,,,,,29.76,54,106,0,,,,18,29.69,FEW:02 90 FEW:02 140 SCT:04 250,28.59,10,72,280,16,9,,,,,,,,,,,,,,,,,,,,,,,,,,,,,,,,,,,,,MET11008/13/24 17:51:01 METAR KPHX 140051Z 28008G14KT 10SM FEW090 FEW140 SCT250 41/12 A2976 RMK AO2 SLP054 T04110122,FM-15,7,,,,,,,,,,,,,,,,,,,,,,,,,,,03-04-2007 00:00
72278023183,13-08-2024 18:51,FM-15,7,,N,0.5,mi,"TEMP, PRECIP",1107,,"MXMN, SRG",33.4442,-112.0247,CONTRACTOR,,,,,,,,,,,,,,,,,,,,,,,,,,,,29.76,55,105,0,,,,19,29.7,FEW:02 90 FEW:02 140 FEW:02 250,28.59,10,72,260,,9,,,,,,,,,,,,,,,,,,,,,,,,,,,,,,,,,,,,,MET10708/13/24 18:51:01 METAR KPHX 140151Z 26008KT 10SM FEW090 FEW140 FEW250 41/13 A2976 RMK AO2 SLP056 T04060128,FM-15,7,,,,,,,,,,,,,,,,,,,,,,,,,,,03-04-2007 00:00
72278023183,13-08-2024 19:51,FM-15,7,,N,0.5,mi,"TEMP, PRECIP",1107,,"MXMN, SRG",33.4442,-112.0247,CONTRACTOR,,,,,,,,,,,,,,,,,,,,,,,,,,,,29.77,56,104,0,,-0.01,3,20,29.7,FEW:02 90 FEW:02 140 FEW:02 250,28.6,10,72,VRB,,11,,,,,,,,,,,,,,,,,,,,,,,,,,,,,,,,,,,,,MET11308/13/24 19:51:01 METAR KPHX 140251Z 28010KT 10SM FEW090 FEW140 FEW250 40/13 A2977 RMK AO2 SLP059 T04000133 53002,FM-15,7,,,,,,,,,,,,,,,,,,,,,,,,,,,03-04-2007 00:00
72278023183,13-08-2024 20:00,FM-12,4,,N,0.5,mi,"TEMP, PRECIP",1107,,"MXMN, SRG",33.4442,-112.0247,CONTRACTOR,,,,,,,,,,,,,,,,,,,,,,,,,,,,,56,104,,,-0.01,3,20,29.7,,28.6,9.94,72,280,,11,,,,,,,,,,,,,,,,,,,,,,,,,,,,,,,,,,,,,SYN06472278 32966 22810 10400 20133 39685 40059 53002 90251 555 91403=,FM-12,4,,,,,,,,,,,,,,,,,,,,,,,,,,,03-04-2007 00:00
72278023183,13-08-2024 20:51,FM-15,7,,N,0.5,mi,"TEMP, PRECIP",1107,,"MXMN, SRG",33.4442,-112.0247,CONTRACTOR,,,,,,,,,,,,,,,,,,,,,,,,,,,,29.8,56,102,0,,,,22,29.72,FEW:02 140,28.63,10,72,260,,8,,,,,,,,,,,,,,,,,,,,,,,,,,,,,,,,,,,,,MET09308/13/24 20:51:01 METAR KPHX 140351Z 26007KT 10SM FEW140 39/13 A2980 RMK AO2 SLP066 T03890133,FM-15,7,,,,,,,,,,,,,,,,,,,,,,,,,,,03-04-2007 00:00
72278023183,13-08-2024 21:51,FM-15,7,,N,0.5,mi,"TEMP, PRECIP",1107,,"MXMN, SRG",33.4442,-112.0247,CONTRACTOR,,,,,,,,,,,,,,,,,,,,,,,,,,,,29.81,56,100,0,,,,23,29.74,FEW:02 140,28.64,10,71,240,,5,,,,,,,,,,,,,,,,,,,,,,,,,,,,,,,,,,,,,MET09308/13/24 21:51:01 METAR KPHX 140451Z 24004KT 10SM FEW140 38/13 A2981 RMK AO2 SLP072 T03780133,FM-15,7,,,,,,,,,,,,,,,,,,,,,,,,,,,03-04-2007 00:00
72278023183,13-08-2024 22:51,FM-15,7,,N,0.5,mi,"TEMP, PRECIP",1107,,"MXMN, SRG",33.4442,-112.0247,CONTRACTOR,,,,,,,,,,,,,,,,,,,,,,,,,,,,29.82,56,99,0,,-0.04,1,24,29.75,FEW:02 140,28.65,10,71,240,,5,,,,,,,,,,,,,,,,,,,,,,,,,,,,,,,,,,,,,MET11108/13/24 22:51:01 METAR KPHX 140551Z 24004KT 10SM FEW140 37/13 A2982 RMK AO2 SLP073 T03720133 10422 20372 51014,FM-15,7,,,,,,,,,,,,,,,,,,,,,,,,,,,03-04-2007 00:00
72278023183,13-08-2024 23:00,FM-12,4,,N,0.5,mi,"TEMP, PRECIP",1107,,"MXMN, SRG",33.4442,-112.0247,CONTRACTOR,,,,,,,,,,,,,,,,,,,,,,,,,,,,,56,99,,,-0.04,1,24,29.75,,28.65,9.94,71,240,,5,,,,,,,,,,,,,,,,,,,,,,,,,,,,,,,,,,,,,SYN08072278 32966 22404 10372 20133 39702 40073 51014 90551 333 10422 20328 555 91406=,FM-12,4,,,,,,,,,,,,,,,,,,,,,,,,,,,03-04-2007 00:00
72278023183,13-08-2024 23:51,FM-15,7,,N,0.5,mi,"TEMP, PRECIP",1107,,"MXMN, SRG",33.4442,-112.0247,CONTRACTOR,,,,,,,,,,,,,,,,,,,,,,,,,,,,29.83,59,98,0,,,,27,29.76,FEW:02 140,28.66,10,72,260,,11,,,,,,,,,,,,,,,,,,,,,,,,,,,,,,,,,,,,,MET10308/13/24 23:51:01 METAR KPHX 140651Z 26010KT 10SM FEW140 37/15 A2983 RMK AO2 SLP077 T03670150 404280317,FM-15,7,,,,,,,,,,,,,,,,,,,,,,,,,,,03-04-2007 00:00
72278023183,13-08-2024 23:59,SOD  ,6,,N,0.5,mi,"TEMP, PRECIP",1107,,"MXMN, SRG",33.4442,-112.0247,CONTRACTOR,,,,,,58,99,27,29.76,28.66,72,7.4,34,5.2,0,109,89,340,26,T,,,260,17,TS,,,,,,,,,,,,,,,,,,,,,,,,,,,,,,,,,,,,,,,,,,,,,,,,,,,,,,,SOD76024 HR PRECIPITATION (IN):    T SNOW DEPTH (IN):0     24 HR SNOWFALL (IN):0.0  WEATHER(CODE):3  24 HR MAX TEMP (F):10924 HR MIN TEMP (F): 89AVERAGE STATION PRESSURE(D):28.664 MINIMUM SEA LEVEL PRESSURE:29.69 TIME OF OCCURRENCE:1853 PEAK WIND SPEED (MPH): 26 PEAK WIND DIR (DEG):340 PEAK WIND TIME (LST):      FASTEST 2MIN SPEED (MPH): 17FASTEST 2MIN DIR (DEG):260 FASTEST 2MIN TIME (LST):     AVERAGE WIND SPEED (MPH): 7.4 24 HR AVG TEMP (F): 99DEPART FROM NORMAL:  4  HEATING DEGREE DAYS:  0 COOLING DEGREE DAYS: 34 LATEST DAY MAX TEMP (0700-1900 LST):109 LATEST NIGHT MIN TEMP(1900-0800 LST):89 HOURLY INCREMENTAL PRECIPITATION VALUES (IN):0.00 0.00 0.00 0.00 0.00 0.00T     0.00 0.00 0.00 0.00 0.00 0.00 0.00 0.00 0.00 0.00 0.00 0.00 0.00 0.00 0.00 0.00 0.00,SOD  ,6,,,,,,,,,,,,,,,,,,,,,,,,,550,1915,03-04-2007 00:00
72278023183,14-08-2024 00:51,FM-15,7,,N,0.5,mi,"TEMP, PRECIP",1107,,"MXMN, SRG",33.4442,-112.0247,CONTRACTOR,,,,,,,,,,,,,,,,,,,,,,,,,,,,29.83,58,97,0,,,,27,29.76,FEW:02 140,28.66,10,71,270,,10,,,,,,,,,,,,,,,,,,,,,,,,,,,,,,,,,,,,,MET09308/14/24 00:51:01 METAR KPHX 140751Z 27009KT 10SM FEW140 36/14 A2983 RMK AO2 SLP077 T03610144,FM-15,7,,,,,,,,,,,,,,,,,,,,,,,,,,,03-04-2007 00:00
72278023183,14-08-2024 01:51,FM-15,7,,N,0.5,mi,"TEMP, PRECIP",1107,,"MXMN, SRG",33.4442,-112.0247,CONTRACTOR,,,,,,,,,,,,,,,,,,,,,,,,,,,,29.83,58,96,0,,-0.02,1,28,29.76,FEW:02 140,28.66,10,71,280,,10,,,,,,,,,,,,,,,,,,,,,,,,,,,,,,,,,,,,,MET09908/14/24 01:51:01 METAR KPHX 140851Z 28009KT 10SM FEW140 36/14 A2983 RMK AO2 SLP079 T03560144 51006,FM-15,7,,,,,,,,,,,,,,,,,,,,,,,,,,,03-04-2007 00:00
72278023183,14-08-2024 02:00,FM-12,4,,N,0.5,mi,"TEMP, PRECIP",1107,,"MXMN, SRG",33.4442,-112.0247,CONTRACTOR,,,,,,,,,,,,,,,,,,,,,,,,,,,,,58,96,,,-0.02,1,28,29.76,,28.66,9.94,71,280,,10,,,,,,,,,,,,,,,,,,,,,,,,,,,,,,,,,,,,,SYN06472278 32966 22809 10356 20144 39705 40079 51006 90851 555 91409=,FM-12,4,,,,,,,,,,,,,,,,,,,,,,,,,,,03-04-2007 00:00
72278023183,14-08-2024 02:51,FM-15,7,,N,0.5,mi,"TEMP, PRECIP",1107,,"MXMN, SRG",33.4442,-112.0247,CONTRACTOR,,,,,,,,,,,,,,,,,,,,,,,,,,,,29.85,57,95,0,,,,28,29.78,SCT:04 110 BKN:07 140,28.68,10,70,270,,15,,,,,,,,,,,,,,,,,,,,,,,,,,,,,,,,,,,,,MET10008/14/24 02:51:01 METAR KPHX 140951Z 27013KT 10SM SCT110 BKN140 35/14 A2985 RMK AO2 SLP084 T03500139,FM-15,7,,,,,,,,,,,,,,,,,,,,,,,,,,,03-04-2007 00:00
72278023183,14-08-2024 03:51,FM-15,7,,N,0.5,mi,"TEMP, PRECIP",1107,,"MXMN, SRG",33.4442,-112.0247,CONTRACTOR,,,,,,,,,,,,,,,,,,,,,,,,,,,,29.86,58,94,0,,,,30,29.79,SCT:04 100 BKN:07 140,28.69,10,71,280,,5,,,,,,,,,,,,,,,,,,,,,,,,,,,,,,,,,,,,,MET10008/14/24 03:51:01 METAR KPHX 141051Z 28004KT 10SM SCT100 BKN140 34/14 A2986 RMK AO2 SLP089 T03440144,FM-15,7,,,,,,,,,,,,,,,,,,,,,,,,,,,03-04-2007 00:00
72278023183,14-08-2024 04:51,FM-15,7,,N,0.5,mi,"TEMP, PRECIP",1107,,"MXMN, SRG",33.4442,-112.0247,CONTRACTOR,,,,,,,,,,,,,,,,,,,,,,,,,,,,29.88,59,93,0,,-0.04,2,32,29.81,SCT:04 100 BKN:07 140,28.7,10,71,350,,7,,,,,,,,,,,,,,,,,,,,,,,,,,,,,,,,,,,,,MET11808/14/24 04:51:01 METAR KPHX 141151Z 35006KT 10SM SCT100 BKN140 34/15 A2988 RMK AO2 SLP094 T03390150 10372 20339 52015,FM-15,7,,,,,,,,,,,,,,,,,,,,,,,,,,,03-04-2007 00:00
72278023183,14-08-2024 05:00,FM-12,4,,N,0.5,mi,"TEMP, PRECIP",1107,,"MXMN, SRG",33.4442,-112.0247,CONTRACTOR,,,,,,,,,,,,,,,,,,,,,,,,,,,,,59,93,,,-0.04,2,32,29.81,,28.71,9.94,71,350,,7,,,,,,,,,,,,,,,,,,,,,,,,,,,,,,,,,,,,,SYN08072278 32966 63506 10339 20150 39721 40094 52015 91151 333 10428 20339 555 91412=,FM-12,4,,,,,,,,,,,,,,,,,,,,,,,,,,,03-04-2007 00:00
72278023183,14-08-2024 05:51,FM-15,7,,N,0.5,mi,"TEMP, PRECIP",1107,,"MXMN, SRG",33.4442,-112.0247,CONTRACTOR,,,,,,,,,,,,,,,,,,,,,,,,,,,,29.9,59,92,0,,,,33,29.83,SCT:04 100 SCT:04 140,28.72,10,70,0,,0,,,,,,,,,,,,,,,,,,,,,,,,,,,,,,,,,,,,,MET10008/14/24 05:51:01 METAR KPHX 141251Z 00000KT 10SM SCT100 SCT140 33/15 A2990 RMK AO2 SLP101 T03330150,FM-15,7,,,,,,,,,,,,,,,,,,,,,,,,,,,03-04-2007 00:00
72278023183,14-08-2024 06:51,FM-15,7,,N,0.5,mi,"TEMP, PRECIP",1107,,"MXMN, SRG",33.4442,-112.0247,CONTRACTOR,,,,,,,,,,,,,,,,,,,,,,,,,,,,29.92,59,93,0,,,,32,29.85,FEW:02 100 FEW:02 140 FEW:02 250,28.74,10,71,0,,0,,,,,,,,,,,,,,,,,,,,,,,,,,,,,,,,,,,,,MET10708/14/24 06:51:01 METAR KPHX 141351Z 00000KT 10SM FEW100 FEW140 FEW250 34/15 A2992 RMK AO2 SLP107 T03390150,FM-15,7,,,,,,,,,,,,,,,,,,,,,,,,,,,03-04-2007 00:00
72278023183,14-08-2024 07:51,FM-15,7,,N,0.5,mi,"TEMP, PRECIP",1107,,"MXMN, SRG",33.4442,-112.0247,CONTRACTOR,,,,,,,,,,,,,,,,,,,,,,,,,,,,29.94,60,94,0,,-0.05,2,32,29.87,FEW:02 100 FEW:02 140 FEW:02 250,28.76,10,72,120,,7,,,,,,,,,,,,,,,,,,,,,,,,,,,,,,,,,,,,,MET11308/14/24 07:51:02 METAR KPHX 141451Z 12006KT 10SM FEW100 FEW140 FEW250 34/16 A2994 RMK AO2 SLP114 T03440156 52018,FM-15,7,,,,,,,,,,,,,,,,,,,,,,,,,,,03-04-2007 00:00
72278023183,14-08-2024 08:00,FM-12,4,,N,0.5,mi,"TEMP, PRECIP",1107,,"MXMN, SRG",33.4442,-112.0247,CONTRACTOR,,,,,,,,,,,,,,,,,,,,,,,,,,,,,60,94,,,-0.05,2,32,29.87,,28.77,9.94,72,120,,7,,,,,,,,,,,,,,,,,,,,,,,,,,,,,,,,,,,,,SYN06472278 32966 21206 10344 20156 39741 40114 52018 91451 555 91415=,FM-12,4,,,,,,,,,,,,,,,,,,,,,,,,,,,03-04-2007 00:00
72278023183,14-08-2024 08:51,FM-15,7,,N,0.5,mi,"TEMP, PRECIP",1107,,"MXMN, SRG",33.4442,-112.0247,CONTRACTOR,,,,,,,,,,,,,,,,,,,,,,,,,,,,29.94,59,97,0,,,,28,29.87,FEW:02 100 FEW:02 140 FEW:02 250,28.76,10,72,70,,8,,,,,,,,,,,,,,,,,,,,,,,,,,,,,,,,,,,,,MET10708/14/24 08:51:01 METAR KPHX 141551Z 07007KT 10SM FEW100 FEW140 FEW250 36/15 A2994 RMK AO2 SLP115 T03610150,FM-15,7,,,,,,,,,,,,,,,,,,,,,,,,,,,03-04-2007 00:00
72278023183,14-08-2024 09:51,FM-15,7,,N,0.5,mi,"TEMP, PRECIP",1107,,"MXMN, SRG",33.4442,-112.0247,CONTRACTOR,,,,,,,,,,,,,,,,,,,,,,,,,,,,29.94,59,99,0,,,,27,29.87,FEW:02 100 FEW:02 150 FEW:02 250,28.76,10,72,130,,6,,,,,,,,,,,,,,,,,,,,,,,,,,,,,,,,,,,,,MET10708/14/24 09:51:02 METAR KPHX 141651Z 13005KT 10SM FEW100 FEW150 FEW250 37/15 A2994 RMK AO2 SLP116 T03720150,FM-15,7,,,,,,,,,,,,,,,,,,,,,,,,,,,03-04-2007 00:00
72278023183,14-08-2024 10:51,FM-15,7,,N,0.5,mi,"TEMP, PRECIP",1107,,"MXMN, SRG",33.4442,-112.0247,CONTRACTOR,,,,,,,,,,,,,,,,,,,,,,,,,,,,29.94,58,100,0,,0,0,25,29.86,FEW:02 90 FEW:02 150,28.76,10,72,140,,7,,,,,,,,,,,,,,,,,,,,,,,,,,,,,,,,,,,,,MET11808/14/24 10:51:02 METAR KPHX 141751Z 14006KT 10SM FEW090 FEW150 38/14 A2994 RMK AO2 SLP113 T03780144 10383 20328 50000,FM-15,7,,,,,,,,,,,,,,,,,,,,,,,,,,,03-04-2007 00:00
72278023183,14-08-2024 11:00,FM-12,4,,N,0.5,mi,"TEMP, PRECIP",1107,,"MXMN, SRG",33.4442,-112.0247,CONTRACTOR,,,,,,,,,,,,,,,,,,,,,,,,,,,,,58,100,,,0,9,25,29.86,,28.77,9.94,72,140,,7,,,,,,,,,,,,,,,,,,,,,,,,,,,,,,,,,,,,,SYN08072278 32966 21406 10378 20144 39741 40113 50000 91751 333 10383 20328 555 91418=,FM-12,4,,,,,,,,,,,,,,,,,,,,,,,,,,,03-04-2007 00:00
72278023183,14-08-2024 11:51,FM-15,7,,N,0.5,mi,"TEMP, PRECIP",1107,,"MXMN, SRG",33.4442,-112.0247,CONTRACTOR,,,,,,,,,,,,,,,,,,,,,,,,,,,,29.91,56,103,0,,,,21,29.84,FEW:02 90,28.73,10,72,VRB,,7,,,,,,,,,,,,,,,,,,,,,,,,,,,,,,,,,,,,,MET10408/14/24 11:51:02 METAR KPHX 141851Z VRB06KT 10SM FEW090 39/13 A2991 RMK AO2 SLP106 TCU DSNT E T03940133,FM-15,7,,,,,,,,,,,,,,,,,,,,,,,,,,,03-04-2007 00:00
72278023183,14-08-2024 12:51,FM-15,7,,N,0.5,mi,"TEMP, PRECIP",1107,,"MXMN, SRG",33.4442,-112.0247,CONTRACTOR,,,,,,,,,,,,,,,,,,,,,,,,,,,,29.89,57,105,0,,,,20,29.82,FEW:02 90,28.71,10,73,110,,7,,,,,,,,,,,,,,,,,,,,,,,,,,,,,,,,,,,,,MET09308/14/24 12:51:02 METAR KPHX 141951Z 11006KT 10SM FEW090 41/14 A2989 RMK AO2 SLP099 T04060139,FM-15,7,,,,,,,,,,,,,,,,,,,,,,,,,,,03-04-2007 00:00
72278023183,14-08-2024 13:51,FM-15,7,,N,0.5,mi,"TEMP, PRECIP",1107,,"MXMN, SRG",33.4442,-112.0247,CONTRACTOR,,,,,,,,,,,,,,,,,,,,,,,,,,,,29.87,56,108,0,,0.06,8,18,29.8,FEW:02 90,28.69,10,73,220,23,10,,,,,,,,,,,,,,,,,,,,,,,,,,,,,,,,,,,,,MET10208/14/24 13:51:02 METAR KPHX 142051Z 22009G20KT 10SM FEW090 42/13 A2987 RMK AO2 SLP091 T04220133 58022,FM-15,7,,,,,,,,,,,,,,,,,,,,,,,,,,,03-04-2007 00:00
72278023183,14-08-2024 14:00,FM-12,4,,N,0.5,mi,"TEMP, PRECIP",1107,,"MXMN, SRG",33.4442,-112.0247,CONTRACTOR,,,,,,,,,,,,,,,,,,,,,,,,,,,,,56,108,,,0.06,8,18,29.8,,28.7,9.94,73,220,,10,,,,,,,,,,,,,,,,,,,,,,,,,,,,,,,,,,,,,SYN07472278 32966 22209 10422 20133 39718 40091 58022 92051 333 91020 555 91421=,FM-12,4,,,,,,,,,,,,,,,,,,,,,,,,,,,03-04-2007 00:00
72278023183,14-08-2024 14:51,FM-15,7,,N,0.5,mi,"TEMP, PRECIP",1107,,"MXMN, SRG",33.4442,-112.0247,CONTRACTOR,,,,,,,,,,,,,,,,,,,,,,,,,,,,29.84,56,105,0,,,,20,29.77,FEW:02 90,28.66,10,73,320,,9,,,,,,,,,,,,,,,,,,,,,,,,,,,,,,,,,,,,,MET09308/14/24 14:51:02 METAR KPHX 142151Z 32008KT 10SM FEW090 41/13 A2984 RMK AO2 SLP081 T04060133,FM-15,7,,,,,,,,,,,,,,,,,,,,,,,,,,,03-04-2007 00:00
72278023183,14-08-2024 15:51,FM-15,7,,N,0.5,mi,"TEMP, PRECIP",1107,,"MXMN, SRG",33.4442,-112.0247,CONTRACTOR,,,,,,,,,,,,,,,,,,,,,,,,,,,,29.82,55,108,0,,,,17,29.75,FEW:02 90,28.65,10,73,0,,0,,,,,,,,,,,,,,,,,,,,,,,,,,,,,,,,,,,,,MET09308/14/24 15:51:02 METAR KPHX 142251Z 00000KT 10SM FEW090 42/13 A2982 RMK AO2 SLP073 T04220128,FM-15,7,,,,,,,,,,,,,,,,,,,,,,,,,,,03-04-2007 00:00
72278023183,14-08-2024 16:51,FM-15,7,,N,0.5,mi,"TEMP, PRECIP",1107,,"MXMN, SRG",33.4442,-112.0247,CONTRACTOR,,,,,,,,,,,,,,,,,,,,,,,,,,,,29.8,52,107,0,,0.06,6,16,29.73,FEW:02 90,28.63,10,72,VRB,,5,,,,,,,,,,,,,,,,,,,,,,,,,,,,,,,,,,,,,MET11108/14/24 16:51:02 METAR KPHX 142351Z VRB04KT 10SM FEW090 42/11 A2980 RMK AO2 SLP068 T04170111 10433 20378 56022,FM-15,7,,,,,,,,,,,,,,,,,,,,,,,,,,,03-04-2007 00:00
72278023183,14-08-2024 17:00,FM-12,4,,N,0.5,mi,"TEMP, PRECIP",1107,,"MXMN, SRG",33.4442,-112.0247,CONTRACTOR,,,,,,,,,,,,,,,,,,,,,,,,,,,,,52,107,,,0.06,6,16,29.73,,28.63,9.94,72,,,5,,,,,,,,,,,,,,,,,,,,,,,,,,,,,,,,,,,,,SYN08072278 32966 2//04 10417 20111 39695 40068 56022 92351 333 10433 20339 555 91500=,FM-12,4,,,,,,,,,,,,,,,,,,,,,,,,,,,03-04-2007 00:00
72278023183,14-08-2024 17:51,FM-15,7,,N,0.5,mi,"TEMP, PRECIP",1107,,"MXMN, SRG",33.4442,-112.0247,CONTRACTOR,,,,,,,,,,,,,,,,,,,,,,,,,,,,29.79,52,108,0,,,,16,29.72,FEW:02 90,28.62,10,72,290,,13,,,,,,,,,,,,,,,,,,,,,,,,,,,,,,,,,,,,,MET09308/14/24 17:51:01 METAR KPHX 150051Z 29011KT 10SM FEW090 42/11 A2979 RMK AO2 SLP063 T04220111,FM-15,7,,,,,,,,,,,,,,,,,,,,,,,,,,,03-04-2007 00:00
72278023183,14-08-2024 18:51,FM-15,7,,N,0.5,mi,"TEMP, PRECIP",1107,,"MXMN, SRG",33.4442,-112.0247,CONTRACTOR,,,,,,,,,,,,,,,,,,,,,,,,,,,,29.79,51,105,0,,,,16,29.72,FEW:02 90,28.62,10,71,290,,11,,,,,,,,,,,,,,,,,,,,,,,,,,,,,,,,,,,,,MET09308/14/24 18:51:01 METAR KPHX 150151Z 29010KT 10SM FEW090 41/11 A2979 RMK AO2 SLP064 T04060106,FM-15,7,,,,,,,,,,,,,,,,,,,,,,,,,,,03-04-2007 00:00
72278023183,14-08-2024 19:51,FM-15,7,,N,0.5,mi,"TEMP, PRECIP",1107,,"MXMN, SRG",33.4442,-112.0247,CONTRACTOR,,,,,,,,,,,,,,,,,,,,,,,,,,,,29.8,49,105,0,,0,5,15,29.73,FEW:02 90,28.63,10,70,300,,9,,,,,,,,,,,,,,,,,,,,,,,,,,,,,,,,,,,,,MET09908/14/24 19:51:01 METAR KPHX 150251Z 30008KT 10SM FEW090 41/09 A2980 RMK AO2 SLP067 T04060094 55001,FM-15,7,,,,,,,,,,,,,,,,,,,,,,,,,,,03-04-2007 00:00
72278023183,14-08-2024 20:00,FM-12,4,,N,0.5,mi,"TEMP, PRECIP",1107,,"MXMN, SRG",33.4442,-112.0247,CONTRACTOR,,,,,,,,,,,,,,,,,,,,,,,,,,,,,49,105,,,0,5,15,29.73,,28.63,9.94,70,300,,9,,,,,,,,,,,,,,,,,,,,,,,,,,,,,,,,,,,,,SYN06472278 32966 23008 10406 20094 39695 40067 55001 90251 555 91503=,FM-12,4,,,,,,,,,,,,,,,,,,,,,,,,,,,03-04-2007 00:00
72278023183,14-08-2024 20:51,FM-15,7,,N,0.5,mi,"TEMP, PRECIP",1107,,"MXMN, SRG",33.4442,-112.0247,CONTRACTOR,,,,,,,,,,,,,,,,,,,,,,,,,,,,29.81,51,103,0,,,,18,29.74,CLR:00,28.64,10,70,290,,8,,,,,,,,,,,,,,,,,,,,,,,,,,,,,,,,,,,,,MET09008/14/24 20:51:01 METAR KPHX 150351Z 29007KT 10SM CLR 39/11 A2981 RMK AO2 SLP072 T03940106,FM-15,7,,,,,,,,,,,,,,,,,,,,,,,,,,,03-04-2007 00:00
72278023183,14-08-2024 21:51,FM-15,7,,N,0.5,mi,"TEMP, PRECIP",1107,,"MXMN, SRG",33.4442,-112.0247,CONTRACTOR,,,,,,,,,,,,,,,,,,,,,,,,,,,,29.82,53,100,0,,,,21,29.75,CLR:00,28.65,10,70,210,,3,,,,,,,,,,,,,,,,,,,,,,,,,,,,,,,,,,,,,MET09008/14/24 21:51:01 METAR KPHX 150451Z 21003KT 10SM CLR 38/12 A2982 RMK AO2 SLP076 T03780117,FM-15,7,,,,,,,,,,,,,,,,,,,,,,,,,,,03-04-2007 00:00
72278023183,14-08-2024 22:51,FM-15,7,,N,0.5,mi,"TEMP, PRECIP",1107,,"MXMN, SRG",33.4442,-112.0247,CONTRACTOR,,,,,,,,,,,,,,,,,,,,,,,,,,,,29.83,53,99,0,,-0.03,1,21,29.75,CLR:00,28.66,10,70,240,,5,,,,,,,,,,,,,,,,,,,,,,,,,,,,,,,,,,,,,MET10808/14/24 22:51:01 METAR KPHX 150551Z 24004KT 10SM CLR 37/12 A2983 RMK AO2 SLP076 T03720117 10422 20372 51009,FM-15,7,,,,,,,,,,,,,,,,,,,,,,,,,,,03-04-2007 00:00
72278023183,14-08-2024 23:00,FM-12,4,,N,0.5,mi,"TEMP, PRECIP",1107,,"MXMN, SRG",33.4442,-112.0247,CONTRACTOR,,,,,,,,,,,,,,,,,,,,,,,,,,,,,53,99,,,-0.03,1,21,29.75,,28.66,9.94,70,240,,5,,,,,,,,,,,,,,,,,,,,,,,,,,,,,,,,,,,,,SYN08072278 32966 02404 10372 20117 39705 40076 51009 90551 333 10422 20339 555 91506=,FM-12,4,,,,,,,,,,,,,,,,,,,,,,,,,,,03-04-2007 00:00
72278023183,14-08-2024 23:51,FM-15,7,,N,0.5,mi,"TEMP, PRECIP",1107,,"MXMN, SRG",33.4442,-112.0247,CONTRACTOR,,,,,,,,,,,,,,,,,,,,,,,,,,,,29.82,53,99,0,,,,21,29.75,CLR:00,28.65,10,70,270,,6,,,,,,,,,,,,,,,,,,,,,,,,,,,,,,,,,,,,,MET10008/14/24 23:51:01 METAR KPHX 150651Z 27005KT 10SM CLR 37/12 A2982 RMK AO2 SLP075 T03720117 404330328,FM-15,7,,,,,,,,,,,,,,,,,,,,,,,,,,,03-04-2007 00:00
72278023183,14-08-2024 23:59,SOD  ,6,,N,0.5,mi,"TEMP, PRECIP",1107,,"MXMN, SRG",33.4442,-112.0247,CONTRACTOR,,,,,,56,101,23,29.79,28.69,71,7,36,7.3,0,110,91,320,27,0,,,280,18,,,,,,,,,,,,,,,,,,,,,,,,,,,,,,,,,,,,,,,,,,,,,,,,,,,,,,,,SOD74324 HR PRECIPITATION (IN): 0.00 SNOW DEPTH (IN):0     24 HR SNOWFALL (IN):0.0  24 HR MAX TEMP (F):11024 HR MIN TEMP (F): 91AVERAGE STATION PRESSURE(D):28.685 MINIMUM SEA LEVEL PRESSURE:29.72 TIME OF OCCURRENCE:1940 PEAK WIND SPEED (MPH): 27 PEAK WIND DIR (DEG):320 PEAK WIND TIME (LST):      FASTEST 2MIN SPEED (MPH): 18FASTEST 2MIN DIR (DEG):280 FASTEST 2MIN TIME (LST):     AVERAGE WIND SPEED (MPH): 7.0 24 HR AVG TEMP (F):101DEPART FROM NORMAL:  7  HEATING DEGREE DAYS:  0 COOLING DEGREE DAYS: 36 LATEST DAY MAX TEMP (0700-1900 LST):110 LATEST NIGHT MIN TEMP(1900-0800 LST):91 HOURLY INCREMENTAL PRECIPITATION VALUES (IN):0.00 0.00 0.00 0.00 0.00 0.00 0.00 0.00 0.00 0.00 0.00 0.00 0.00 0.00 0.00 0.00 0.00 0.00 0.00 0.00 0.00 0.00 0.00 0.00,SOD  ,6,,,,,,,,,,,,,,,,,,,,,,,,,550,1914,03-04-2007 00:00
72278023183,15-08-2024 00:51,FM-15,7,,N,0.5,mi,"TEMP, PRECIP",1107,,"MXMN, SRG",33.4442,-112.0247,CONTRACTOR,,,,,,,,,,,,,,,,,,,,,,,,,,,,29.83,54,96,0,,,,24,29.75,CLR:00,28.66,10,69,0,,0,,,,,,,,,,,,,,,,,,,,,,,,,,,,,,,,,,,,,MET09508/15/24 00:51:02 METAR KPHX 150751Z 00000KT 10SM CLR 36/12 A2983 RMK AO2 SLP076 T03560122 (AR),FM-15,7,,,,,,,,,,,,,,,,,,,,,,,,,,,03-04-2007 00:00
72278023183,15-08-2024 01:51,FM-15,7,,N,0.5,mi,"TEMP, PRECIP",1107,,"MXMN, SRG",33.4442,-112.0247,CONTRACTOR,,,,,,,,,,,,,,,,,,,,,,,,,,,,29.82,53,95,0,,0,8,24,29.75,CLR:00,28.65,10,69,0,,0,,,,,,,,,,,,,,,,,,,,,,,,,,,,,,,,,,,,,MET10108/15/24 01:51:02 METAR KPHX 150851Z 00000KT 10SM CLR 35/12 A2982 RMK AO2 SLP075 T03500117 58001 (AR),FM-15,7,,,,,,,,,,,,,,,,,,,,,,,,,,,03-04-2007 00:00
72278023183,15-08-2024 02:00,FM-12,4,,N,0.5,mi,"TEMP, PRECIP",1107,,"MXMN, SRG",33.4442,-112.0247,CONTRACTOR,,,,,,,,,,,,,,,,,,,,,,,,,,,,,53,95,,,0,8,24,29.75,,28.65,9.94,69,0,,0,,,,,,,,,,,,,,,,,,,,,,,,,,,,,,,,,,,,,SYN06472278 32966 00000 10350 20117 39702 40075 58001 90851 555 91509=,FM-12,4,,,,,,,,,,,,,,,,,,,,,,,,,,,03-04-2007 00:00
72278023183,15-08-2024 02:51,FM-15,7,,N,0.5,mi,"TEMP, PRECIP",1107,,"MXMN, SRG",33.4442,-112.0247,CONTRACTOR,,,,,,,,,,,,,,,,,,,,,,,,,,,,29.83,54,95,0,,,,25,29.76,CLR:00,28.66,10,69,330,,6,,,,,,,,,,,,,,,,,,,,,,,,,,,,,,,,,,,,,MET09508/15/24 02:51:02 METAR KPHX 150951Z 33005KT 10SM CLR 35/12 A2983 RMK AO2 SLP077 T03500122 (AR),FM-15,7,,,,,,,,,,,,,,,,,,,,,,,,,,,03-04-2007 00:00
72278023183,15-08-2024 03:51,FM-15,7,,N,0.5,mi,"TEMP, PRECIP",1107,,"MXMN, SRG",33.4442,-112.0247,CONTRACTOR,,,,,,,,,,,,,,,,,,,,,,,,,,,,29.83,54,95,0,,,,25,29.76,CLR:00,28.66,10,69,280,,5,,,,,,,,,,,,,,,,,,,,,,,,,,,,,,,,,,,,,MET09508/15/24 03:51:02 METAR KPHX 151051Z 28004KT 10SM CLR 35/12 A2983 RMK AO2 SLP078 T03500122 (AR),FM-15,7,,,,,,,,,,,,,,,,,,,,,,,,,,,03-04-2007 00:00
72278023183,15-08-2024 04:51,FM-15,7,,N,0.5,mi,"TEMP, PRECIP",1107,,"MXMN, SRG",33.4442,-112.0247,CONTRACTOR,,,,,,,,,,,,,,,,,,,,,,,,,,,,29.84,55,93,0,,-0.01,3,28,29.77,CLR:00,28.66,10,69,360,,3,,,,,,,,,,,,,,,,,,,,,,,,,,,,,,,,,,,,,MET11308/15/24 04:51:02 METAR KPHX 151151Z 36003KT 10SM CLR 34/13 A2984 RMK AO2 SLP080 T03390128 10378 20333 53005 (AR),FM-15,7,,,,,,,,,,,,,,,,,,,,,,,,,,,03-04-2007 00:00
72278023183,15-08-2024 05:00,FM-12,4,,N,0.5,mi,"TEMP, PRECIP",1107,,"MXMN, SRG",33.4442,-112.0247,CONTRACTOR,,,,,,,,,,,,,,,,,,,,,,,,,,,,,55,93,,,-0.01,3,28,29.77,,28.67,9.94,69,360,,3,,,,,,,,,,,,,,,,,,,,,,,,,,,,,,,,,,,,,SYN08072278 32966 03603 10339 20128 39708 40080 53005 91151 333 10433 20333 555 91512=,FM-12,4,,,,,,,,,,,,,,,,,,,,,,,,,,,03-04-2007 00:00
72278023183,15-08-2024 05:51,FM-15,7,,N,0.5,mi,"TEMP, PRECIP",1107,,"MXMN, SRG",33.4442,-112.0247,CONTRACTOR,,,,,,,,,,,,,,,,,,,,,,,,,,,,29.86,56,90,0,,,,32,29.79,FEW:02 150,28.69,10,68,100,,5,,,,,,,,,,,,,,,,,,,,,,,,,,,,,,,,,,,,,MET09808/15/24 05:51:02 METAR KPHX 151251Z 10004KT 10SM FEW150 32/13 A2986 RMK AO2 SLP088 T03220133 (AR),FM-15,7,,,,,,,,,,,,,,,,,,,,,,,,,,,03-04-2007 00:00
72278023183,15-08-2024 06:51,FM-15,7,,N,0.5,mi,"TEMP, PRECIP",1107,,"MXMN, SRG",33.4442,-112.0247,CONTRACTOR,,,,,,,,,,,,,,,,,,,,,,,,,,,,29.88,55,90,0,,,,31,29.81,FEW:02 150 FEW:02 230,28.7,10,68,80,,8,,,,,,,,,,,,,,,,,,,,,,,,,,,,,,,,,,,,,MET10508/15/24 06:51:02 METAR KPHX 151351Z 08007KT 10SM FEW150 FEW230 32/13 A2988 RMK AO2 SLP096 T03220128 (SH),FM-15,7,,,,,,,,,,,,,,,,,,,,,,,,,,,03-04-2007 00:00
72278023183,15-08-2024 07:51,FM-15,7,,N,0.5,mi,"TEMP, PRECIP",1107,,"MXMN, SRG",33.4442,-112.0247,CONTRACTOR,,,,,,,,,,,,,,,,,,,,,,,,,,,,29.89,55,93,0,,-0.05,1,28,29.82,FEW:02 210 FEW:02 270,28.71,10,69,100,,5,,,,,,,,,,,,,,,,,,,,,,,,,,,,,,,,,,,,,MET11108/15/24 07:51:02 METAR KPHX 151451Z 10004KT 10SM FEW210 FEW270 34/13 A2989 RMK AO2 SLP098 T03390128 51018 (SH),FM-15,7,,,,,,,,,,,,,,,,,,,,,,,,,,,03-04-2007 00:00
72278023183,15-08-2024 08:00,FM-12,4,,N,0.5,mi,"TEMP, PRECIP",1107,,"MXMN, SRG",33.4442,-112.0247,CONTRACTOR,,,,,,,,,,,,,,,,,,,,,,,,,,,,,55,93,,,-0.05,1,28,29.82,,28.72,9.94,69,100,,5,,,,,,,,,,,,,,,,,,,,,,,,,,,,,,,,,,,,,SYN06472278 32966 21004 10339 20128 39725 40098 51018 91451 555 91515=,FM-12,4,,,,,,,,,,,,,,,,,,,,,,,,,,,03-04-2007 00:00
72278023183,15-08-2024 08:51,FM-15,7,,N,0.5,mi,"TEMP, PRECIP",1107,,"MXMN, SRG",33.4442,-112.0247,CONTRACTOR,,,,,,,,,,,,,,,,,,,,,,,,,,,,29.9,55,96,0,,,,25,29.83,FEW:02 210 FEW:02 270,28.72,10,70,160,,3,,,,,,,,,,,,,,,,,,,,,,,,,,,,,,,,,,,,,MET10508/15/24 08:51:02 METAR KPHX 151551Z 16003KT 10SM FEW210 FEW270 36/13 A2990 RMK AO2 SLP102 T03560128 (SH),FM-15,7,,,,,,,,,,,,,,,,,,,,,,,,,,,03-04-2007 00:00
72278023183,15-08-2024 09:51,FM-15,7,,N,0.5,mi,"TEMP, PRECIP",1107,,"MXMN, SRG",33.4442,-112.0247,CONTRACTOR,,,,,,,,,,,,,,,,,,,,,,,,,,,,29.9,55,100,0,,,,22,29.83,FEW:02 210 FEW:02 270,28.72,10,71,300,,3,,,,,,,,,,,,,,,,,,,,,,,,,,,,,,,,,,,,,MET10508/15/24 09:51:02 METAR KPHX 151651Z 30003KT 10SM FEW210 FEW270 38/13 A2990 RMK AO2 SLP100 T03780128 (SH),FM-15,7,,,,,,,,,,,,,,,,,,,,,,,,,,,03-04-2007 00:00
72278023183,15-08-2024 10:51,FM-15,7,,N,0.5,mi,"TEMP, PRECIP",1107,,"MXMN, SRG",33.4442,-112.0247,CONTRACTOR,,,,,,,,,,,,,,,,,,,,,,,,,,,,29.89,51,104,0,,0.01,8,17,29.81,FEW:02 100 FEW:02 270,28.71,10,70,VRB,,7,,,,,,,,,,,,,,,,,,,,,,,,,,,,,,,,,,,,,MET12308/15/24 10:51:02 METAR KPHX 151751Z VRB06KT 10SM FEW100 FEW270 40/11 A2989 RMK AO2 SLP096 T04000106 10400 20322 58002 (SH),FM-15,7,,,,,,,,,,,,,,,,,,,,,,,,,,,03-04-2007 00:00
72278023183,15-08-2024 11:00,FM-12,4,,N,0.5,mi,"TEMP, PRECIP",1107,,"MXMN, SRG",33.4442,-112.0247,CONTRACTOR,,,,,,,,,,,,,,,,,,,,,,,,,,,,,51,104,,,0.01,8,17,29.81,,28.72,9.94,70,,,7,,,,,,,,,,,,,,,,,,,,,,,,,,,,,,,,,,,,,SYN08072278 32966 2//06 10400 20106 39725 40096 58002 91751 333 10400 20322 555 91518=,FM-12,4,,,,,,,,,,,,,,,,,,,,,,,,,,,03-04-2007 00:00
72278023183,15-08-2024 11:51,FM-15,7,,N,0.5,mi,"TEMP, PRECIP",1107,,"MXMN, SRG",33.4442,-112.0247,CONTRACTOR,,,,,,,,,,,,,,,,,,,,,,,,,,,,29.87,46,107,0,,,,13,29.8,FEW:02 100 FEW:02 270,28.69,10,69,VRB,,5,,,,,,,,,,,,,,,,,,,,,,,,,,,,,,,,,,,,,MET10508/15/24 11:51:02 METAR KPHX 151851Z VRB04KT 10SM FEW100 FEW270 42/08 A2987 RMK AO2 SLP090 T04170078 (SH),FM-15,7,,,,,,,,,,,,,,,,,,,,,,,,,,,03-04-2007 00:00
72278023183,15-08-2024 12:51,FM-15,7,,N,0.5,mi,"TEMP, PRECIP",1107,,"MXMN, SRG",33.4442,-112.0247,CONTRACTOR,,,,,,,,,,,,,,,,,,,,,,,,,,,,29.85,49,106,0,,,,15,29.78,FEW:02 100 FEW:02 270,28.68,10,70,,,,,,,,,,,,,,,,,,,,,,,,,,,,,,,,,,,,,,,,MET10508/15/24 12:51:02 METAR KPHX 151951Z      KT 10SM FEW100 FEW270 41/09 A2985 RMK AO2 SLP084 T04110094 (SH),FM-15,7,,,,,,,,,,,,,,,,,,,,,,,,,,,03-04-2007 00:00
72278023183,15-08-2024 13:03,FM-16,7,,N,0.5,mi,"TEMP, PRECIP",1107,,"MXMN, SRG",33.4442,-112.0247,CONTRACTOR,,,,,,,,,,,,,,,,,,,,,,,,,,,,29.84,49,109,,,,,13,,FEW:02 100 FEW:02 270,28.66,10,71,VRB,,7,,,,,,,,,,,,,,,,,,,,,,,,,,,,,,,,,,,,,MET09808/15/24 13:03:02 SPECI KPHX 152003Z VRB06KT 10SM FEW100 FEW270 43/09 A2984 RMK AO2 T04280094 (SH),FM-16,7,,,,,,,,,,,,,,,,,,,,,,,,,,,03-04-2007 00:00
72278023183,15-08-2024 13:51,FM-15,7,,N,0.5,mi,"TEMP, PRECIP",1107,,"MXMN, SRG",33.4442,-112.0247,CONTRACTOR,,,,,,,,,,,,,,,,,,,,,,,,,,,,29.82,50,108,0,,0.06,8,14,29.75,FEW:02 100,28.65,10,71,0,,0,,,,,,,,,,,,,,,,,,,,,,,,,,,,,,,,,,,,,MET10408/15/24 13:51:02 METAR KPHX 152051Z 00000KT 10SM FEW100 42/10 A2982 RMK AO2 SLP075 T04220100 58020 (SH),FM-15,7,,,,,,,,,,,,,,,,,,,,,,,,,,,03-04-2007 00:00
72278023183,15-08-2024 14:00,FM-12,4,,N,0.5,mi,"TEMP, PRECIP",1107,,"MXMN, SRG",33.4442,-112.0247,CONTRACTOR,,,,,,,,,,,,,,,,,,,,,,,,,,,,,50,108,,,0.06,8,14,29.75,,28.65,9.94,71,0,,0,,,,,,,,,,,,,,,,,,,,,,,,,,,,,,,,,,,,,SYN06472278 32966 20000 10422 20100 39702 40075 58020 92051 555 91521=,FM-12,4,,,,,,,,,,,,,,,,,,,,,,,,,,,03-04-2007 00:00
72278023183,15-08-2024 14:51,FM-15,7,,N,0.5,mi,"TEMP, PRECIP",1107,,"MXMN, SRG",33.4442,-112.0247,CONTRACTOR,,,,,,,,,,,,,,,,,,,,,,,,,,,,29.79,51,110,0,,,,14,29.72,FEW:02 100,28.62,10,72,VRB,,6,,,,,,,,,,,,,,,,,,,,,,,,,,,,,,,,,,,,,MET09908/15/24 14:51:02 METAR KPHX 152151Z VRB05KT 10SM FEW100 43/11 A2979 RMK AO2 SLP063 T04330106 (ANH),FM-15,7,,,,,,,,,,,,,,,,,,,,,,,,,,,03-04-2007 00:00
72278023183,15-08-2024 15:51,FM-15,7,,N,0.5,mi,"TEMP, PRECIP",1107,,"MXMN, SRG",33.4442,-112.0247,CONTRACTOR,,,,,,,,,,,,,,,,,,,,,,,,,,,,29.77,51,111,0,,,,14,29.7,FEW:02 100,28.6,10,72,170,,8,,,,,,,,,,,,,,,,,,,,,,,,,,,,,,,,,,,,,MET09908/15/24 15:51:02 METAR KPHX 152251Z 17007KT 10SM FEW100 44/11 A2977 RMK AO2 SLP056 T04390106 (ANH),FM-15,7,,,,,,,,,,,,,,,,,,,,,,,,,,,03-04-2007 00:00
72278023183,15-08-2024 16:51,FM-15,7,,N,0.5,mi,"TEMP, PRECIP",1107,,"MXMN, SRG",33.4442,-112.0247,CONTRACTOR,,,,,,,,,,,,,,,,,,,,,,,,,,,,29.75,52,110,0,,0.07,6,15,29.68,FEW:02 100,28.58,10,72,280,,9,,,,,,,,,,,,,,,,,,,,,,,,,,,,,,,,,,,,,MET11708/15/24 16:51:02 METAR KPHX 152351Z 28008KT 10SM FEW100 43/11 A2975 RMK AO2 SLP051 T04330111 10444 20400 56024 (ANH),FM-15,7,,,,,,,,,,,,,,,,,,,,,,,,,,,03-04-2007 00:00
72278023183,15-08-2024 17:00,FM-12,4,,N,0.5,mi,"TEMP, PRECIP",1107,,"MXMN, SRG",33.4442,-112.0247,CONTRACTOR,,,,,,,,,,,,,,,,,,,,,,,,,,,,,52,110,,,0.07,6,15,29.68,,28.58,9.94,72,280,,9,,,,,,,,,,,,,,,,,,,,,,,,,,,,,,,,,,,,,SYN08072278 32966 22808 10433 20111 39679 40051 56024 92351 333 10444 20333 555 91600=,FM-12,4,,,,,,,,,,,,,,,,,,,,,,,,,,,03-04-2007 00:00
72278023183,15-08-2024 17:51,FM-15,7,,N,0.5,mi,"TEMP, PRECIP",1107,,"MXMN, SRG",33.4442,-112.0247,CONTRACTOR,,,,,,,,,,,,,,,,,,,,,,,,,,,,29.74,53,110,0,,,,15,29.67,FEW:02 100,28.57,10,73,300,,10,,,,,,,,,,,,,,,,,,,,,,,,,,,,,,,,,,,,,MET09308/15/24 17:51:01 METAR KPHX 160051Z 30009KT 10SM FEW100 43/12 A2974 RMK AO2 SLP048 T04330117,FM-15,7,,,,,,,,,,,,,,,,,,,,,,,,,,,03-04-2007 00:00
72278023183,15-08-2024 18:51,FM-15,7,,N,0.5,mi,"TEMP, PRECIP",1107,,"MXMN, SRG",33.4442,-112.0247,CONTRACTOR,,,,,,,,,,,,,,,,,,,,,,,,,,,,29.74,54,107,0,,,,17,29.67,FEW:02 100 FEW:02 250,28.57,10,72,320,22,11,,,,,,,,,,,,,,,,,,,,,,,,,,,,,,,,,,,,,MET10308/15/24 18:51:01 METAR KPHX 160151Z 32010G19KT 10SM FEW100 FEW250 42/12 A2974 RMK AO2 SLP048 T04170122,FM-15,7,,,,,,,,,,,,,,,,,,,,,,,,,,,03-04-2007 00:00
72278023183,15-08-2024 19:51,FM-15,7,,N,0.5,mi,"TEMP, PRECIP",1107,,"MXMN, SRG",33.4442,-112.0247,CONTRACTOR,,,,,,,,,,,,,,,,,,,,,,,,,,,,29.75,54,106,0,,0,3,18,29.68,CLR:00,28.58,10,72,320,,11,,,,,,,,,,,,,,,,,,,,,,,,,,,,,,,,,,,,,MET11408/15/24 19:51:01 METAR KPHX 160251Z 32010KT 10SM CLR 41/12 A2975 RMK AO2 PK WND 33027/0201 SLP051 T04110122 53001,FM-15,7,,,,,,,,,,,,,,,,,,,,,,,,,,,03-04-2007 00:00
72278023183,15-08-2024 20:00,FM-12,4,,N,0.5,mi,"TEMP, PRECIP",1107,,"MXMN, SRG",33.4442,-112.0247,CONTRACTOR,,,,,,,,,,,,,,,,,,,,,,,,,,,,,54,106,,,0,3,18,29.68,,28.58,9.94,72,320,,11,,,,,,,,,,,,,,,,,,,,,,,,,,,,,,,,,,,,,SYN06472278 32966 03210 10411 20122 39679 40051 53001 90251 555 91603=,FM-12,4,,,,,,,,,,,,,,,,,,,,,,,,,,,03-04-2007 00:00
72278023183,15-08-2024 20:51,FM-15,7,,N,0.5,mi,"TEMP, PRECIP",1107,,"MXMN, SRG",33.4442,-112.0247,CONTRACTOR,,,,,,,,,,,,,,,,,,,,,,,,,,,,29.77,53,106,0,,,,17,29.7,CLR:00,28.6,10,72,320,,9,,,,,,,,,,,,,,,,,,,,,,,,,,,,,,,,,,,,,MET09008/15/24 20:51:01 METAR KPHX 160351Z 32008KT 10SM CLR 41/12 A2977 RMK AO2 SLP057 T04110117,FM-15,7,,,,,,,,,,,,,,,,,,,,,,,,,,,03-04-2007 00:00
72278023183,15-08-2024 21:51,FM-15,7,,N,0.5,mi,"TEMP, PRECIP",1107,,"MXMN, SRG",33.4442,-112.0247,CONTRACTOR,,,,,,,,,,,,,,,,,,,,,,,,,,,,29.79,54,103,0,,,,20,29.71,CLR:00,28.62,10,71,220,,7,,,,,,,,,,,,,,,,,,,,,,,,,,,,,,,,,,,,,MET09008/15/24 21:51:01 METAR KPHX 160451Z 22006KT 10SM CLR 39/12 A2979 RMK AO2 SLP062 T03940122,FM-15,7,,,,,,,,,,,,,,,,,,,,,,,,,,,03-04-2007 00:00
72278023183,15-08-2024 22:51,FM-15,7,,N,0.5,mi,"TEMP, PRECIP",1107,,"MXMN, SRG",33.4442,-112.0247,CONTRACTOR,,,,,,,,,,,,,,,,,,,,,,,,,,,,29.78,52,100,0,,-0.03,0,20,29.71,CLR:00,28.61,10,70,250,,6,,,,,,,,,,,,,,,,,,,,,,,,,,,,,,,,,,,,,MET10808/15/24 22:51:01 METAR KPHX 160551Z 25005KT 10SM CLR 38/11 A2978 RMK AO2 SLP060 T03780111 10433 20378 50009,FM-15,7,,,,,,,,,,,,,,,,,,,,,,,,,,,03-04-2007 00:00
72278023183,15-08-2024 23:00,FM-12,4,,N,0.5,mi,"TEMP, PRECIP",1107,,"MXMN, SRG",33.4442,-112.0247,CONTRACTOR,,,,,,,,,,,,,,,,,,,,,,,,,,,,,52,100,,,0.03,9,20,29.71,,28.61,9.94,70,250,,6,,,,,,,,,,,,,,,,,,,,,,,,,,,,,,,,,,,,,SYN08072278 32966 02505 10378 20111 39689 40060 50009 90551 333 10433 20333 555 91606=,FM-12,4,,,,,,,,,,,,,,,,,,,,,,,,,,,03-04-2007 00:00
72278023183,15-08-2024 23:51,FM-15,7,,N,0.5,mi,"TEMP, PRECIP",1107,,"MXMN, SRG",33.4442,-112.0247,CONTRACTOR,,,,,,,,,,,,,,,,,,,,,,,,,,,,29.78,52,98,0,,,,21,29.71,CLR:00,28.61,10,69,230,,6,,,,,,,,,,,,,,,,,,,,,,,,,,,,,,,,,,,,,MET10008/15/24 23:51:01 METAR KPHX 160651Z 23005KT 10SM CLR 37/11 A2978 RMK AO2 SLP060 T03670111 404440322,FM-15,7,,,,,,,,,,,,,,,,,,,,,,,,,,,03-04-2007 00:00
72278023183,15-08-2024 23:59,SOD  ,6,,N,0.5,mi,"TEMP, PRECIP",1107,,"MXMN, SRG",33.4442,-112.0247,CONTRACTOR,,,,,,53,101,20,29.75,28.63,70,5.8,36,7.3,0,111,90,330,31,0,,,240,17,,,,,,,,,,,,,,,,,,,,,,,,,,,,,,,,,,,,,,,,,,,,,,,,,,,,,,,,SOD73924 HR PRECIPITATION (IN): 0.00 SNOW DEPTH (IN):0     24 HR SNOWFALL (IN):0.0  24 HR MAX TEMP (F):11124 HR MIN TEMP (F): 90AVERAGE STATION PRESSURE:28.630 MINIMUM SEA LEVEL PRESSURE:29.67 TIME OF OCCURRENCE:1919 PEAK WIND SPEED (MPH): 31 PEAK WIND DIR (DEG):330 PEAK WIND TIME (LST):      FASTEST 2MIN SPEED (MPH): 17FASTEST 2MIN DIR (DEG):240 FASTEST 2MIN TIME (LST):     AVERAGE WIND SPEED (MPH): 5.8 24 HR AVG TEMP (F):101DEPART FROM NORMAL:  7  HEATING DEGREE DAYS:  0 COOLING DEGREE DAYS: 36 LATEST DAY MAX TEMP (0700-1900 LST):112 LATEST NIGHT MIN TEMP(1900-0800 LST):90 HOURLY INCREMENTAL PRECIPITATION VALUES (IN):.00 0.00 0.00 0.00 0.00 0.00 0.00 0.00 0.00 0.00 0.00 0.00 0.00 0.00 0.00 0.00 0.00 0.00 0.00 0.00 0.00 0.00 0.00 0.00,SOD  ,6,,,,,,,,,,,,,,,,,,,,,,,,,551,1913,03-04-2007 00:00
72278023183,16-08-2024 00:51,FM-15,7,,N,0.5,mi,"TEMP, PRECIP",1107,,"MXMN, SRG",33.4442,-112.0247,CONTRACTOR,,,,,,,,,,,,,,,,,,,,,,,,,,,,29.79,49,99,0,,,,18,29.71,CLR:00,28.62,10,68,280,,6,,,,,,,,,,,,,,,,,,,,,,,,,,,,,,,,,,,,,MET09508/16/24 00:51:02 METAR KPHX 160751Z 28005KT 10SM CLR 37/09 A2979 RMK AO2 SLP062 T03720094 (AR),FM-15,7,,,,,,,,,,,,,,,,,,,,,,,,,,,03-04-2007 00:00
72278023183,16-08-2024 01:51,FM-15,7,,N,0.5,mi,"TEMP, PRECIP",1107,,"MXMN, SRG",33.4442,-112.0247,CONTRACTOR,,,,,,,,,,,,,,,,,,,,,,,,,,,,29.79,50,98,0,,-0.01,3,20,29.72,CLR:00,28.62,10,68,280,,10,,,,,,,,,,,,,,,,,,,,,,,,,,,,,,,,,,,,,MET10108/16/24 01:51:02 METAR KPHX 160851Z 28009KT 10SM CLR 37/10 A2979 RMK AO2 SLP064 T03670100 53004 (AR),FM-15,7,,,,,,,,,,,,,,,,,,,,,,,,,,,03-04-2007 00:00
72278023183,16-08-2024 02:00,FM-12,4,,N,0.5,mi,"TEMP, PRECIP",1107,,"MXMN, SRG",33.4442,-112.0247,CONTRACTOR,,,,,,,,,,,,,,,,,,,,,,,,,,,,,50,98,,,-0.01,3,20,29.72,,28.62,9.94,68,280,,10,,,,,,,,,,,,,,,,,,,,,,,,,,,,,,,,,,,,,SYN06472278 32966 02809 10367 20100 39692 40064 53004 90851 555 91609=,FM-12,4,,,,,,,,,,,,,,,,,,,,,,,,,,,03-04-2007 00:00
72278023183,16-08-2024 02:51,FM-15,7,,N,0.5,mi,"TEMP, PRECIP",1107,,"MXMN, SRG",33.4442,-112.0247,CONTRACTOR,,,,,,,,,,,,,,,,,,,,,,,,,,,,29.8,51,97,0,,,,21,29.73,CLR:00,28.63,10,68,290,,9,,,,,,,,,,,,,,,,,,,,,,,,,,,,,,,,,,,,,MET09508/16/24 02:51:02 METAR KPHX 160951Z 29008KT 10SM CLR 36/11 A2980 RMK AO2 SLP068 T03610106 (AR),FM-15,7,,,,,,,,,,,,,,,,,,,,,,,,,,,03-04-2007 00:00
72278023183,16-08-2024 03:51,FM-15,7,,N,0.5,mi,"TEMP, PRECIP",1107,,"MXMN, SRG",33.4442,-112.0247,CONTRACTOR,,,,,,,,,,,,,,,,,,,,,,,,,,,,29.82,52,94,0,,,,24,29.74,CLR:00,28.65,10,68,250,,5,,,,,,,,,,,,,,,,,,,,,,,,,,,,,,,,,,,,,MET09508/16/24 03:51:02 METAR KPHX 161051Z 25004KT 10SM CLR 34/11 A2982 RMK AO2 SLP072 T03440111 (AR),FM-15,7,,,,,,,,,,,,,,,,,,,,,,,,,,,03-04-2007 00:00
72278023183,16-08-2024 04:51,FM-15,7,,N,0.5,mi,"TEMP, PRECIP",1107,,"MXMN, SRG",33.4442,-112.0247,CONTRACTOR,,,,,,,,,,,,,,,,,,,,,,,,,,,,29.83,52,95,0,,-0.04,3,23,29.76,CLR:00,28.66,10,68,280,,6,,,,,,,,,,,,,,,,,,,,,,,,,,,,,,,,,,,,,MET11308/16/24 04:51:02 METAR KPHX 161151Z 28005KT 10SM CLR 35/11 A2983 RMK AO2 SLP077 T03500111 10378 20344 53013 (AR),FM-15,7,,,,,,,,,,,,,,,,,,,,,,,,,,,03-04-2007 00:00
72278023183,16-08-2024 05:00,FM-12,4,,N,0.5,mi,"TEMP, PRECIP",1107,,"MXMN, SRG",33.4442,-112.0247,CONTRACTOR,,,,,,,,,,,,,,,,,,,,,,,,,,,,,52,95,,,-0.04,3,23,29.76,,28.66,9.94,68,280,,6,,,,,,,,,,,,,,,,,,,,,,,,,,,,,,,,,,,,,SYN08072278 32966 02805 10350 20111 39705 40077 53013 91151 333 10444 20344 555 91612=,FM-12,4,,,,,,,,,,,,,,,,,,,,,,,,,,,03-04-2007 00:00
72278023183,16-08-2024 05:51,FM-15,7,,N,0.5,mi,"TEMP, PRECIP",1107,,"MXMN, SRG",33.4442,-112.0247,CONTRACTOR,,,,,,,,,,,,,,,,,,,,,,,,,,,,29.87,53,94,0,,,,25,29.8,FEW:02 140 FEW:02 180 FEW:02 230,28.69,10,68,0,,0,,,,,,,,,,,,,,,,,,,,,,,,,,,,,,,,,,,,,MET11208/16/24 05:51:02 METAR KPHX 161251Z 00000KT 10SM FEW140 FEW180 FEW230 34/12 A2987 RMK AO2 SLP091 T03440117 (AR),FM-15,7,,,,,,,,,,,,,,,,,,,,,,,,,,,03-04-2007 00:00
72278023183,16-08-2024 06:51,FM-15,7,,N,0.5,mi,"TEMP, PRECIP",1107,,"MXMN, SRG",33.4442,-112.0247,CONTRACTOR,,,,,,,,,,,,,,,,,,,,,,,,,,,,29.89,52,94,0,,,,24,29.82,FEW:02 140 FEW:02 180 FEW:02 230,28.71,10,68,300,,10,,,,,,,,,,,,,,,,,,,,,,,,,,,,,,,,,,,,,MET11208/16/24 06:51:02 METAR KPHX 161351Z 30009KT 10SM FEW140 FEW180 FEW230 34/11 A2989 RMK AO2 SLP097 T03440111 (AR),FM-15,7,,,,,,,,,,,,,,,,,,,,,,,,,,,03-04-2007 00:00
72278023183,16-08-2024 07:51,FM-15,7,,N,0.5,mi,"TEMP, PRECIP",1107,,"MXMN, SRG",33.4442,-112.0247,CONTRACTOR,,,,,,,,,,,,,,,,,,,,,,,,,,,,29.91,55,95,0,,-0.07,1,26,29.84,FEW:02 140 FEW:02 180 FEW:02 230,28.73,9,69,300,22,11,,,,,,,,,,,,,,,,,,,,,,,,,,,,,,,,,,,,,MET12008/16/24 07:51:02 METAR KPHX 161451Z 30010G19KT 9SM FEW140 FEW180 FEW230 35/13 A2991 RMK AO2 SLP104 T03500128 51025 (SH),FM-15,7,,,,,,,,,,,,,,,,,,,,,,,,,,,03-04-2007 00:00
72278023183,16-08-2024 08:00,FM-12,4,,N,0.5,mi,"TEMP, PRECIP",1107,,"MXMN, SRG",33.4442,-112.0247,CONTRACTOR,,,,,,,,,,,,,,,,,,,,,,,,,,,,,55,95,,,-0.07,1,26,29.84,,28.74,8.7,69,300,,11,,,,,,,,,,,,,,,,,,,,,,,,,,,,,,,,,,,,,SYN07472278 32964 23010 10350 20128 39731 40104 51025 91451 333 91019 555 91615=,FM-12,4,,,,,,,,,,,,,,,,,,,,,,,,,,,03-04-2007 00:00
72278023183,16-08-2024 08:51,FM-15,7,,N,0.5,mi,"TEMP, PRECIP",1107,,"MXMN, SRG",33.4442,-112.0247,CONTRACTOR,,,,,,,,,,,,,,,,,,,,,,,,,,,,29.92,56,96,0,,,,26,29.85,FEW:02 140 FEW:02 180 FEW:02 230,28.74,10,70,320,,10,,,,,,,,,,,,,,,,,,,,,,,,,,,,,,,,,,,,,MET11208/16/24 08:51:02 METAR KPHX 161551Z 32009KT 10SM FEW140 FEW180 FEW230 36/13 A2992 RMK AO2 SLP107 T03560133 (SH),FM-15,7,,,,,,,,,,,,,,,,,,,,,,,,,,,03-04-2007 00:00
72278023183,16-08-2024 09:51,FM-15,7,,N,0.5,mi,"TEMP, PRECIP",1107,,"MXMN, SRG",33.4442,-112.0247,CONTRACTOR,,,,,,,,,,,,,,,,,,,,,,,,,,,,29.91,56,98,0,,,,24,29.84,FEW:02 160 FEW:02 200 FEW:02 250,28.73,10,71,270,,5,,,,,,,,,,,,,,,,,,,,,,,,,,,,,,,,,,,,,MET11408/16/24 09:51:02 METAR KPHX 161651Z 27004KT 10SM FEW160 FEW200 FEW250 37/13 A2991 RMK AO2 SLP106 T03670133 $ (SH),FM-15,7,,,,,,,,,,,,,,,,,,,,,,,,,,,03-04-2007 00:00
72278023183,16-08-2024 10:51,FM-15,7,,N,0.5,mi,"TEMP, PRECIP",1107,,"MXMN, SRG",33.4442,-112.0247,CONTRACTOR,,,,,,,,,,,,,,,,,,,,,,,,,,,,29.9,52,101,0,,0.01,8,19,29.83,FEW:02 160 FEW:02 250,28.72,10,70,VRB,,5,,,,,,,,,,,,,,,,,,,,,,,,,,,,,,,,,,,,,MET12308/16/24 10:51:02 METAR KPHX 161751Z VRB04KT 10SM FEW160 FEW250 38/11 A2990 RMK AO2 SLP102 T03830111 10383 20333 58002 (SH),FM-15,7,,,,,,,,,,,,,,,,,,,,,,,,,,,03-04-2007 00:00
72278023183,16-08-2024 11:00,FM-12,4,,N,0.5,mi,"TEMP, PRECIP",1107,,"MXMN, SRG",33.4442,-112.0247,CONTRACTOR,,,,,,,,,,,,,,,,,,,,,,,,,,,,,52,101,,,0.01,8,19,29.83,,28.73,9.94,70,,,5,,,,,,,,,,,,,,,,,,,,,,,,,,,,,,,,,,,,,SYN08072278 32966 2//04 10383 20111 39728 40102 58002 91751 333 10383 20333 555 91618=,FM-12,4,,,,,,,,,,,,,,,,,,,,,,,,,,,03-04-2007 00:00
72278023183,16-08-2024 11:51,FM-15,7,,N,0.5,mi,"TEMP, PRECIP",1107,,"MXMN, SRG",33.4442,-112.0247,CONTRACTOR,,,,,,,,,,,,,,,,,,,,,,,,,,,,29.88,52,102,0,,,,19,29.81,FEW:02 180 FEW:02 270,28.7,10,70,0,,0,,,,,,,,,,,,,,,,,,,,,,,,,,,,,,,,,,,,,MET10508/16/24 11:51:02 METAR KPHX 161851Z 00000KT 10SM FEW180 FEW270 39/11 A2988 RMK AO2 SLP094 T03890111 (SH),FM-15,7,,,,,,,,,,,,,,,,,,,,,,,,,,,03-04-2007 00:00
72278023183,16-08-2024 12:51,FM-15,7,,N,0.5,mi,"TEMP, PRECIP",1107,,"MXMN, SRG",33.4442,-112.0247,CONTRACTOR,,,,,,,,,,,,,,,,,,,,,,,,,,,,29.86,51,106,0,,,,16,29.78,FEW:02 80 FEW:02 180 SCT:04 270,28.69,10,71,VRB,,3,,,,,,,,,,,,,,,,,,,,,,,,,,,,,,,,,,,,,MET11208/16/24 12:51:02 METAR KPHX 161951Z VRB03KT 10SM FEW080 FEW180 SCT270 41/11 A2986 RMK AO2 SLP086 T04110106 (SH),FM-15,7,,,,,,,,,,,,,,,,,,,,,,,,,,,03-04-2007 00:00
72278023183,16-08-2024 13:51,FM-15,7,,N,0.5,mi,"TEMP, PRECIP",1107,,"MXMN, SRG",33.4442,-112.0247,CONTRACTOR,,,,,,,,,,,,,,,,,,,,,,,,,,,,29.83,50,109,0,,0.07,8,14,29.75,FEW:02 80 FEW:02 180 SCT:04 270,28.66,10,71,VRB,,3,,,,,,,,,,,,,,,,,,,,,,,,,,,,,,,,,,,,,MET11808/16/24 13:51:02 METAR KPHX 162051Z VRB03KT 10SM FEW080 FEW180 SCT270 43/10 A2983 RMK AO2 SLP076 T04280100 58024 (SH),FM-15,7,,,,,,,,,,,,,,,,,,,,,,,,,,,03-04-2007 00:00
72278023183,16-08-2024 14:00,FM-12,4,,N,0.5,mi,"TEMP, PRECIP",1107,,"MXMN, SRG",33.4442,-112.0247,CONTRACTOR,,,,,,,,,,,,,,,,,,,,,,,,,,,,,50,109,,,0.07,8,14,29.75,74,28.66,9.94,71,,,3,,,,,,,,,,,,,,,,,,,,,,,,,,,,,,,,,,,,,SYN06472278 32866 4//03 10428 20100 39705 40076 58024 92051 555 91621=,FM-12,4,,,,,,,,,,,,,,,,,,,,,,,,,,,03-04-2007 00:00
72278023183,16-08-2024 14:51,FM-15,7,,N,0.5,mi,"TEMP, PRECIP",1107,,"MXMN, SRG",33.4442,-112.0247,CONTRACTOR,,,,,,,,,,,,,,,,,,,,,,,,,,,,29.8,50,111,0,,,,13,29.72,FEW:02 80 FEW:02 180 SCT:04 250,28.63,10,72,340,,3,,,,,,,,,,,,,,,,,,,,,,,,,,,,,,,,,,,,,MET11308/16/24 14:51:02 METAR KPHX 162151Z 34003KT 10SM FEW080 FEW180 SCT250 44/10 A2980 RMK AO2 SLP066 T04390100 (ADH),FM-15,7,,,,,,,,,,,,,,,,,,,,,,,,,,,03-04-2007 00:00
72278023183,16-08-2024 15:51,FM-15,7,,N,0.5,mi,"TEMP, PRECIP",1107,,"MXMN, SRG",33.4442,-112.0247,CONTRACTOR,,,,,,,,,,,,,,,,,,,,,,,,,,,,29.77,51,111,0,,,,14,29.7,FEW:02 80 FEW:02 180 SCT:04 250,28.6,10,72,310,,11,,,,,,,,,,,,,,,,,,,,,,,,,,,,,,,,,,,,,MET11308/16/24 15:51:02 METAR KPHX 162251Z 31010KT 10SM FEW080 FEW180 SCT250 44/11 A2977 RMK AO2 SLP056 T04390106 (ADH),FM-15,7,,,,,,,,,,,,,,,,,,,,,,,,,,,03-04-2007 00:00
72278023183,16-08-2024 16:51,FM-15,7,,N,0.5,mi,"TEMP, PRECIP",1107,,"MXMN, SRG",33.4442,-112.0247,CONTRACTOR,,,,,,,,,,,,,,,,,,,,,,,,,,,,29.75,51,110,0,,0.07,6,14,29.68,FEW:02 80 FEW:02 180 SCT:04 250,28.58,10,72,280,16,13,,,,,,,,,,,,,,,,,,,,,,,,,,,,,,,,,,,,,MET13408/16/24 16:51:02 METAR KPHX 162351Z 28011G14KT 10SM FEW080 FEW180 SCT250 43/11 A2975 RMK AO2 SLP050 T04330106 10450 20383 56025 (ADH),FM-15,7,,,,,,,,,,,,,,,,,,,,,,,,,,,03-04-2007 00:00
72278023183,16-08-2024 17:00,FM-12,4,,N,0.5,mi,"TEMP, PRECIP",1107,,"MXMN, SRG",33.4442,-112.0247,CONTRACTOR,,,,,,,,,,,,,,,,,,,,,,,,,,,,,51,110,,,0.07,6,14,29.68,74,28.58,9.94,72,280,,13,,,,,,,,,,,,,,,,,,,,,,,,,,,,,,,,,,,,,SYN08672278 32866 42811 10433 20106 39679 40050 56025 92351 333 10450 20344 91014 555 91700=,FM-12,4,,,,,,,,,,,,,,,,,,,,,,,,,,,03-04-2007 00:00
72278023183,16-08-2024 17:51,FM-15,7,,N,0.5,mi,"TEMP, PRECIP",1107,,"MXMN, SRG",33.4442,-112.0247,CONTRACTOR,,,,,,,,,,,,,,,,,,,,,,,,,,,,29.74,51,109,0,,,,15,29.67,FEW:02 80 FEW:02 180 FEW:02 250,28.57,10,72,320,,9,,,,,,,,,,,,,,,,,,,,,,,,,,,,,,,,,,,,,MET10708/16/24 17:51:01 METAR KPHX 170051Z 32008KT 10SM FEW080 FEW180 FEW250 43/11 A2974 RMK AO2 SLP048 T04280106,FM-15,7,,,,,,,,,,,,,,,,,,,,,,,,,,,03-04-2007 00:00
72278023183,16-08-2024 18:51,FM-15,7,,N,0.5,mi,"TEMP, PRECIP",1107,,"MXMN, SRG",33.4442,-112.0247,CONTRACTOR,,,,,,,,,,,,,,,,,,,,,,,,,,,,29.74,51,108,0,,,,15,29.67,FEW:02 80 FEW:02 180 FEW:02 250,28.57,10,71,260,,11,,,,,,,,,,,,,,,,,,,,,,,,,,,,,,,,,,,,,MET10708/16/24 18:51:01 METAR KPHX 170151Z 26010KT 10SM FEW080 FEW180 FEW250 42/11 A2974 RMK AO2 SLP047 T04220106,FM-15,7,,,,,,,,,,,,,,,,,,,,,,,,,,,03-04-2007 00:00
72278023183,16-08-2024 19:51,FM-15,7,,N,0.5,mi,"TEMP, PRECIP",1107,,"MXMN, SRG",33.4442,-112.0247,CONTRACTOR,,,,,,,,,,,,,,,,,,,,,,,,,,,,29.76,51,106,0,,-0.01,3,16,29.69,FEW:02 80 FEW:02 180 FEW:02 250,28.59,10,71,250,,9,,,,,,,,,,,,,,,,,,,,,,,,,,,,,,,,,,,,,MET15408/16/24 19:51:02 METAR KPHX 170251Z 25008KT 10SM FEW080 FEW180 FEW250 41/11 A2976 RMK AO2 SLP055 FRQ LTGIC DSNT NE AND S CB DSNT NE AND S T04110106 53004,FM-15,7,,,,,,,,,,,,,,,,,,,,,,,,,,,03-04-2007 00:00
72278023183,16-08-2024 20:00,FM-12,4,,N,0.5,mi,"TEMP, PRECIP",1107,,"MXMN, SRG",33.4442,-112.0247,CONTRACTOR,,,,,,,,,,,,,,,,,,,,,,,,,,,,,51,106,,,-0.01,3,16,29.69,74,28.59,9.94,71,250,,9,,,,,,,,,,,,,,,,,,,,,,,,,,,,,,,,,,,,,SYN06472278 32866 22508 10411 20106 39682 40055 53004 90251 555 91703=,FM-12,4,,,,,,,,,,,,,,,,,,,,,,,,,,,03-04-2007 00:00
72278023183,16-08-2024 20:51,FM-15,7,,N,0.5,mi,"TEMP, PRECIP",1107,,"MXMN, SRG",33.4442,-112.0247,CONTRACTOR,,,,,,,,,,,,,,,,,,,,,,,,,,,,29.78,51,106,0,,,,16,29.7,FEW:02 80 FEW:02 250,28.61,10,71,270,,9,,,,,,,,,,,,,,,,,,,,,,,,,,,,,,,,,,,,,MET12908/16/24 20:51:02 METAR KPHX 170351Z 27008KT 10SM FEW080 FEW250 41/11 A2978 RMK AO2 SLP059 FRQ LTGIC DSNT NE CB DSNT NE T04110106,FM-15,7,,,,,,,,,,,,,,,,,,,,,,,,,,,03-04-2007 00:00
72278023183,16-08-2024 21:51,FM-15,7,,N,0.5,mi,"TEMP, PRECIP",1107,,"MXMN, SRG",33.4442,-112.0247,CONTRACTOR,,,,,,,,,,,,,,,,,,,,,,,,,,,,29.78,52,103,0,,,,18,29.71,FEW:02 150 SCT:04 250,28.61,10,70,260,,7,,,,,,,,,,,,,,,,,,,,,,,,,,,,,,,,,,,,,MET10008/16/24 21:51:02 METAR KPHX 170451Z 26006KT 10SM FEW150 SCT250 39/11 A2978 RMK AO2 SLP061 T03940111,FM-15,7,,,,,,,,,,,,,,,,,,,,,,,,,,,03-04-2007 00:00
72278023183,16-08-2024 22:51,FM-15,7,,N,0.5,mi,"TEMP, PRECIP",1107,,"MXMN, SRG",33.4442,-112.0247,CONTRACTOR,,,,,,,,,,,,,,,,,,,,,,,,,,,,29.78,52,104,0,,-0.01,0,18,29.7,FEW:02 150 BKN:07 210,28.61,10,71,280,,7,,,,,,,,,,,,,,,,,,,,,,,,,,,,,,,,,,,,,MET11808/16/24 22:51:02 METAR KPHX 170551Z 28006KT 10SM FEW150 BKN210 40/11 A2978 RMK AO2 SLP059 T04000111 10439 20394 50005,FM-15,7,,,,,,,,,,,,,,,,,,,,,,,,,,,03-04-2007 00:00
72278023183,16-08-2024 23:00,FM-12,4,,N,0.5,mi,"TEMP, PRECIP",1107,,"MXMN, SRG",33.4442,-112.0247,CONTRACTOR,,,,,,,,,,,,,,,,,,,,,,,,,,,,,52,104,,,0.01,9,18,29.7,,28.61,9.94,71,280,,7,,,,,,,,,,,,,,,,,,,,,,,,,,,,,,,,,,,,,SYN08072278 32966 62806 10400 20111 39689 40059 50005 90551 333 10439 20344 555 91706=,FM-12,4,,,,,,,,,,,,,,,,,,,,,,,,,,,03-04-2007 00:00
72278023183,16-08-2024 23:51,FM-15,7,,N,0.5,mi,"TEMP, PRECIP",1107,,"MXMN, SRG",33.4442,-112.0247,CONTRACTOR,,,,,,,,,,,,,,,,,,,,,,,,,,,,29.8,58,101,0,,,,24,29.72,FEW:02 150 BKN:07 210,28.63,10,72,260,,10,,,,,,,,,,,,,,,,,,,,,,,,,,,,,,,,,,,,,MET14008/16/24 23:51:01 METAR KPHX 170651Z 26009KT 10SM FEW150 BKN210 38/14 A2980 RMK AO2 SLP066 OCNL LTGCGIC DSNT E CB DSNT E T03830144 404500333,FM-15,7,,,,,,,,,,,,,,,,,,,,,,,,,,,03-04-2007 00:00
72278023183,16-08-2024 23:59,SOD  ,6,,N,0.5,mi,"TEMP, PRECIP",1107,,"MXMN, SRG",33.4442,-112.0247,CONTRACTOR,,,,,,52,103,19,29.75,28.64,70,7.3,38,9.4,0,113,92,340,25,0,,,270,15,,,,,,,,,,,,,,,,,,,,,,,,,,,,,,,,,,,,,,,,,,,,,,,,,,,,,,,,SOD73924 HR PRECIPITATION (IN): 0.00 SNOW DEPTH (IN):0     24 HR SNOWFALL (IN):0.0  24 HR MAX TEMP (F):11324 HR MIN TEMP (F): 92AVERAGE STATION PRESSURE:28.635 MINIMUM SEA LEVEL PRESSURE:29.67 TIME OF OCCURRENCE:1918 PEAK WIND SPEED (MPH): 25 PEAK WIND DIR (DEG):340 PEAK WIND TIME (LST):      FASTEST 2MIN SPEED (MPH): 15FASTEST 2MIN DIR (DEG):270 FASTEST 2MIN TIME (LST):     AVERAGE WIND SPEED (MPH): 7.3 24 HR AVG TEMP (F):103DEPART FROM NORMAL:  9  HEATING DEGREE DAYS:  0 COOLING DEGREE DAYS: 38 LATEST DAY MAX TEMP (0700-1900 LST):113 LATEST NIGHT MIN TEMP(1900-0800 LST):92 HOURLY INCREMENTAL PRECIPITATION VALUES (IN):.00 0.00 0.00 0.00 0.00 0.00 0.00 0.00 0.00 0.00 0.00 0.00 0.00 0.00 0.00 0.00 0.00 0.00 0.00 0.00 0.00 0.00 0.00 0.00,SOD  ,6,,,,,,,,,,,,,,,,,,,,,,,,,552,1912,03-04-2007 00:00
72278023183,17-08-2024 00:51,FM-15,7,,N,0.5,mi,"TEMP, PRECIP",1107,,"MXMN, SRG",33.4442,-112.0247,CONTRACTOR,,,,,,,,,,,,,,,,,,,,,,,,,,,,29.81,60,99,0,,,,28,29.74,FEW:02 150 BKN:07 190,28.64,10,73,240,,7,,,,,,,,,,,,,,,,,,,,,,,,,,,,,,,,,,,,,MET10608/17/24 00:51:02 METAR KPHX 170751Z 24006KT 10SM FEW150 BKN190 37/16 A2981 RMK AO2 SLP071 T03720156 (ANH),FM-15,7,,,,,,,,,,,,,,,,,,,,,,,,,,,03-04-2007 00:00
72278023183,17-08-2024 01:51,FM-15,7,,N,0.5,mi,"TEMP, PRECIP",1107,,"MXMN, SRG",33.4442,-112.0247,CONTRACTOR,,,,,,,,,,,,,,,,,,,,,,,,,,,,29.84,59,98,0,,-0.06,3,27,29.76,FEW:02 130 SCT:04 160 BKN:07 190,28.66,10,72,110,,7,,,,,,,,,,,,,,,,,,,,,,,,,,,,,,,,,,,,,MET14908/17/24 01:51:02 METAR KPHX 170851Z 11006KT 10SM FEW130 SCT160 BKN190 37/15 A2984 RMK AO2 SLP079 OCNL LTGCG DSNT NE CB DSNT NE T03670150 53019 (ANH),FM-15,7,,,,,,,,,,,,,,,,,,,,,,,,,,,03-04-2007 00:00
72278023183,17-08-2024 02:00,FM-12,4,,N,0.5,mi,"TEMP, PRECIP",1107,,"MXMN, SRG",33.4442,-112.0247,CONTRACTOR,,,,,,,,,,,,,,,,,,,,,,,,,,,,,59,98,,,-0.06,3,27,29.76,,28.67,9.94,72,110,,7,,,,,,,,,,,,,,,,,,,,,,,,,,,,,,,,,,,,,SYN06472278 32966 61106 10367 20150 39708 40079 53019 90851 555 91709=,FM-12,4,,,,,,,,,,,,,,,,,,,,,,,,,,,03-04-2007 00:00
72278023183,17-08-2024 02:51,FM-15,7,,N,0.5,mi,"TEMP, PRECIP",1107,,"MXMN, SRG",33.4442,-112.0247,CONTRACTOR,,,,,,,,,,,,,,,,,,,,,,,,,,,,29.84,58,97,0,,,,27,29.77,FEW:02 130 FEW:02 160 SCT:04 190,28.66,10,71,100,,5,,,,,,,,,,,,,,,,,,,,,,,,,,,,,,,,,,,,,MET11308/17/24 02:51:02 METAR KPHX 170951Z 10004KT 10SM FEW130 FEW160 SCT190 36/14 A2984 RMK AO2 SLP081 T03610144 (ANH),FM-15,7,,,,,,,,,,,,,,,,,,,,,,,,,,,03-04-2007 00:00
72278023183,17-08-2024 03:51,FM-15,7,,N,0.5,mi,"TEMP, PRECIP",1107,,"MXMN, SRG",33.4442,-112.0247,CONTRACTOR,,,,,,,,,,,,,,,,,,,,,,,,,,,,29.84,57,97,0,,,,26,29.77,FEW:02 200,28.66,10,71,60,,8,,,,,,,,,,,,,,,,,,,,,,,,,,,,,,,,,,,,,MET09908/17/24 03:51:02 METAR KPHX 171051Z 06007KT 10SM FEW200 36/14 A2984 RMK AO2 SLP080 T03610139 (ANH),FM-15,7,,,,,,,,,,,,,,,,,,,,,,,,,,,03-04-2007 00:00
72278023183,17-08-2024 04:51,FM-15,7,,N,0.5,mi,"TEMP, PRECIP",1107,,"MXMN, SRG",33.4442,-112.0247,CONTRACTOR,,,,,,,,,,,,,,,,,,,,,,,,,,,,29.84,57,96,0,,0,0,27,29.76,FEW:02 140 SCT:04 180 SCT:04 200,28.66,10,71,50,,3,,,,,,,,,,,,,,,,,,,,,,,,,,,,,,,,,,,,,MET13108/17/24 04:51:02 METAR KPHX 171151Z 05003KT 10SM FEW140 SCT180 SCT200 36/14 A2984 RMK AO2 SLP079 T03560139 10400 20350 50000 (ANH),FM-15,7,,,,,,,,,,,,,,,,,,,,,,,,,,,03-04-2007 00:00
72278023183,17-08-2024 05:00,FM-12,4,,N,0.5,mi,"TEMP, PRECIP",1107,,"MXMN, SRG",33.4442,-112.0247,CONTRACTOR,,,,,,,,,,,,,,,,,,,,,,,,,,,,,57,96,,,0,9,27,29.76,,28.67,9.94,71,50,,3,,,,,,,,,,,,,,,,,,,,,,,,,,,,,,,,,,,,,SYN08072278 32966 40503 10356 20139 39708 40079 50000 91151 333 10450 20350 555 91712=,FM-12,4,,,,,,,,,,,,,,,,,,,,,,,,,,,03-04-2007 00:00
72278023183,17-08-2024 05:51,FM-15,7,,N,0.5,mi,"TEMP, PRECIP",1107,,"MXMN, SRG",33.4442,-112.0247,CONTRACTOR,,,,,,,,,,,,,,,,,,,,,,,,,,,,29.85,57,94,0,,,,29,29.78,FEW:02 80 FEW:02 120 SCT:04 170,28.68,10,70,100,,7,,,,,,,,,,,,,,,,,,,,,,,,,,,,,,,,,,,,,MET11908/17/24 05:51:02 METAR KPHX 171251Z 10006KT 10SM FEW080 FEW120 SCT170 34/14 A2985 RMK AO2 SLP086 VIRGA T03440139 (ANH),FM-15,7,,,,,,,,,,,,,,,,,,,,,,,,,,,03-04-2007 00:00
72278023183,17-08-2024 06:51,FM-15,7,,N,0.5,mi,"TEMP, PRECIP",1107,,"MXMN, SRG",33.4442,-112.0247,CONTRACTOR,,,,,,,,,,,,,,,,,,,,,,,,,,,,29.88,58,94,0,,,,30,29.81,FEW:02 80 FEW:02 120 SCT:04 170,28.7,10,71,110,,5,,,,,,,,,,,,,,,,,,,,,,,,,,,,,,,,,,,,,MET11208/17/24 06:51:02 METAR KPHX 171351Z 11004KT 10SM FEW080 FEW120 SCT170 34/14 A2988 RMK AO2 SLP094 T03440144 (JH),FM-15,7,,,,,,,,,,,,,,,,,,,,,,,,,,,03-04-2007 00:00
72278023183,17-08-2024 07:51,FM-15,7,,N,0.5,mi,"TEMP, PRECIP",1107,,"MXMN, SRG",33.4442,-112.0247,CONTRACTOR,,,,,,,,,,,,,,,,,,,,,,,,,,,,29.89,58,96,0,,-0.05,1,28,29.82,FEW:02 90 FEW:02 140 FEW:02 200,28.71,10,71,120,,8,,,,,,,,,,,,,,,,,,,,,,,,,,,,,,,,,,,,,MET11808/17/24 07:51:02 METAR KPHX 171451Z 12007KT 10SM FEW090 FEW140 FEW200 36/14 A2989 RMK AO2 SLP098 T03560144 51017 (JH),FM-15,7,,,,,,,,,,,,,,,,,,,,,,,,,,,03-04-2007 00:00
72278023183,17-08-2024 08:00,FM-12,4,,N,0.5,mi,"TEMP, PRECIP",1107,,"MXMN, SRG",33.4442,-112.0247,CONTRACTOR,,,,,,,,,,,,,,,,,,,,,,,,,,,,,58,96,,,-0.05,1,28,29.82,,28.72,9.94,71,120,,8,,,,,,,,,,,,,,,,,,,,,,,,,,,,,,,,,,,,,SYN06472278 32966 21207 10356 20144 39725 40098 51017 91451 555 91715=,FM-12,4,,,,,,,,,,,,,,,,,,,,,,,,,,,03-04-2007 00:00
72278023183,17-08-2024 08:51,FM-15,7,,N,0.5,mi,"TEMP, PRECIP",1107,,"MXMN, SRG",33.4442,-112.0247,CONTRACTOR,,,,,,,,,,,,,,,,,,,,,,,,,,,,29.89,58,99,0,,,,26,29.82,FEW:02 90 FEW:02 140 FEW:02 250,28.71,10,72,110,,5,,,,,,,,,,,,,,,,,,,,,,,,,,,,,,,,,,,,,MET11208/17/24 08:51:02 METAR KPHX 171551Z 11004KT 10SM FEW090 FEW140 FEW250 37/14 A2989 RMK AO2 SLP098 T03720144 (JH),FM-15,7,,,,,,,,,,,,,,,,,,,,,,,,,,,03-04-2007 00:00
72278023183,17-08-2024 09:51,FM-15,7,,N,0.5,mi,"TEMP, PRECIP",1107,,"MXMN, SRG",33.4442,-112.0247,CONTRACTOR,,,,,,,,,,,,,,,,,,,,,,,,,,,,29.89,57,100,0,,,,24,29.82,FEW:02 90 FEW:02 140 FEW:02 250,28.71,10,72,80,,3,,,,,,,,,,,,,,,,,,,,,,,,,,,,,,,,,,,,,MET11208/17/24 09:51:02 METAR KPHX 171651Z 08003KT 10SM FEW090 FEW140 FEW250 38/14 A2989 RMK AO2 SLP097 T03780139 (JH),FM-15,7,,,,,,,,,,,,,,,,,,,,,,,,,,,03-04-2007 00:00
72278023183,17-08-2024 10:51,FM-15,7,,N,0.5,mi,"TEMP, PRECIP",1107,,"MXMN, SRG",33.4442,-112.0247,CONTRACTOR,,,,,,,,,,,,,,,,,,,,,,,,,,,,29.87,57,102,0,,0.01,8,23,29.8,FEW:02 90 FEW:02 140 FEW:02 250,28.69,10,72,340,,6,,,,,,,,,,,,,,,,,,,,,,,,,,,,,,,,,,,,,MET13208/17/24 10:51:02 METAR KPHX 171751Z 34005KT 10SM FEW090 FEW140 FEW250 39/14 A2987 RMK AO2 SLP091 T03890139 10400 20339 58005 $ (JH),FM-15,7,,,,,,,,,,,,,,,,,,,,,,,,,,,03-04-2007 00:00
72278023183,17-08-2024 11:00,FM-12,4,,N,0.5,mi,"TEMP, PRECIP",1107,,"MXMN, SRG",33.4442,-112.0247,CONTRACTOR,,,,,,,,,,,,,,,,,,,,,,,,,,,,,57,102,,,0.01,8,23,29.8,,28.7,9.94,72,340,,6,,,,,,,,,,,,,,,,,,,,,,,,,,,,,,,,,,,,,SYN08072278 32966 23405 10389 20139 39718 40091 58005 91751 333 10400 20339 555 91718=,FM-12,4,,,,,,,,,,,,,,,,,,,,,,,,,,,03-04-2007 00:00
72278023183,17-08-2024 11:51,FM-15,7,,N,0.5,mi,"TEMP, PRECIP",1107,,"MXMN, SRG",33.4442,-112.0247,CONTRACTOR,,,,,,,,,,,,,,,,,,,,,,,,,,,,29.85,59,106,0,,,,21,29.78,FEW:02 90 FEW:02 170 FEW:02 250,28.68,10,74,VRB,,3,,,,,,,,,,,,,,,,,,,,,,,,,,,,,,,,,,,,,MET12408/17/24 11:51:02 METAR KPHX 171851Z VRB03KT 10SM FEW090 FEW170 FEW250 41/15 A2985 RMK AO2 SLP085 CB DSNT N T04110150 $ (JH),FM-15,7,,,,,,,,,,,,,,,,,,,,,,,,,,,03-04-2007 00:00
72278023183,17-08-2024 12:51,FM-15,7,,N,0.5,mi,"TEMP, PRECIP",1107,,"MXMN, SRG",33.4442,-112.0247,CONTRACTOR,,,,,,,,,,,,,,,,,,,,,,,,,,,,29.83,58,108,0,,,,19,29.76,FEW:02 90 FEW:02 170 FEW:02 250,28.66,10,74,90,,5,,,,,,,,,,,,,,,,,,,,,,,,,,,,,,,,,,,,,MET12408/17/24 12:51:02 METAR KPHX 171951Z 09004KT 10SM FEW090 FEW170 FEW250 42/14 A2983 RMK AO2 SLP078 CB DSNT N T04220144 $ (JH),FM-15,7,,,,,,,,,,,,,,,,,,,,,,,,,,,03-04-2007 00:00
72278023183,17-08-2024 13:51,FM-15,7,,N,0.5,mi,"TEMP, PRECIP",1107,,"MXMN, SRG",33.4442,-112.0247,CONTRACTOR,,,,,,,,,,,,,,,,,,,,,,,,,,,,29.81,58,109,0,,0.06,8,19,29.73,FEW:02 90 FEW:02 170 FEW:02 250,28.64,10,75,VRB,,7,,,,,,,,,,,,,,,,,,,,,,,,,,,,,,,,,,,,,MET13108/17/24 13:51:02 METAR KPHX 172051Z VRB06KT 10SM FEW090 FEW170 FEW250 43/14 A2981 RMK AO2 SLP069 TCU DSNT N T04280144 58021 $ (JH),FM-15,7,,,,,,,,,,,,,,,,,,,,,,,,,,,03-04-2007 00:00
72278023183,17-08-2024 14:00,FM-12,4,,N,0.5,mi,"TEMP, PRECIP",1107,,"MXMN, SRG",33.4442,-112.0247,CONTRACTOR,,,,,,,,,,,,,,,,,,,,,,,,,,,,,58,109,,,0.06,8,19,29.73,,28.64,9.94,75,,,7,,,,,,,,,,,,,,,,,,,,,,,,,,,,,,,,,,,,,SYN06472278 32966 2//06 10428 20144 39698 40069 58021 92051 555 91721=,FM-12,4,,,,,,,,,,,,,,,,,,,,,,,,,,,03-04-2007 00:00
72278023183,17-08-2024 14:51,FM-15,7,,N,0.5,mi,"TEMP, PRECIP",1107,,"MXMN, SRG",33.4442,-112.0247,CONTRACTOR,,,,,,,,,,,,,,,,,,,,,,,,,,,,29.78,57,112,0,,,,17,29.7,FEW:02 90 FEW:02 170 FEW:02 250,28.61,10,75,VRB,,7,,,,,,,,,,,,,,,,,,,,,,,,,,,,,,,,,,,,,MET11508/17/24 14:51:02 METAR KPHX 172151Z VRB06KT 10SM FEW090 FEW170 FEW250 44/14 A2978 RMK AO2 SLP059 T04440139 $ (ADH),FM-15,7,,,,,,,,,,,,,,,,,,,,,,,,,,,03-04-2007 00:00
72278023183,17-08-2024 15:51,FM-15,7,,N,0.5,mi,"TEMP, PRECIP",1107,,"MXMN, SRG",33.4442,-112.0247,CONTRACTOR,,,,,,,,,,,,,,,,,,,,,,,,,,,,29.75,56,111,0,,,,16,29.67,FEW:02 90 FEW:02 170 FEW:02 250,28.58,10,74,170,,7,,,,,,,,,,,,,,,,,,,,,,,,,,,,,,,,,,,,,MET12808/17/24 15:51:02 METAR KPHX 172251Z 17006KT 10SM FEW090 FEW170 FEW250 44/13 A2975 RMK AO2 SLP048 CB DSNT SE-S T04390133 $ (ADH),FM-15,7,,,,,,,,,,,,,,,,,,,,,,,,,,,03-04-2007 00:00
72278023183,17-08-2024 16:51,FM-15,7,,N,0.5,mi,"TEMP, PRECIP",1107,,"MXMN, SRG",33.4442,-112.0247,CONTRACTOR,,,,,,,,,,,,,,,,,,,,,,,,,,,,29.72,55,110,0,,0.09,6,16,29.65,FEW:02 90 FEW:02 170 SCT:04 250,28.55,10,73,0,,0,,,,,,,,,,,,,,,,,,,,,,,,,,,,,,,,,,,,,MET16608/17/24 16:51:02 METAR KPHX 172351Z 00000KT 10SM FEW090 FEW170 SCT250 43/13 A2972 RMK AO2 SLP039 OCNL LTGCG DSNT SW CB DSNT SE-SW T04330128 10450 20389 56029 $ (ADH),FM-15,7,,,,,,,,,,,,,,,,,,,,,,,,,,,03-04-2007 00:00
72278023183,17-08-2024 17:00,FM-12,4,,N,0.5,mi,"TEMP, PRECIP",1107,,"MXMN, SRG",33.4442,-112.0247,CONTRACTOR,,,,,,,,,,,,,,,,,,,,,,,,,,,,,55,110,,,0.09,6,16,29.65,,28.55,9.94,73,0,,0,,,,,,,,,,,,,,,,,,,,,,,,,,,,,,,,,,,,,SYN08072278 32966 40000 10433 20128 39669 40039 56029 92351 333 10450 20350 555 91800=,FM-12,4,,,,,,,,,,,,,,,,,,,,,,,,,,,03-04-2007 00:00
72278023183,17-08-2024 17:51,FM-15,7,,N,0.5,mi,"TEMP, PRECIP",1107,,"MXMN, SRG",33.4442,-112.0247,CONTRACTOR,,,,,,,,,,,,,,,,,,,,,,,,,,,,29.71,56,109,0,,,,17,29.64,FEW:02 90 FEW:02 170 SCT:04 250,28.54,10,74,190,,6,,,,,,,,,,,,,,,,,,,,,,,,,,,,,,,,,,,,,MET10908/17/24 17:51:01 METAR KPHX 180051Z 19005KT 10SM FEW090 FEW170 SCT250 43/13 A2971 RMK AO2 SLP037 T04280133 $,FM-15,7,,,,,,,,,,,,,,,,,,,,,,,,,,,03-04-2007 00:00
72278023183,17-08-2024 18:51,FM-15,7,,N,0.5,mi,"TEMP, PRECIP",1107,,"MXMN, SRG",33.4442,-112.0247,CONTRACTOR,,,,,,,,,,,,,,,,,,,,,,,,,,,,29.72,58,108,0,,,,19,29.65,FEW:02 90 SCT:04 170 BKN:07 250,28.55,10,74,200,,11,,,,,,,,,,,,,,,,,,,,,,,,,,,,,,,,,,,,,MET11508/17/24 18:51:01 METAR KPHX 180151Z 20010KT 10SM FEW090 SCT170 BKN250 42/14 A2972 RMK AO2 SLP041 VIRGA T04220144 $,FM-15,7,,,,,,,,,,,,,,,,,,,,,,,,,,,03-04-2007 00:00
72278023183,17-08-2024 19:51,FM-15,7,,N,0.5,mi,"TEMP, PRECIP",1107,,"MXMN, SRG",33.4442,-112.0247,CONTRACTOR,,,,,,,,,,,,,,,,,,,,,,,,,,,,29.74,59,106,0,,-0.02,3,21,29.67,FEW:02 90 SCT:04 170 BKN:07 250,28.57,10,74,230,,14,,,,,,,,,,,,,,,,,,,,,,,,,,,,,,,,,,,,,MET14308/17/24 19:51:02 METAR KPHX 180251Z 23012KT 10SM FEW090 SCT170 BKN250 41/15 A2974 RMK AO2 SLP046 CONS LTGIC DSNT E CB DSNT E T04110150 53006 $,FM-15,7,,,,,,,,,,,,,,,,,,,,,,,,,,,03-04-2007 00:00
72278023183,17-08-2024 20:00,FM-12,4,,N,0.5,mi,"TEMP, PRECIP",1107,,"MXMN, SRG",33.4442,-112.0247,CONTRACTOR,,,,,,,,,,,,,,,,,,,,,,,,,,,,,59,106,,,-0.02,3,21,29.67,,28.57,9.94,74,230,,14,,,,,,,,,,,,,,,,,,,,,,,,,,,,,,,,,,,,,SYN06472278 32966 62312 10411 20150 39675 40046 53006 90251 555 91803=,FM-12,4,,,,,,,,,,,,,,,,,,,,,,,,,,,03-04-2007 00:00
72278023183,17-08-2024 20:51,FM-15,7,,N,0.5,mi,"TEMP, PRECIP",1107,,"MXMN, SRG",33.4442,-112.0247,CONTRACTOR,,,,,,,,,,,,,,,,,,,,,,,,,,,,29.76,57,106,0,,,,20,29.68,FEW:02 110 SCT:04 200 BKN:07 250,28.59,10,73,260,,15,,,,,,,,,,,,,,,,,,,,,,,,,,,,,,,,,,,,,MET13608/17/24 20:51:02 METAR KPHX 180351Z 26013KT 10SM FEW110 SCT200 BKN250 41/14 A2976 RMK AO2 SLP051 FRQ LTGIC DSNT E CB DSNT E T04110139 $,FM-15,7,,,,,,,,,,,,,,,,,,,,,,,,,,,03-04-2007 00:00
72278023183,17-08-2024 21:51,FM-15,7,,N,0.5,mi,"TEMP, PRECIP",1107,,"MXMN, SRG",33.4442,-112.0247,CONTRACTOR,,,,,,,,,,,,,,,,,,,,,,,,,,,,29.79,57,104,0,,,,21,29.71,FEW:02 110 SCT:04 200 BKN:07 250,28.62,10,73,260,,14,,,,,,,,,,,,,,,,,,,,,,,,,,,,,,,,,,,,,MET14008/17/24 21:51:01 METAR KPHX 180451Z 26012KT 10SM FEW110 SCT200 BKN250 40/14 A2979 RMK AO2 SLP062 FRQ LTGCGIC DSNT SE CB DSNT SE T04000139 $,FM-15,7,,,,,,,,,,,,,,,,,,,,,,,,,,,03-04-2007 00:00
72278023183,17-08-2024 22:51,FM-15,7,,N,0.5,mi,"TEMP, PRECIP",1107,,"MXMN, SRG",33.4442,-112.0247,CONTRACTOR,,,,,,,,,,,,,,,,,,,,,,,,,,,,29.8,58,102,0,,-0.06,1,23,29.72,FEW:02 110 SCT:04 190 BKN:07 250,28.63,10,73,270,,13,,,,,,,,,,,,,,,,,,,,,,,,,,,,,,,,,,,,,MET16408/17/24 22:51:02 METAR KPHX 180551Z 27011KT 10SM FEW110 SCT190 BKN250 39/14 A2980 RMK AO2 SLP066 FRQ LTGCGIC DSNT NE-SE CB DSNT NE-SE T03890144 10439 20389 51020 $,FM-15,7,,,,,,,,,,,,,,,,,,,,,,,,,,,03-04-2007 00:00
72278023183,17-08-2024 23:00,FM-12,4,,N,0.5,mi,"TEMP, PRECIP",1107,,"MXMN, SRG",33.4442,-112.0247,CONTRACTOR,,,,,,,,,,,,,,,,,,,,,,,,,,,,,58,102,,,-0.06,1,23,29.72,,28.63,9.94,73,270,,13,,,,,,,,,,,,,,,,,,,,,,,,,,,,,,,,,,,,,SYN08072278 32966 62711 10389 20144 39695 40066 51020 90551 333 10439 20350 555 91806=,FM-12,4,,,,,,,,,,,,,,,,,,,,,,,,,,,03-04-2007 00:00
72278023183,17-08-2024 23:51,FM-15,7,,N,0.5,mi,"TEMP, PRECIP",1107,,"MXMN, SRG",33.4442,-112.0247,CONTRACTOR,,,,,,,,,,,,,,,,,,,,,,,,,,,,29.81,58,101,0,,,,24,29.74,FEW:02 110 SCT:04 190 BKN:07 250,28.64,10,72,260,,13,,,,,,,,,,,,,,,,,,,,,,,,,,,,,,,,,,,,,MET16508/17/24 23:51:02 METAR KPHX 180651Z 26011KT 10SM FEW110 SCT190 BKN250 38/14 A2981 RMK AO2 SLP071 CONS LTGCGIC DSNT NE AND SE CB DSNT NE AND SE T03830144 404500339 $,FM-15,7,,,,,,,,,,,,,,,,,,,,,,,,,,,03-04-2007 00:00
72278023183,17-08-2024 23:59,SOD  ,6,,N,0.5,mi,"TEMP, PRECIP",1107,,"MXMN, SRG",33.4442,-112.0247,CONTRACTOR,,,,,,58,103,23,29.74,28.63,73,7.4,38,9.4,0,113,93,270,23,0,,,270,18,,,,,,,,,,,,,,,,,,,,,,,,,,,,,,,,,,,,,,,,,,,,,,,,,,,,,,,,SOD73924 HR PRECIPITATION (IN): 0.00 SNOW DEPTH (IN):0     24 HR SNOWFALL (IN):0.0  24 HR MAX TEMP (F):11324 HR MIN TEMP (F): 93AVERAGE STATION PRESSURE:28.625 MINIMUM SEA LEVEL PRESSURE:29.63 TIME OF OCCURRENCE:1728 PEAK WIND SPEED (MPH): 23 PEAK WIND DIR (DEG):270 PEAK WIND TIME (LST):      FASTEST 2MIN SPEED (MPH): 18FASTEST 2MIN DIR (DEG):270 FASTEST 2MIN TIME (LST):     AVERAGE WIND SPEED (MPH): 7.4 24 HR AVG TEMP (F):103DEPART FROM NORMAL:  9  HEATING DEGREE DAYS:  0 COOLING DEGREE DAYS: 38 LATEST DAY MAX TEMP (0700-1900 LST):113 LATEST NIGHT MIN TEMP(1900-0800 LST):93 HOURLY INCREMENTAL PRECIPITATION VALUES (IN):.00 0.00 0.00 0.00 0.00 0.00 0.00 0.00 0.00 0.00 0.00 0.00 0.00 0.00 0.00 0.00 0.00 0.00 0.00 0.00 0.00 0.00 0.00 0.00,SOD  ,6,,,,,,,,,,,,,,,,,,,,,,,,,552,1911,03-04-2007 00:00
72278023183,18-08-2024 00:49,FM-16,6,,N,0.5,mi,"TEMP, PRECIP",1107,,"MXMN, SRG",33.4442,-112.0247,CONTRACTOR,,,,,,,,,,,,,,,,,,,,,,,,,,,,29.85,57,100,,,,,24,,FEW:02 90 SCT:04 110,28.68,10,72,110,,5,,,,,,,,,,,,,,,,,,,,,,,,,,,,,,,,,,,,,MET18308/18/24 00:49:02 SPECI KPHX 180749Z 11004KT 10SM TS FEW090 SCT110CB BKN1 38/14 A2985 RMK AO2 TSB47 CONS LTGCGICCA N-E FRQ LTGCGIC DSNT SE TS NE-E MOV N CB DSNT SE VCSH N $ FIBI (ANH),FM-16,6,,,,,,,,,,,,,,,,,,,,,,,,,,,03-04-2007 00:00
72278023183,18-08-2024 00:51,FM-15,7,,N,0.5,mi,"TEMP, PRECIP",1107,,"MXMN, SRG",33.4442,-112.0247,CONTRACTOR,,,,,,,,,,,,,,,,,,,,,,,,,,,,29.85,58,100,T,|TS |,,,25,29.78,FEW:02 90 SCT:04 110,28.68,10,72,110,,7,,,,,,,,,,,,,,,,,,,,,,,,,,,,,,,,,,,,,MET16508/18/24 00:51:02 METAR KPHX 180751Z 11006KT 10SM TS FEW090 SCT110CB BKN1 38/14 A2985 RMK AO2 TSB47 SLP084 FRQ LTGCGICCA ALQDS TS OHD MOV NW VCSH N T03780144 $ (ANH),FM-15,7,,,,,,,,,,,,,,,,,,,,,,,,,,,03-04-2007 00:00
72278023183,18-08-2024 01:51,FM-15,7,,N,0.5,mi,"TEMP, PRECIP",1107,,"MXMN, SRG",33.4442,-112.0247,CONTRACTOR,,,,,,,,,,,,,,,,,,,,,,,,,,,,29.88,68,90,T,TS:7 |TS |,-0.08,3,49,29.81,FEW:02 55 BKN:07 110 BKN:07 150,28.7,10,75,70,,14,,,,,,,,,,,,,,,,,,,,,,,,,,,,,,,,,,,,,MET23008/18/24 01:51:02 METAR KPHX 180851Z 07012KT 10SM TS FEW055 BKN110CB BKN1 32/20 A2988 RMK AO2 RAB0757E12B29E45 SLP095 FRQ LTGCGCCCA VC NW FRQ LTGCGIC DSNT N-SE AND W TS VC NW MOV NW CB DSNT N-SE AND W P0000 60000 T03220200 53027 $,FM-15,7,,,,,,,,,,,,,,,,,,,,,,,,,,,03-04-2007 00:00
72278023183,18-08-2024 02:00,FM-12,4,,N,0.5,mi,"TEMP, PRECIP",1107,,"MXMN, SRG",33.4442,-112.0247,CONTRACTOR,,,,,,,,,,,,,,,,,,,,,,,,,,,,,68,90,,||TS,-0.08,3,48,29.81,57,28.71,9.94,75,70,,14,,,,,,,,,,,,,,,,,,,,,,,,,,,,,,,,,,,,,SYN07672278 11766 60712 10322 20200 39721 40095 53027 69907 795// 90851 555 91809=,FM-12,4,,,,,,,,,,,,,,,,,,,,,,,,,,,03-04-2007 00:00
72278023183,18-08-2024 02:15,FM-16,7,,N,0.5,mi,"TEMP, PRECIP",1107,,"MXMN, SRG",33.4442,-112.0247,CONTRACTOR,,,,,,,,,,,,,,,,,,,,,,,,,,,,29.91,66,92,,TS:7 |TS |,,,43,,FEW:02 55 BKN:07 90 BKN:07 140,28.73,8,74,120,29,20,,,,,,,,,,,,,,,,,,,,,,,,,,,,,,,,,,,,,MET19508/18/24 02:15:02 SPECI KPHX 180915Z 12017G25KT 8SM TS FEW055 BKN090CB BKN1 33/19 A2991 RMK AO2 FRQ LTGCGICCA SE-S FRQ LTGCGIC DSNT N-E AND NW TS SE-SW MOV NW CB DSNT N-E AND NW T03330189 $ (ANH),FM-16,7,,,,,,,,,,,,,,,,,,,,,,,,,,,03-04-2007 00:00
72278023183,18-08-2024 02:30,FM-16,7,,N,0.5,mi,"TEMP, PRECIP",1107,,"MXMN, SRG",33.4442,-112.0247,CONTRACTOR,,,,,,,,,,,,,,,,,,,,,,,,,,,,29.92,72,86,0.01,TS:7 RA:02 |RA TS TS |RA,,,62,,BKN:07 90 OVC:08 140,28.74,8,76,160,32,16,,,,,,,,,,,,,,,,,,,,,,,,,,,,,,,,,,,,,MET22708/18/24 02:30:02 SPECI KPHX 180930Z 16014G28KT 8SM TSRA BKN090CB OVC140 30/22 A2992 RMK AO2 PK WND 16028/0925 WSHFT 0910 RAB25 FRQ LTGCGICCA SE-S FRQ LTGCGIC DSNT N-E AND NW TS SE-SW MOV NW CB DSNT N-E AND NW P0001 T03000222 $,FM-16,7,,,,,,,,,,,,,,,,,,,,,,,,,,,03-04-2007 00:00
72278023183,18-08-2024 02:34,FM-16,7,,N,0.5,mi,"TEMP, PRECIP",1107,,"MXMN, SRG",33.4442,-112.0247,CONTRACTOR,,,,,,,,,,,,,,,,,,,,,,,,,,,,29.93,72,85,0.03,TS:7 -RA:02 |RA TS TS |RA,,,65,,BKN:07 90 OVC:08 140,28.75,8,76,160,32,17,,,,,,,,,,,,,,,,,,,,,,,,,,,,,,,,,,,,,MET19408/18/24 02:34:02 SPECI KPHX 180934Z 16015G28KT 8SM -TSRA BKN090CB OVC140 29/22 A2993 RMK AO2 PK WND 16028/0925 WSHFT 0910 RAB25 FRQ LTGCGICCA ALQDS LTGCGIC TS OHD MOV NW P0003 T02940222 $ (ANH),FM-16,7,,,,,,,,,,,,,,,,,,,,,,,,,,,03-04-2007 00:00
72278023183,18-08-2024 02:51,FM-15,7,,N,0.5,mi,"TEMP, PRECIP",1107,,"MXMN, SRG",33.4442,-112.0247,CONTRACTOR,,,,,,,,,,,,,,,,,,,,,,,,,,,,29.95,73,82,0.09,TS:7 -RA:02 |RA TS TS |RA,,,74,29.89,FEW:02 65 OVC:08 90,28.77,8,76,100,17,11,,,,,,,,,,,,,,,,,,,,,,,,,,,,,,,,,,,,,MET20808/18/24 02:51:02 METAR KPHX 180951Z 10010G15KT 8SM -TSRA FEW065 OVC090CB 28/23 A2995 RMK AO2 PK WND 16028/0925 WSHFT 0910 RAB25 PRESRR SLP121 FRQ LTGCGICCA ALQDS LTGCGIC TS OHD MOV NW P0008 T02780228 $ (ANH),FM-15,7,,,,,,,,,,,,,,,,,,,,,,,,,,,03-04-2007 00:00
72278023183,18-08-2024 03:48,FM-16,7,,N,0.5,mi,"TEMP, PRECIP",1107,,"MXMN, SRG",33.4442,-112.0247,CONTRACTOR,,,,,,,,,,,,,,,,,,,,,,,,,,,,29.98,73,82,0.01,,,,74,,FEW:02 65 BKN:07 90 OVC:08 150,28.8,10,76,80,,14,,,,,,,,,,,,,,,,,,,,,,,,,,,,,,,,,,,,,MET16808/18/24 03:48:02 SPECI KPHX 181048Z 08012KT 10SM FEW065 BKN090 OVC150 28/23 A2998 RMK AO2 RAE42 TSE42 OCNL LTGCGIC DSNT NE-SW AND NW CB DSNT NE-SW AND NW P0001 $ (ANH),FM-16,7,,,,,,,,,,,,,,,,,,,,,,,,,,,03-04-2007 00:00
72278023183,18-08-2024 03:51,FM-15,7,,N,0.5,mi,"TEMP, PRECIP",1107,,"MXMN, SRG",33.4442,-112.0247,CONTRACTOR,,,,,,,,,,,,,,,,,,,,,,,,,,,,29.98,74,82,T,,,,77,29.91,FEW:02 65 BKN:07 90 OVC:08 150,28.8,10,76,80,,15,,,,,,,,,,,,,,,,,,,,,,,,,,,,,,,,,,,,,MET20508/18/24 03:51:02 METAR KPHX 181051Z 08013KT 10SM FEW065 BKN090 OVC150 28/23 A2998 RMK AO2 RAE42 TSE42 SLP130 OCNL LTGCGIC DSNT NE-SW AND NW CB DSNT NE-SW AND NW SHRA DSNT SE AND NW P0001 T02780233 $ (ANH),FM-15,7,,,,,,,,,,,,,,,,,,,,,,,,,,,03-04-2007 00:00
72278023183,18-08-2024 04:51,FM-15,7,,N,0.5,mi,"TEMP, PRECIP",1107,,"MXMN, SRG",33.4442,-112.0247,CONTRACTOR,,,,,,,,,,,,,,,,,,,,,,,,,,,,29.97,74,80,0.01,-RA:02 |RA |RA,-0.01,0,82,29.9,FEW:02 70 BKN:07 100 OVC:08 150,28.79,10,76,330,,11,,,,,,,,,,,,,,,,,,,,,,,,,,,,,,,,,,,,,MET18508/18/24 04:51:02 METAR KPHX 181151Z 33010KT 10SM -RA FEW070 BKN100 OVC150 27/23 A2997 RMK AO2 SLP126 OCNL LTGCG DSNT SW CB DSNT SW P0000 60009 70009 T02670233 10389 20267 50005 $ (ANH),FM-15,7,,,,,,,,,,,,,,,,,,,,,,,,,,,03-04-2007 00:00
72278023183,18-08-2024 05:00,FM-12,4,,N,0.5,mi,"TEMP, PRECIP",1107,,"MXMN, SRG",33.4442,-112.0247,CONTRACTOR,,,,,,,,,,,,,,,,,,,,,,,,,,,,,74,80,,||RA,0.01,9,82,29.9,74,28.79,9.94,76,330,,11,,,,,,,,,,,,,,,,,,,,,,,,,,,,,,,,,,,,,SYN09872278 11866 83310 10267 20233 39751 40126 50005 60021 761// 91151 333 10450 20267 70023 555 91812=,FM-12,4,,,,,,,,,,,,,,,,,,,,,,,,,,,03-04-2007 00:00
72278023183,18-08-2024 05:51,FM-15,7,,N,0.5,mi,"TEMP, PRECIP",1107,,"MXMN, SRG",33.4442,-112.0247,CONTRACTOR,,,,,,,,,,,,,,,,,,,,,,,,,,,,29.95,74,80,T,,,,82,29.89,SCT:04 55 BKN:07 90 BKN:07 120,28.77,10,76,360,,10,,,,,,,,,,,,,,,,,,,,,,,,,,,,,,,,,,,,,MET14008/18/24 05:51:02 METAR KPHX 181251Z 36009KT 10SM SCT055 BKN090 BKN120 27/23 A2995 RMK AO2 RAE44 SLP121 SHRA DSNT SW P0001 T02670233 $ (ANH),FM-15,7,,,,,,,,,,,,,,,,,,,,,,,,,,,03-04-2007 00:00
72278023183,18-08-2024 06:51,FM-15,7,,N,0.5,mi,"TEMP, PRECIP",1107,,"MXMN, SRG",33.4442,-112.0247,CONTRACTOR,,,,,,,,,,,,,,,,,,,,,,,,,,,,29.96,74,81,0,,,,79,29.89,SCT:04 55 BKN:07 90 BKN:07 120,28.78,10,76,290,,7,,,,,,,,,,,,,,,,,,,,,,,,,,,,,,,,,,,,,MET14208/18/24 06:51:02 METAR KPHX 181351Z 29006KT 10SM SCT055 BKN090 BKN120 27/23 A2996 RMK AO2 SLP123 VIRGA SHRA DSNT S AND SW-NW T02720233 $ (JH),FM-15,7,,,,,,,,,,,,,,,,,,,,,,,,,,,03-04-2007 00:00
72278023183,18-08-2024 07:29,FM-16,7,,N,0.5,mi,"TEMP, PRECIP",1107,,"MXMN, SRG",33.4442,-112.0247,CONTRACTOR,,,,,,,,,,,,,,,,,,,,,,,,,,,,29.97,74,81,,TS:7 |TS |RA,,,79,,SCT:04 55 BKN:07 90 BKN:07 120,28.79,10,76,210,,5,,,,,,,,,,,,,,,,,,,,,,,,,,,,,,,,,,,,,MET15108/18/24 07:29:02 SPECI KPHX 181429Z 21004KT 10SM TS SCT055 BKN090CB BKN1 27/23 A2997 RMK AO2 TSE26B29 OCNL LTGCGIC W TS W MOV N VIRGA T02720233 $ (JH),FM-16,7,,,,,,,,,,,,,,,,,,,,,,,,,,,03-04-2007 00:00
72278023183,18-08-2024 07:49,FM-16,6,,N,0.5,mi,"TEMP, PRECIP",1107,,"MXMN, SRG",33.4442,-112.0247,CONTRACTOR,,,,,,,,,,,,,,,,,,,,,,,,,,,,29.97,75,81,,,,,84,,SCT:04 55 BKN:07 90 BKN:07 120,28.79,10,77,210,,5,,,,,,,,,,,,,,,,,,,,,,,,,,,,,,,,,,,,,MET14808/18/24 07:49:02 SPECI KPHX 181449Z 21004KT 10SM SCT055 BKN090 BKN120 27/24 A2997 RMK AO2 TSE26B29E49 CB DSNT W-NW VIRGA SHRA DSNT W-NW $ FIBI (JH),FM-16,6,,,,,,,,,,,,,,,,,,,,,,,,,,,03-04-2007 00:00
72278023183,18-08-2024 07:51,FM-15,7,,N,0.5,mi,"TEMP, PRECIP",1107,,"MXMN, SRG",33.4442,-112.0247,CONTRACTOR,,,,,,,,,,,,,,,,,,,,,,,,,,,,29.97,75,82,0,,0,3,79,29.91,SCT:04 70 BKN:07 90 BKN:07 120,28.79,10,77,200,,3,,,,,,,,,,,,,,,,,,,,,,,,,,,,,,,,,,,,,MET17208/18/24 07:51:02 METAR KPHX 181451Z 20003KT 10SM SCT070 BKN090 BKN120 28/24 A2997 RMK AO2 TSE26B29E49 SLP128 VIRGA CB DSNT W-NW SHRA DSNT W-NW 60001 T02780239 53001 $ (JH),FM-15,7,,,,,,,,,,,,,,,,,,,,,,,,,,,03-04-2007 00:00
72278023183,18-08-2024 08:00,FM-12,4,,N,0.5,mi,"TEMP, PRECIP",1107,,"MXMN, SRG",33.4442,-112.0247,CONTRACTOR,,,,,,,,,,,,,,,,,,,,,,,,,,,,,75,82,,,0,3,79,29.91,74,28.79,9.94,77,200,,3,,,,,,,,,,,,,,,,,,,,,,,,,,,,,,,,,,,,,SYN07072278 12866 62003 10278 20239 39751 40128 53001 69937 91451 555 91815=,FM-12,4,,,,,,,,,,,,,,,,,,,,,,,,,,,03-04-2007 00:00
72278023183,18-08-2024 08:51,FM-15,7,,N,0.5,mi,"TEMP, PRECIP",1107,,"MXMN, SRG",33.4442,-112.0247,CONTRACTOR,,,,,,,,,,,,,,,,,,,,,,,,,,,,29.97,74,84,0,,,,72,29.9,SCT:04 70 SCT:04 90 BKN:07 120,28.79,10,77,190,,6,,,,,,,,,,,,,,,,,,,,,,,,,,,,,,,,,,,,,MET13508/18/24 08:51:02 METAR KPHX 181551Z 19005KT 10SM SCT070 SCT090 BKN120 29/23 A2997 RMK AO2 SLP125 VIRGA SHRA DSNT NW-N T02890233 $ (JH),FM-15,7,,,,,,,,,,,,,,,,,,,,,,,,,,,03-04-2007 00:00
72278023183,18-08-2024 09:51,FM-15,7,,N,0.5,mi,"TEMP, PRECIP",1107,,"MXMN, SRG",33.4442,-112.0247,CONTRACTOR,,,,,,,,,,,,,,,,,,,,,,,,,,,,29.96,72,86,0,,,,63,29.9,SCT:04 90 SCT:04 120 BKN:07 170,28.78,10,76,30,,3,,,,,,,,,,,,,,,,,,,,,,,,,,,,,,,,,,,,,MET12008/18/24 09:51:02 METAR KPHX 181651Z 03003KT 10SM SCT090 SCT120 BKN170 30/22 A2996 RMK AO2 SLP124 VIRGA T03000222 $ (JH),FM-15,7,,,,,,,,,,,,,,,,,,,,,,,,,,,03-04-2007 00:00
72278023183,18-08-2024 10:51,FM-15,7,,N,0.5,mi,"TEMP, PRECIP",1107,,"MXMN, SRG",33.4442,-112.0247,CONTRACTOR,,,,,,,,,,,,,,,,,,,,,,,,,,,,29.95,71,89,0,,0.02,8,55,29.89,SCT:04 90 SCT:04 120 BKN:07 170,28.77,10,76,10,,7,,,,,,,,,,,,,,,,,,,,,,,,,,,,,,,,,,,,,MET13808/18/24 10:51:02 METAR KPHX 181751Z 01006KT 10SM SCT090 SCT120 BKN170 32/22 A2995 RMK AO2 SLP121 60001 T03170217 10317 20261 58006 $ (JH),FM-15,7,,,,,,,,,,,,,,,,,,,,,,,,,,,03-04-2007 00:00
72278023183,18-08-2024 11:00,FM-12,4,,N,0.5,mi,"TEMP, PRECIP",1107,,"MXMN, SRG",33.4442,-112.0247,CONTRACTOR,,,,,,,,,,,,,,,,,,,,,,,,,,,,,71,89,,,0.02,8,55,29.89,,28.77,9.94,76,10,,7,,,,,,,,,,,,,,,,,,,,,,,,,,,,,,,,,,,,,SYN08672278 12966 60106 10317 20217 39744 40121 58006 69931 91751 333 10389 20261 555 91818=,FM-12,4,,,,,,,,,,,,,,,,,,,,,,,,,,,03-04-2007 00:00
72278023183,18-08-2024 11:51,FM-15,7,,N,0.5,mi,"TEMP, PRECIP",1107,,"MXMN, SRG",33.4442,-112.0247,CONTRACTOR,,,,,,,,,,,,,,,,,,,,,,,,,,,,29.94,70,93,0,,,,47,29.87,FEW:02 90 SCT:04 120 BKN:07 170,28.76,10,77,0,,0,,,,,,,,,,,,,,,,,,,,,,,,,,,,,,,,,,,,,MET12008/18/24 11:51:02 METAR KPHX 181851Z 00000KT 10SM FEW090 SCT120 BKN170 34/21 A2994 RMK AO2 SLP115 VIRGA T03390211 $ (JH),FM-15,7,,,,,,,,,,,,,,,,,,,,,,,,,,,03-04-2007 00:00
72278023183,18-08-2024 12:51,FM-15,7,,N,0.5,mi,"TEMP, PRECIP",1107,,"MXMN, SRG",33.4442,-112.0247,CONTRACTOR,,,,,,,,,,,,,,,,,,,,,,,,,,,,29.91,69,97,0,,,,40,29.84,FEW:02 90 SCT:04 120 SCT:04 170,28.73,10,77,310,,10,,,,,,,,,,,,,,,,,,,,,,,,,,,,,,,,,,,,,MET12008/18/24 12:51:02 METAR KPHX 181951Z 31009KT 10SM FEW090 SCT120 SCT170 36/21 A2991 RMK AO2 SLP106 VIRGA T03610206 $ (JH),FM-15,7,,,,,,,,,,,,,,,,,,,,,,,,,,,03-04-2007 00:00
72278023183,18-08-2024 13:51,FM-15,7,,N,0.5,mi,"TEMP, PRECIP",1107,,"MXMN, SRG",33.4442,-112.0247,CONTRACTOR,,,,,,,,,,,,,,,,,,,,,,,,,,,,29.9,68,96,0,,0.06,6,40,29.83,FEW:02 90 SCT:04 120 SCT:04 170,28.72,10,76,290,,6,,,,,,,,,,,,,,,,,,,,,,,,,,,,,,,,,,,,,MET12008/18/24 13:51:02 METAR KPHX 182051Z 29005KT 10SM FEW090 SCT120 SCT170 36/20 A2990 RMK AO2 SLP102 T03560200 56019 $ (JH),FM-15,7,,,,,,,,,,,,,,,,,,,,,,,,,,,03-04-2007 00:00
72278023183,18-08-2024 14:00,FM-12,4,,N,0.5,mi,"TEMP, PRECIP",1107,,"MXMN, SRG",33.4442,-112.0247,CONTRACTOR,,,,,,,,,,,,,,,,,,,,,,,,,,,,,68,96,,,0.06,6,40,29.83,,28.73,9.94,76,290,,6,,,,,,,,,,,,,,,,,,,,,,,,,,,,,,,,,,,,,SYN06472278 32966 62905 10356 20200 39728 40102 56019 92051 555 91821=,FM-12,4,,,,,,,,,,,,,,,,,,,,,,,,,,,03-04-2007 00:00
72278023183,18-08-2024 14:51,FM-15,7,,N,0.5,mi,"TEMP, PRECIP",1107,,"MXMN, SRG",33.4442,-112.0247,CONTRACTOR,,,,,,,,,,,,,,,,,,,,,,,,,,,,29.87,66,99,0,,,,34,29.81,FEW:02 90 FEW:02 120 SCT:04 150,28.69,10,76,280,,9,,,,,,,,,,,,,,,,,,,,,,,,,,,,,,,,,,,,,MET11508/18/24 14:51:02 METAR KPHX 182151Z 28008KT 10SM FEW090 FEW120 SCT150 37/19 A2987 RMK AO2 SLP094 T03720189 $ (ADH),FM-15,7,,,,,,,,,,,,,,,,,,,,,,,,,,,03-04-2007 00:00
72278023183,18-08-2024 15:51,FM-15,7,,N,0.5,mi,"TEMP, PRECIP",1107,,"MXMN, SRG",33.4442,-112.0247,CONTRACTOR,,,,,,,,,,,,,,,,,,,,,,,,,,,,29.85,63,99,0,,,,31,29.78,FEW:02 90 FEW:02 120 SCT:04 150,28.68,10,74,VRB,,11,,,,,,,,,,,,,,,,,,,,,,,,,,,,,,,,,,,,,MET12708/18/24 15:51:02 METAR KPHX 182251Z 27010KT 10SM FEW090 FEW120 SCT150 37/17 A2985 RMK AO2 SLP086 TCU DSNT NE T03720172 $ (ADH),FM-15,7,,,,,,,,,,,,,,,,,,,,,,,,,,,03-04-2007 00:00
72278023183,18-08-2024 16:51,FM-15,7,,N,0.5,mi,"TEMP, PRECIP",1107,,"MXMN, SRG",33.4442,-112.0247,CONTRACTOR,,,,,,,,,,,,,,,,,,,,,,,,,,,,29.83,62,100,0,,0.07,6,29,29.77,FEW:02 90 SCT:04 120 BKN:07 160,28.66,10,74,280,18,13,,,,,,,,,,,,,,,,,,,,,,,,,,,,,,,,,,,,,MET15308/18/24 16:51:02 METAR KPHX 182351Z 28011G16KT 10SM FEW090 SCT120 BKN160 38/17 A2983 RMK AO2 SLP080 CB DSNT NE AND E T03780167 10389 20317 56023 $ (ADH),FM-15,7,,,,,,,,,,,,,,,,,,,,,,,,,,,03-04-2007 00:00
72278023183,18-08-2024 17:00,FM-12,4,,N,0.5,mi,"TEMP, PRECIP",1107,,"MXMN, SRG",33.4442,-112.0247,CONTRACTOR,,,,,,,,,,,,,,,,,,,,,,,,,,,,,62,100,,,0.07,6,29,29.77,,28.66,9.94,74,280,,13,,,,,,,,,,,,,,,,,,,,,,,,,,,,,,,,,,,,,SYN08672278 32966 62811 10378 20167 39705 40080 56023 92351 333 10389 20267 91016 555 91900=,FM-12,4,,,,,,,,,,,,,,,,,,,,,,,,,,,03-04-2007 00:00
72278023183,18-08-2024 17:51,FM-15,7,,N,0.5,mi,"TEMP, PRECIP",1107,,"MXMN, SRG",33.4442,-112.0247,CONTRACTOR,,,,,,,,,,,,,,,,,,,,,,,,,,,,29.82,60,100,0,,,,27,29.76,FEW:02 100 SCT:04 160 BKN:07 190,28.65,10,73,300,,10,,,,,,,,,,,,,,,,,,,,,,,,,,,,,,,,,,,,,MET10908/18/24 17:51:01 METAR KPHX 190051Z 30009KT 10SM FEW100 SCT160 BKN190 38/16 A2982 RMK AO2 SLP078 T03780156 $,FM-15,7,,,,,,,,,,,,,,,,,,,,,,,,,,,03-04-2007 00:00
72278023183,18-08-2024 18:51,FM-15,7,,N,0.5,mi,"TEMP, PRECIP",1107,,"MXMN, SRG",33.4442,-112.0247,CONTRACTOR,,,,,,,,,,,,,,,,,,,,,,,,,,,,29.83,59,99,0,,,,27,29.77,FEW:02 100 SCT:04 160 SCT:04 190,28.66,10,72,300,,8,,,,,,,,,,,,,,,,,,,,,,,,,,,,,,,,,,,,,MET10908/18/24 18:51:02 METAR KPHX 190151Z 30007KT 10SM FEW100 SCT160 SCT190 37/15 A2983 RMK AO2 SLP081 T03720150 $,FM-15,7,,,,,,,,,,,,,,,,,,,,,,,,,,,03-04-2007 00:00
72278023183,18-08-2024 19:51,FM-15,7,,N,0.5,mi,"TEMP, PRECIP",1107,,"MXMN, SRG",33.4442,-112.0247,CONTRACTOR,,,,,,,,,,,,,,,,,,,,,,,,,,,,29.85,58,99,0,,-0.02,3,26,29.78,FEW:02 100 SCT:04 140 BKN:07 190,28.68,10,72,270,,8,,,,,,,,,,,,,,,,,,,,,,,,,,,,,,,,,,,,,MET14508/18/24 19:51:02 METAR KPHX 190251Z 27007KT 10SM FEW100 SCT140 BKN190 37/14 A2985 RMK AO2 SLP086 OCNL LTGCG DSNT NE CB DSNT NE T03720144 53007 $,FM-15,7,,,,,,,,,,,,,,,,,,,,,,,,,,,03-04-2007 00:00
72278023183,18-08-2024 20:00,FM-12,4,,N,0.5,mi,"TEMP, PRECIP",1107,,"MXMN, SRG",33.4442,-112.0247,CONTRACTOR,,,,,,,,,,,,,,,,,,,,,,,,,,,,,58,99,,,-0.02,3,26,29.78,,28.68,9.94,72,270,,8,,,,,,,,,,,,,,,,,,,,,,,,,,,,,,,,,,,,,SYN06472278 32966 62707 10372 20144 39712 40086 53007 90251 555 91903=,FM-12,4,,,,,,,,,,,,,,,,,,,,,,,,,,,03-04-2007 00:00
72278023183,18-08-2024 20:51,FM-15,7,,N,0.5,mi,"TEMP, PRECIP",1107,,"MXMN, SRG",33.4442,-112.0247,CONTRACTOR,,,,,,,,,,,,,,,,,,,,,,,,,,,,29.87,57,99,0,,,,25,29.8,FEW:02 100 SCT:04 130 BKN:07 180,28.69,10,71,290,,8,,,,,,,,,,,,,,,,,,,,,,,,,,,,,,,,,,,,,MET10908/18/24 20:51:02 METAR KPHX 190351Z 29007KT 10SM FEW100 SCT130 BKN180 37/14 A2987 RMK AO2 SLP092 T03720139 $,FM-15,7,,,,,,,,,,,,,,,,,,,,,,,,,,,03-04-2007 00:00
72278023183,18-08-2024 21:51,FM-15,7,,N,0.5,mi,"TEMP, PRECIP",1107,,"MXMN, SRG",33.4442,-112.0247,CONTRACTOR,,,,,,,,,,,,,,,,,,,,,,,,,,,,29.87,61,96,0,,,,31,29.81,SCT:04 110 SCT:04 130 BKN:07 180,28.69,10,73,250,,6,,,,,,,,,,,,,,,,,,,,,,,,,,,,,,,,,,,,,MET10908/18/24 21:51:02 METAR KPHX 190451Z 25005KT 10SM SCT110 SCT130 BKN180 36/16 A2987 RMK AO2 SLP094 T03560161 $,FM-15,7,,,,,,,,,,,,,,,,,,,,,,,,,,,03-04-2007 00:00
72278023183,18-08-2024 22:51,FM-15,7,,N,0.5,mi,"TEMP, PRECIP",1107,,"MXMN, SRG",33.4442,-112.0247,CONTRACTOR,,,,,,,,,,,,,,,,,,,,,,,,,,,,29.87,62,95,0,,-0.02,0,34,29.8,FEW:02 110 SCT:04 130 BKN:07 190,28.69,10,73,240,,3,,,,,,,,,,,,,,,,,,,,,,,,,,,,,,,,,,,,,MET12708/18/24 22:51:02 METAR KPHX 190551Z 24003KT 10SM FEW110 SCT130 BKN190 35/17 A2987 RMK AO2 SLP092 T03500167 10383 20350 50006 $,FM-15,7,,,,,,,,,,,,,,,,,,,,,,,,,,,03-04-2007 00:00
72278023183,18-08-2024 23:00,FM-12,4,,N,0.5,mi,"TEMP, PRECIP",1107,,"MXMN, SRG",33.4442,-112.0247,CONTRACTOR,,,,,,,,,,,,,,,,,,,,,,,,,,,,,62,95,,,0.02,9,34,29.8,,28.7,9.94,73,240,,3,,,,,,,,,,,,,,,,,,,,,,,,,,,,,,,,,,,,,SYN08072278 32966 62403 10350 20167 39718 40092 50006 90551 333 10389 20267 555 91906=,FM-12,4,,,,,,,,,,,,,,,,,,,,,,,,,,,03-04-2007 00:00
72278023183,18-08-2024 23:51,FM-15,7,,N,0.5,mi,"TEMP, PRECIP",1107,,"MXMN, SRG",33.4442,-112.0247,CONTRACTOR,,,,,,,,,,,,,,,,,,,,,,,,,,,,29.87,61,95,0,,,,32,29.8,SCT:04 110 SCT:04 130 BKN:07 190,28.69,10,72,260,,3,,,,,,,,,,,,,,,,,,,,,,,,,,,,,,,,,,,,,MET11908/18/24 23:51:02 METAR KPHX 190651Z 26003KT 10SM SCT110 SCT130 BKN190 35/16 A2987 RMK AO2 SLP093 T03500161 403890261 $,FM-15,7,,,,,,,,,,,,,,,,,,,,,,,,,,,03-04-2007 00:00
72278023183,18-08-2024 23:59,SOD  ,6,,N,0.5,mi,"TEMP, PRECIP",1107,,"MXMN, SRG",33.4442,-112.0247,CONTRACTOR,,,,,,67,91,49,29.84,28.72,75,8,26,-2.5,0,102,79,160,32,0.1,,,170,22,TS RA,,,,,,,,,,,,,,,,,,,,,,,,,,,,,,,,,,,,,,,,,,,,,,,,,,,,,,,SOD75624 HR PRECIPITATION (IN): 0.10 SNOW DEPTH (IN):0     24 HR SNOWFALL (IN):0.0  WEATHER(CODE):3  24 HR MAX TEMP (F):10224 HR MIN TEMP (F): 79AVERAGE STATION PRESSURE:28.720 MINIMUM SEA LEVEL PRESSURE:29.75 TIME OF OCCURRENCE:0017 PEAK WIND SPEED (MPH): 32 PEAK WIND DIR (DEG):160 PEAK WIND TIME (LST):      FASTEST 2MIN SPEED (MPH): 22FASTEST 2MIN DIR (DEG):170 FASTEST 2MIN TIME (LST):     AVERAGE WIND SPEED (MPH): 8.0 24 HR AVG TEMP (F): 91DEPART FROM NORMAL: -3  HEATING DEGREE DAYS:  0 COOLING DEGREE DAYS: 26 LATEST DAY MAX TEMP (0700-1900 LST):102 LATEST NIGHT MIN TEMP(1900-0800 LST):79 HOURLY INCREMENTAL PRECIPITATION VALUES (IN):    T    0.09 T    0.01 T    0.00 0.00 0.00 0.00 0.00 0.00 0.00 0.00 0.00 0.00 0.00 0.00 0.00 0.00 0.00 0.00 0.00 0.00,SOD  ,6,,,,,,,,,,,,,,,,,,,,,,,,,553,1910,03-04-2007 00:00
72278023183,19-08-2024 00:51,FM-15,7,,N,0.5,mi,"TEMP, PRECIP",1107,,"MXMN, SRG",33.4442,-112.0247,CONTRACTOR,,,,,,,,,,,,,,,,,,,,,,,,,,,,29.87,63,93,0,,,,37,29.8,FEW:02 110 FEW:02 130 SCT:04 190,28.69,10,73,100,,3,,,,,,,,,,,,,,,,,,,,,,,,,,,,,,,,,,,,,MET10908/19/24 00:51:02 METAR KPHX 190751Z 10003KT 10SM FEW110 FEW130 SCT190 34/17 A2987 RMK AO2 SLP091 T03390172 $,FM-15,7,,,,,,,,,,,,,,,,,,,,,,,,,,,03-04-2007 00:00
72278023183,19-08-2024 01:51,FM-15,7,,N,0.5,mi,"TEMP, PRECIP",1107,,"MXMN, SRG",33.4442,-112.0247,CONTRACTOR,,,,,,,,,,,,,,,,,,,,,,,,,,,,29.85,63,93,0,,0.01,8,37,29.78,FEW:02 110 FEW:02 130 FEW:02 190,28.68,10,73,130,,3,,,,,,,,,,,,,,,,,,,,,,,,,,,,,,,,,,,,,MET11508/19/24 01:51:02 METAR KPHX 190851Z 13003KT 10SM FEW110 FEW130 FEW190 34/17 A2985 RMK AO2 SLP086 T03390172 58005 $,FM-15,7,,,,,,,,,,,,,,,,,,,,,,,,,,,03-04-2007 00:00
72278023183,19-08-2024 02:00,FM-12,4,,N,0.5,mi,"TEMP, PRECIP",1107,,"MXMN, SRG",33.4442,-112.0247,CONTRACTOR,,,,,,,,,,,,,,,,,,,,,,,,,,,,,63,93,,,0.01,8,37,29.78,,28.68,9.94,73,130,,3,,,,,,,,,,,,,,,,,,,,,,,,,,,,,,,,,,,,,SYN06472278 32966 21303 10339 20172 39712 40086 58005 90851 555 91909=,FM-12,4,,,,,,,,,,,,,,,,,,,,,,,,,,,03-04-2007 00:00
72278023183,19-08-2024 02:51,FM-15,7,,N,0.5,mi,"TEMP, PRECIP",1107,,"MXMN, SRG",33.4442,-112.0247,CONTRACTOR,,,,,,,,,,,,,,,,,,,,,,,,,,,,29.85,65,91,0,,,,42,29.79,FEW:02 130 FEW:02 190,28.68,10,73,0,,0,,,,,,,,,,,,,,,,,,,,,,,,,,,,,,,,,,,,,MET10208/19/24 02:51:02 METAR KPHX 190951Z 00000KT 10SM FEW130 FEW190 33/18 A2985 RMK AO2 SLP087 T03280183 $,FM-15,7,,,,,,,,,,,,,,,,,,,,,,,,,,,03-04-2007 00:00
72278023183,19-08-2024 03:51,FM-15,7,,N,0.5,mi,"TEMP, PRECIP",1107,,"MXMN, SRG",33.4442,-112.0247,CONTRACTOR,,,,,,,,,,,,,,,,,,,,,,,,,,,,29.87,67,91,0,,,,45,29.8,SCT:04 130 BKN:07 190,28.69,10,74,90,,7,,,,,,,,,,,,,,,,,,,,,,,,,,,,,,,,,,,,,MET10208/19/24 03:51:01 METAR KPHX 191051Z 09006KT 10SM SCT130 BKN190 33/19 A2987 RMK AO2 SLP092 T03280194 $,FM-15,7,,,,,,,,,,,,,,,,,,,,,,,,,,,03-04-2007 00:00
72278023183,19-08-2024 04:51,FM-15,7,,N,0.5,mi,"TEMP, PRECIP",1107,,"MXMN, SRG",33.4442,-112.0247,CONTRACTOR,,,,,,,,,,,,,,,,,,,,,,,,,,,,29.88,67,90,0,,-0.03,3,47,29.81,FEW:02 130 BKN:07 190,28.7,10,74,240,,6,,,,,,,,,,,,,,,,,,,,,,,,,,,,,,,,,,,,,MET12608/19/24 04:51:01 METAR KPHX 191151Z 24005KT 10SM FEW130 BKN190 32/19 A2988 RMK AO2 SLP096 70001 T03220194 10356 20322 53009 $,FM-15,7,,,,,,,,,,,,,,,,,,,,,,,,,,,03-04-2007 00:00
72278023183,19-08-2024 05:00,FM-12,4,,N,0.5,mi,"TEMP, PRECIP",1107,,"MXMN, SRG",33.4442,-112.0247,CONTRACTOR,,,,,,,,,,,,,,,,,,,,,,,,,,,,,67,90,,,-0.03,3,47,29.81,,28.71,9.94,74,240,,6,,,,,,,,,,,,,,,,,,,,,,,,,,,,,,,,,,,,,SYN08672278 32966 62405 10322 20194 39721 40096 53009 91151 333 10389 20322 70003 555 91912=,FM-12,4,,,,,,,,,,,,,,,,,,,,,,,,,,,03-04-2007 00:00
72278023183,19-08-2024 05:51,FM-15,7,,N,0.5,mi,"TEMP, PRECIP",1107,,"MXMN, SRG",33.4442,-112.0247,CONTRACTOR,,,,,,,,,,,,,,,,,,,,,,,,,,,,29.9,64,88,0,,,,45,29.83,FEW:02 130 SCT:04 190 SCT:04 230,28.72,10,72,0,,0,,,,,,,,,,,,,,,,,,,,,,,,,,,,,,,,,,,,,MET10908/19/24 05:51:01 METAR KPHX 191251Z 00000KT 10SM FEW130 SCT190 SCT230 31/18 A2990 RMK AO2 SLP102 T03110178 $,FM-15,7,,,,,,,,,,,,,,,,,,,,,,,,,,,03-04-2007 00:00
72278023183,19-08-2024 06:51,FM-15,7,,N,0.5,mi,"TEMP, PRECIP",1107,,"MXMN, SRG",33.4442,-112.0247,CONTRACTOR,,,,,,,,,,,,,,,,,,,,,,,,,,,,29.91,66,91,0,,,,44,29.85,FEW:02 130 SCT:04 190 SCT:04 230,28.73,10,74,0,,0,,,,,,,,,,,,,,,,,,,,,,,,,,,,,,,,,,,,,MET10708/19/24 06:51:01 METAR KPHX 191351Z 00000KT 10SM FEW130 SCT190 SCT230 33/19 A2991 RMK AO2 SLP107 T03280189,FM-15,7,,,,,,,,,,,,,,,,,,,,,,,,,,,03-04-2007 00:00
72278023183,19-08-2024 07:51,FM-15,7,,N,0.5,mi,"TEMP, PRECIP",1107,,"MXMN, SRG",33.4442,-112.0247,CONTRACTOR,,,,,,,,,,,,,,,,,,,,,,,,,,,,29.93,67,93,0,,-0.04,1,42,29.86,FEW:02 130 FEW:02 190 FEW:02 230,28.75,10,75,70,,7,,,,,,,,,,,,,,,,,,,,,,,,,,,,,,,,,,,,,MET11308/19/24 07:51:02 METAR KPHX 191451Z 07006KT 10SM FEW130 FEW190 FEW230 34/19 A2993 RMK AO2 SLP112 T03390194 51015,FM-15,7,,,,,,,,,,,,,,,,,,,,,,,,,,,03-04-2007 00:00
72278023183,19-08-2024 08:00,FM-12,4,,N,0.5,mi,"TEMP, PRECIP",1107,,"MXMN, SRG",33.4442,-112.0247,CONTRACTOR,,,,,,,,,,,,,,,,,,,,,,,,,,,,,67,93,,,-0.04,1,42,29.86,,28.76,9.94,75,70,,7,,,,,,,,,,,,,,,,,,,,,,,,,,,,,,,,,,,,,SYN06472278 32966 20706 10339 20194 39738 40112 51015 91451 555 91915=,FM-12,4,,,,,,,,,,,,,,,,,,,,,,,,,,,03-04-2007 00:00
72278023183,19-08-2024 08:51,FM-15,7,,N,0.5,mi,"TEMP, PRECIP",1107,,"MXMN, SRG",33.4442,-112.0247,CONTRACTOR,,,,,,,,,,,,,,,,,,,,,,,,,,,,29.94,66,95,0,,,,39,29.87,FEW:02 150 FEW:02 210 FEW:02 270,28.76,10,75,80,,7,,,,,,,,,,,,,,,,,,,,,,,,,,,,,,,,,,,,,MET10708/19/24 08:51:02 METAR KPHX 191551Z 08006KT 10SM FEW150 FEW210 FEW270 35/19 A2994 RMK AO2 SLP115 T03500189,FM-15,7,,,,,,,,,,,,,,,,,,,,,,,,,,,03-04-2007 00:00
72278023183,19-08-2024 09:51,FM-15,7,,N,0.5,mi,"TEMP, PRECIP",1107,,"MXMN, SRG",33.4442,-112.0247,CONTRACTOR,,,,,,,,,,,,,,,,,,,,,,,,,,,,29.94,64,98,0,,,,33,29.88,FEW:02 150 FEW:02 210 FEW:02 270,28.76,10,75,100,,6,,,,,,,,,,,,,,,,,,,,,,,,,,,,,,,,,,,,,MET10708/19/24 09:51:02 METAR KPHX 191651Z 10005KT 10SM FEW150 FEW210 FEW270 37/18 A2994 RMK AO2 SLP118 T03670178,FM-15,7,,,,,,,,,,,,,,,,,,,,,,,,,,,03-04-2007 00:00
72278023183,19-08-2024 10:51,FM-15,7,,N,0.5,mi,"TEMP, PRECIP",1107,,"MXMN, SRG",33.4442,-112.0247,CONTRACTOR,,,,,,,,,,,,,,,,,,,,,,,,,,,,29.93,60,100,0,,-0.01,0,27,29.86,FEW:02 80 FEW:02 210 FEW:02 270,28.75,10,73,VRB,,3,,,,,,,,,,,,,,,,,,,,,,,,,,,,,,,,,,,,,MET12508/19/24 10:51:02 METAR KPHX 191751Z VRB03KT 10SM FEW080 FEW210 FEW270 38/16 A2993 RMK AO2 SLP113 T03780156 10383 20311 50002,FM-15,7,,,,,,,,,,,,,,,,,,,,,,,,,,,03-04-2007 00:00
72278023183,19-08-2024 11:00,FM-12,4,,N,0.5,mi,"TEMP, PRECIP",1107,,"MXMN, SRG",33.4442,-112.0247,CONTRACTOR,,,,,,,,,,,,,,,,,,,,,,,,,,,,,60,100,,,0.01,9,27,29.86,74,28.76,9.94,73,,,3,,,,,,,,,,,,,,,,,,,,,,,,,,,,,,,,,,,,,SYN08072278 32866 2//03 10378 20156 39738 40113 50002 91751 333 10383 20311 555 91918=,FM-12,4,,,,,,,,,,,,,,,,,,,,,,,,,,,03-04-2007 00:00
72278023183,19-08-2024 11:51,FM-15,7,,N,0.5,mi,"TEMP, PRECIP",1107,,"MXMN, SRG",33.4442,-112.0247,CONTRACTOR,,,,,,,,,,,,,,,,,,,,,,,,,,,,29.92,59,103,0,,,,24,29.85,FEW:02 80 FEW:02 210 FEW:02 270,28.74,10,73,360,,3,,,,,,,,,,,,,,,,,,,,,,,,,,,,,,,,,,,,,MET10708/19/24 11:51:01 METAR KPHX 191851Z 36003KT 10SM FEW080 FEW210 FEW270 39/15 A2992 RMK AO2 SLP108 T03940150,FM-15,7,,,,,,,,,,,,,,,,,,,,,,,,,,,03-04-2007 00:00
72278023183,19-08-2024 12:51,FM-15,7,,N,0.5,mi,"TEMP, PRECIP",1107,,"MXMN, SRG",33.4442,-112.0247,CONTRACTOR,,,,,,,,,,,,,,,,,,,,,,,,,,,,29.9,58,106,0,,,,21,29.83,FEW:02 80 FEW:02 210 FEW:02 270,28.72,10,74,VRB,,6,,,,,,,,,,,,,,,,,,,,,,,,,,,,,,,,,,,,,MET12408/19/24 12:51:02 METAR KPHX 191951Z VRB05KT 10SM FEW080 FEW210 FEW270 41/14 A2990 RMK AO2 SLP101 CB DSNT E AND SE T04110144,FM-15,7,,,,,,,,,,,,,,,,,,,,,,,,,,,03-04-2007 00:00
72278023183,19-08-2024 13:51,FM-15,7,,N,0.5,mi,"TEMP, PRECIP",1107,,"MXMN, SRG",33.4442,-112.0247,CONTRACTOR,,,,,,,,,,,,,,,,,,,,,,,,,,,,29.88,57,108,0,,0.05,8,19,29.81,FEW:02 80 FEW:02 210 FEW:02 270,28.7,10,74,320,,3,,,,,,,,,,,,,,,,,,,,,,,,,,,,,,,,,,,,,MET13008/19/24 13:51:02 METAR KPHX 192051Z 32003KT 10SM FEW080 FEW210 FEW270 42/14 A2988 RMK AO2 SLP094 CB DSNT E AND SE T04220139 58018,FM-15,7,,,,,,,,,,,,,,,,,,,,,,,,,,,03-04-2007 00:00
72278023183,19-08-2024 14:00,FM-12,4,,N,0.5,mi,"TEMP, PRECIP",1107,,"MXMN, SRG",33.4442,-112.0247,CONTRACTOR,,,,,,,,,,,,,,,,,,,,,,,,,,,,,57,108,,,0.05,8,19,29.81,74,28.71,9.94,74,320,,3,,,,,,,,,,,,,,,,,,,,,,,,,,,,,,,,,,,,,SYN06472278 32866 23203 10422 20139 39721 40094 58018 92051 555 91921=,FM-12,4,,,,,,,,,,,,,,,,,,,,,,,,,,,03-04-2007 00:00
72278023183,19-08-2024 14:51,FM-15,7,,N,0.5,mi,"TEMP, PRECIP",1107,,"MXMN, SRG",33.4442,-112.0247,CONTRACTOR,,,,,,,,,,,,,,,,,,,,,,,,,,,,29.85,56,110,0,,,,17,29.78,FEW:02 90 FEW:02 250,28.68,10,74,270,17,11,,,,,,,,,,,,,,,,,,,,,,,,,,,,,,,,,,,,,MET12808/19/24 14:51:01 METAR KPHX 192151Z 27010G15KT 10SM FEW090 FEW250 43/13 A2985 RMK AO2 SLP083 CB DSNT NE-SE TCU DSNT S T04330133,FM-15,7,,,,,,,,,,,,,,,,,,,,,,,,,,,03-04-2007 00:00
72278023183,19-08-2024 15:51,FM-15,7,,N,0.5,mi,"TEMP, PRECIP",1107,,"MXMN, SRG",33.4442,-112.0247,CONTRACTOR,,,,,,,,,,,,,,,,,,,,,,,,,,,,29.82,55,111,0,,,,16,29.75,FEW:02 90 FEW:02 250,28.65,10,74,VRB,,7,,,,,,,,,,,,,,,,,,,,,,,,,,,,,,,,,,,,,MET12008/19/24 15:51:02 METAR KPHX 192251Z VRB06KT 10SM FEW090 FEW250 44/13 A2982 RMK AO2 SLP074 CB DSNT NE-SE AND S T04390128,FM-15,7,,,,,,,,,,,,,,,,,,,,,,,,,,,03-04-2007 00:00
72278023183,19-08-2024 16:51,FM-15,6,,N,0.5,mi,"TEMP, PRECIP",1107,,"MXMN, SRG",33.4442,-112.0247,CONTRACTOR,,,,,,,,,,,,,,,,,,,,,,,,,,,,29.8,54,110,0,,0.07,6,16,29.73,FEW:02 90 FEW:02 250,28.63,10,73,260,,7,,,,,,,,,,,,,,,,,,,,,,,,,,,,,,,,,,,,,MET14008/19/24 16:51:02 METAR KPHX 192351Z 26006KT 10SM FEW090 FEW250 43/12 A2980 RMK AO2 SLP068 CB DSNT N-NE AND SE-S T04330122 10444 20378 56025,FM-15,6,,,,,,,,,,,,,,,,,,,,,,,,,,,03-04-2007 00:00
72278023183,19-08-2024 17:51,FM-15,6,,N,0.5,mi,"TEMP, PRECIP",1107,,"MXMN, SRG",33.4442,-112.0247,CONTRACTOR,,,,,,,,,,,,,,,,,,,,,,,,,,,,29.8,54,109,0,,,,16,29.73,FEW:02 90 FEW:02 250,28.63,10,73,250,,8,,,,,,,,,,,,,,,,,,,,,,,,,,,,,,,,,,,,,MET11808/19/24 17:51:01 METAR KPHX 200051Z 25007KT 10SM FEW090 FEW250 43/12 A2980 RMK AO2 SLP069 CB DSNT NE AND SE T04280122,FM-15,6,,,,,,,,,,,,,,,,,,,,,,,,,,,03-04-2007 00:00
72278023183,19-08-2024 18:51,FM-15,6,,N,0.5,mi,"TEMP, PRECIP",1107,,"MXMN, SRG",33.4442,-112.0247,CONTRACTOR,,,,,,,,,,,,,,,,,,,,,,,,,,,,29.8,53,107,0,,,,17,29.73,FEW:02 90 FEW:02 250,28.63,10,72,250,,9,,,,,,,,,,,,,,,,,,,,,,,,,,,,,,,,,,,,,MET11108/19/24 18:51:01 METAR KPHX 200151Z 25008KT 10SM FEW090 FEW250 42/12 A2980 RMK AO2 SLP067 CB DSNT NE T04170117,FM-15,6,,,,,,,,,,,,,,,,,,,,,,,,,,,03-04-2007 00:00
72278023183,19-08-2024 19:51,FM-15,6,,N,0.5,mi,"TEMP, PRECIP",1107,,"MXMN, SRG",33.4442,-112.0247,CONTRACTOR,,,,,,,,,,,,,,,,,,,,,,,,,,,,29.81,53,106,0,,-0.01,3,17,29.74,FEW:02 90 FEW:02 250,28.64,10,72,240,,6,,,,,,,,,,,,,,,,,,,,,,,,,,,,,,,,,,,,,MET10608/19/24 19:51:01 METAR KPHX 200251Z 24005KT 10SM FEW090 FEW250 41/12 A2981 RMK AO2 SLP072 T04110117 53004,FM-15,6,,,,,,,,,,,,,,,,,,,,,,,,,,,03-04-2007 00:00
72278023183,19-08-2024 20:51,FM-15,6,,N,0.5,mi,"TEMP, PRECIP",1107,,"MXMN, SRG",33.4442,-112.0247,CONTRACTOR,,,,,,,,,,,,,,,,,,,,,,,,,,,,29.81,54,104,0,,,,19,29.74,FEW:02 90 FEW:02 250,28.64,10,72,230,,6,,,,,,,,,,,,,,,,,,,,,,,,,,,,,,,,,,,,,MET10008/19/24 20:51:01 METAR KPHX 200351Z 23005KT 10SM FEW090 FEW250 40/12 A2981 RMK AO2 SLP071 T04000122,FM-15,6,,,,,,,,,,,,,,,,,,,,,,,,,,,03-04-2007 00:00
72278023183,19-08-2024 21:51,FM-15,6,,N,0.5,mi,"TEMP, PRECIP",1107,,"MXMN, SRG",33.4442,-112.0247,CONTRACTOR,,,,,,,,,,,,,,,,,,,,,,,,,,,,29.82,56,103,0,,,,21,29.75,FEW:02 90 FEW:02 250,28.65,10,72,260,,5,,,,,,,,,,,,,,,,,,,,,,,,,,,,,,,,,,,,,MET10008/19/24 21:51:01 METAR KPHX 200451Z 26004KT 10SM FEW090 FEW250 39/13 A2982 RMK AO2 SLP073 T03940133,FM-15,6,,,,,,,,,,,,,,,,,,,,,,,,,,,03-04-2007 00:00
72278023183,19-08-2024 22:51,SY-MT,7,,N,0.5,mi,"TEMP, PRECIP",1107,,"MXMN, SRG",33.4442,-112.0247,CONTRACTOR,,,,,,,,,,,,,,,,,,,,,,,,,,,,29.82,57,101,0,,-0.01,3,23,29.75,FEW:02 250,28.65,10,72,250,,3,,,,,,,,,,,,,,,,,,,,,,,,,,,,,,,,,,,,,SYN08072278 32966 22503 10383 20139 39702 40076 53004 90551 333 10433 20322 555 92006=MET11108/19/24 22:51:02 METAR KPHX 200551Z 25003KT 10SM FEW250 38/14 A2982 RMK AO2 SLP076 T03830139 10433 20378 53004,SY-MT,7,,,,,,,,,,,,,,,,,,,,,,,,,,,03-04-2007 00:00
72278023183,19-08-2024 23:51,FM-15,7,,N,0.5,mi,"TEMP, PRECIP",1107,,"MXMN, SRG",33.4442,-112.0247,CONTRACTOR,,,,,,,,,,,,,,,,,,,,,,,,,,,,29.84,58,102,0,,,,23,29.77,FEW:02 100,28.66,10,73,290,,5,,,,,,,,,,,,,,,,,,,,,,,,,,,,,,,,,,,,,MET10308/19/24 23:51:01 METAR KPHX 200651Z 29004KT 10SM FEW100 39/14 A2984 RMK AO2 SLP080 T03890144 404440311,FM-15,7,,,,,,,,,,,,,,,,,,,,,,,,,,,03-04-2007 00:00
72278023183,19-08-2024 23:59,SOD  ,6,,N,0.5,mi,"TEMP, PRECIP",1107,,"MXMN, SRG",33.4442,-112.0247,CONTRACTOR,,,,,,60,100,28,29.8,28.69,73,5.1,35,6.5,0,112,88,360,22,0,,,280,17,,,,,,,,,,,,,,,,,,,,,,,,,,,,,,,,,,,,,,,,,,,,,,,,,,,,,,,,SOD74324 HR PRECIPITATION (IN): 0.00 SNOW DEPTH (IN):0     24 HR SNOWFALL (IN):0.0  24 HR MAX TEMP (F):11224 HR MIN TEMP (F): 88AVERAGE STATION PRESSURE(D):28.689 MINIMUM SEA LEVEL PRESSURE:29.73 TIME OF OCCURRENCE:1928 PEAK WIND SPEED (MPH): 22 PEAK WIND DIR (DEG):360 PEAK WIND TIME (LST):      FASTEST 2MIN SPEED (MPH): 17FASTEST 2MIN DIR (DEG):280 FASTEST 2MIN TIME (LST):     AVERAGE WIND SPEED (MPH): 5.1 24 HR AVG TEMP (F):100DEPART FROM NORMAL:  6  HEATING DEGREE DAYS:  0 COOLING DEGREE DAYS: 35 LATEST DAY MAX TEMP (0700-1900 LST):112 LATEST NIGHT MIN TEMP(1900-0800 LST):88 HOURLY INCREMENTAL PRECIPITATION VALUES (IN):0.00 0.00 0.00 0.00 0.00 0.00 0.00 0.00 0.00 0.00 0.00 0.00 0.00 0.00 0.00 0.00 0.00 0.00 0.00 0.00 0.00 0.00 0.00 0.00,SOD  ,6,,,,,,,,,,,,,,,,,,,,,,,,,554,1908,03-04-2007 00:00
72278023183,20-08-2024 00:51,FM-15,7,,N,0.5,mi,"TEMP, PRECIP",1107,,"MXMN, SRG",33.4442,-112.0247,CONTRACTOR,,,,,,,,,,,,,,,,,,,,,,,,,,,,29.85,59,98,0,,,,27,29.78,FEW:02 90 FEW:02 130,28.68,10,72,0,,0,,,,,,,,,,,,,,,,,,,,,,,,,,,,,,,,,,,,,MET10608/20/24 00:51:02 METAR KPHX 200751Z 00000KT 10SM FEW090 FEW130 37/15 A2985 RMK AO2 SLP084 T03670150 (GEH),FM-15,7,,,,,,,,,,,,,,,,,,,,,,,,,,,03-04-2007 00:00
72278023183,20-08-2024 01:51,FM-15,7,,N,0.5,mi,"TEMP, PRECIP",1107,,"MXMN, SRG",33.4442,-112.0247,CONTRACTOR,,,,,,,,,,,,,,,,,,,,,,,,,,,,29.84,58,98,0,,-0.01,0,26,29.77,FEW:02 110,28.66,10,72,0,,0,,,,,,,,,,,,,,,,,,,,,,,,,,,,,,,,,,,,,MET10508/20/24 01:51:02 METAR KPHX 200851Z 00000KT 10SM FEW110 37/14 A2984 RMK AO2 SLP080 T03670144 50005 (GEH),FM-15,7,,,,,,,,,,,,,,,,,,,,,,,,,,,03-04-2007 00:00
72278023183,20-08-2024 02:00,FM-12,4,,N,0.5,mi,"TEMP, PRECIP",1107,,"MXMN, SRG",33.4442,-112.0247,CONTRACTOR,,,,,,,,,,,,,,,,,,,,,,,,,,,,,58,98,,,0.01,9,26,29.77,,28.67,9.94,72,0,,0,,,,,,,,,,,,,,,,,,,,,,,,,,,,,,,,,,,,,SYN06472278 32966 20000 10367 20144 39708 40080 50005 90851 555 92009=,FM-12,4,,,,,,,,,,,,,,,,,,,,,,,,,,,03-04-2007 00:00
72278023183,20-08-2024 02:51,FM-15,7,,N,0.5,mi,"TEMP, PRECIP",1107,,"MXMN, SRG",33.4442,-112.0247,CONTRACTOR,,,,,,,,,,,,,,,,,,,,,,,,,,,,29.84,59,96,0,,,,29,29.76,FEW:02 90,28.66,10,72,0,,0,,,,,,,,,,,,,,,,,,,,,,,,,,,,,,,,,,,,,MET09908/20/24 02:51:02 METAR KPHX 200951Z 00000KT 10SM FEW090 36/15 A2984 RMK AO2 SLP079 T03560150 (GEH),FM-15,7,,,,,,,,,,,,,,,,,,,,,,,,,,,03-04-2007 00:00
72278023183,20-08-2024 03:51,FM-15,7,,N,0.5,mi,"TEMP, PRECIP",1107,,"MXMN, SRG",33.4442,-112.0247,CONTRACTOR,,,,,,,,,,,,,,,,,,,,,,,,,,,,29.85,63,93,0,,,,37,29.78,FEW:02 100 FEW:02 130 FEW:02 180,28.68,10,73,0,,0,,,,,,,,,,,,,,,,,,,,,,,,,,,,,,,,,,,,,MET11308/20/24 03:51:02 METAR KPHX 201051Z 00000KT 10SM FEW100 FEW130 FEW180 34/17 A2985 RMK AO2 SLP084 T03390172 (GEH),FM-15,7,,,,,,,,,,,,,,,,,,,,,,,,,,,03-04-2007 00:00
72278023183,20-08-2024 04:51,FM-15,7,,N,0.5,mi,"TEMP, PRECIP",1107,,"MXMN, SRG",33.4442,-112.0247,CONTRACTOR,,,,,,,,,,,,,,,,,,,,,,,,,,,,29.86,59,94,0,,-0.02,3,31,29.79,FEW:02 100 SCT:04 150 SCT:04 180,28.69,10,71,180,,6,,,,,,,,,,,,,,,,,,,,,,,,,,,,,,,,,,,,,MET13108/20/24 04:51:02 METAR KPHX 201151Z 18005KT 10SM FEW100 SCT150 SCT180 34/15 A2986 RMK AO2 SLP088 T03440150 10389 20339 53006 (GEH),FM-15,7,,,,,,,,,,,,,,,,,,,,,,,,,,,03-04-2007 00:00
72278023183,20-08-2024 05:00,FM-12,4,,N,0.5,mi,"TEMP, PRECIP",1107,,"MXMN, SRG",33.4442,-112.0247,CONTRACTOR,,,,,,,,,,,,,,,,,,,,,,,,,,,,,59,94,,,-0.02,3,31,29.79,,28.69,9.94,71,180,,6,,,,,,,,,,,,,,,,,,,,,,,,,,,,,,,,,,,,,SYN08072278 32966 41805 10344 20150 39715 40088 53006 91151 333 10444 20339 555 92012=,FM-12,4,,,,,,,,,,,,,,,,,,,,,,,,,,,03-04-2007 00:00
72278023183,20-08-2024 05:51,FM-15,7,,N,0.5,mi,"TEMP, PRECIP",1107,,"MXMN, SRG",33.4442,-112.0247,CONTRACTOR,,,,,,,,,,,,,,,,,,,,,,,,,,,,29.88,58,94,0,,,,30,29.81,FEW:02 100 SCT:04 150 BKN:07 180,28.7,10,71,120,,3,,,,,,,,,,,,,,,,,,,,,,,,,,,,,,,,,,,,,MET11308/20/24 05:51:02 METAR KPHX 201251Z 12003KT 10SM FEW100 SCT150 BKN180 34/14 A2988 RMK AO2 SLP095 T03440144 (GEH),FM-15,7,,,,,,,,,,,,,,,,,,,,,,,,,,,03-04-2007 00:00
72278023183,20-08-2024 06:51,FM-15,7,,N,0.5,mi,"TEMP, PRECIP",1107,,"MXMN, SRG",33.4442,-112.0247,CONTRACTOR,,,,,,,,,,,,,,,,,,,,,,,,,,,,29.91,63,92,0,,,,38,29.84,FEW:02 100 FEW:02 150 FEW:02 180,28.73,10,73,140,,8,,,,,,,,,,,,,,,,,,,,,,,,,,,,,,,,,,,,,MET11308/20/24 06:51:02 METAR KPHX 201351Z 14007KT 10SM FEW100 FEW150 FEW180 33/17 A2991 RMK AO2 SLP105 T03330172 (GEH),FM-15,7,,,,,,,,,,,,,,,,,,,,,,,,,,,03-04-2007 00:00
72278023183,20-08-2024 07:51,FM-15,7,,N,0.5,mi,"TEMP, PRECIP",1107,,"MXMN, SRG",33.4442,-112.0247,CONTRACTOR,,,,,,,,,,,,,,,,,,,,,,,,,,,,29.93,62,94,0,,-0.06,1,35,29.86,FEW:02 100 FEW:02 150 FEW:02 180,28.75,10,73,110,,9,,,,,,,,,,,,,,,,,,,,,,,,,,,,,,,,,,,,,MET11808/20/24 07:51:02 METAR KPHX 201451Z 11008KT 10SM FEW100 FEW150 FEW180 34/17 A2993 RMK AO2 SLP111 T03440167 51022 (SH),FM-15,7,,,,,,,,,,,,,,,,,,,,,,,,,,,03-04-2007 00:00
72278023183,20-08-2024 08:00,FM-12,4,,N,0.5,mi,"TEMP, PRECIP",1107,,"MXMN, SRG",33.4442,-112.0247,CONTRACTOR,,,,,,,,,,,,,,,,,,,,,,,,,,,,,62,94,,,-0.06,1,35,29.86,,28.76,9.94,73,110,,9,,,,,,,,,,,,,,,,,,,,,,,,,,,,,,,,,,,,,SYN06472278 32966 41108 10344 20167 39738 40111 51022 91451 555 92015=,FM-12,4,,,,,,,,,,,,,,,,,,,,,,,,,,,03-04-2007 00:00
72278023183,20-08-2024 08:51,FM-15,7,,N,0.5,mi,"TEMP, PRECIP",1107,,"MXMN, SRG",33.4442,-112.0247,CONTRACTOR,,,,,,,,,,,,,,,,,,,,,,,,,,,,29.94,61,97,0,,,,30,29.87,FEW:02 100 FEW:02 150 FEW:02 180,28.76,10,73,VRB,,5,,,,,,,,,,,,,,,,,,,,,,,,,,,,,,,,,,,,,MET11208/20/24 08:51:02 METAR KPHX 201551Z VRB04KT 10SM FEW100 FEW150 FEW180 36/16 A2994 RMK AO2 SLP114 T03610161 (SH),FM-15,7,,,,,,,,,,,,,,,,,,,,,,,,,,,03-04-2007 00:00
72278023183,20-08-2024 09:51,FM-15,7,,N,0.5,mi,"TEMP, PRECIP",1107,,"MXMN, SRG",33.4442,-112.0247,CONTRACTOR,,,,,,,,,,,,,,,,,,,,,,,,,,,,29.94,60,100,0,,,,27,29.87,FEW:02 150 FEW:02 230,28.76,10,73,30,,3,,,,,,,,,,,,,,,,,,,,,,,,,,,,,,,,,,,,,MET10508/20/24 09:51:02 METAR KPHX 201651Z 03003KT 10SM FEW150 FEW230 38/16 A2994 RMK AO2 SLP116 T03780156 (SH),FM-15,7,,,,,,,,,,,,,,,,,,,,,,,,,,,03-04-2007 00:00
72278023183,20-08-2024 10:51,FM-15,7,,N,0.5,mi,"TEMP, PRECIP",1107,,"MXMN, SRG",33.4442,-112.0247,CONTRACTOR,,,,,,,,,,,,,,,,,,,,,,,,,,,,29.95,59,103,0,,-0.02,1,24,29.88,FEW:02 150 FEW:02 230,28.77,10,74,VRB,18,11,,,,,,,,,,,,,,,,,,,,,,,,,,,,,,,,,,,,,MET12608/20/24 10:51:02 METAR KPHX 201751Z 27010G16KT 10SM FEW150 FEW230 39/15 A2995 RMK AO2 SLP117 T03940150 10394 20333 51006 (SH),FM-15,7,,,,,,,,,,,,,,,,,,,,,,,,,,,03-04-2007 00:00
72278023183,20-08-2024 11:00,FM-12,4,,N,0.5,mi,"TEMP, PRECIP",1107,,"MXMN, SRG",33.4442,-112.0247,CONTRACTOR,,,,,,,,,,,,,,,,,,,,,,,,,,,,,59,103,,,-0.02,1,24,29.88,,28.77,9.94,74,270,,11,,,,,,,,,,,,,,,,,,,,,,,,,,,,,,,,,,,,,SYN08672278 32966 22710 10394 20150 39744 40117 51006 91751 333 10394 20333 91016 555 92018=,FM-12,4,,,,,,,,,,,,,,,,,,,,,,,,,,,03-04-2007 00:00
72278023183,20-08-2024 11:51,FM-15,7,,N,0.5,mi,"TEMP, PRECIP",1107,,"MXMN, SRG",33.4442,-112.0247,CONTRACTOR,,,,,,,,,,,,,,,,,,,,,,,,,,,,29.92,58,105,0,,,,21,29.85,FEW:02 150 SCT:04 230,28.74,10,74,270,,9,,,,,,,,,,,,,,,,,,,,,,,,,,,,,,,,,,,,,MET10508/20/24 11:51:02 METAR KPHX 201851Z 27008KT 10SM FEW150 SCT230 41/14 A2992 RMK AO2 SLP107 T04060144 (SH),FM-15,7,,,,,,,,,,,,,,,,,,,,,,,,,,,03-04-2007 00:00
72278023183,20-08-2024 12:51,FM-15,7,,N,0.5,mi,"TEMP, PRECIP",1107,,"MXMN, SRG",33.4442,-112.0247,CONTRACTOR,,,,,,,,,,,,,,,,,,,,,,,,,,,,29.89,58,106,0,,,,21,29.82,FEW:02 80 SCT:04 150 SCT:04 230,28.71,10,74,VRB,,7,,,,,,,,,,,,,,,,,,,,,,,,,,,,,,,,,,,,,MET11208/20/24 12:51:02 METAR KPHX 201951Z VRB06KT 10SM FEW080 SCT150 SCT230 41/14 A2989 RMK AO2 SLP098 T04110144 (SH),FM-15,7,,,,,,,,,,,,,,,,,,,,,,,,,,,03-04-2007 00:00
72278023183,20-08-2024 12:52,FM-16,7,,N,0.5,mi,"TEMP, PRECIP",1107,,"MXMN, SRG",33.4442,-112.0247,CONTRACTOR,,,,,,,,,,,,,,,,,,,,,,,,,,,,29.89,58,106,,,,,21,,FEW:02 80 SCT:04 150 SCT:04 230,28.71,10,74,280,,8,,,,,,,,,,,,,,,,,,,,,,,,,,,,,,,,,,,,,MET11608/20/24 12:52:02 SPECI KPHX 201952Z 28007KT 10SM FEW080 SCT150 SCT230 41/14 A2989 RMK AO2 CB DSNT NE T04110144 (SH),FM-16,7,,,,,,,,,,,,,,,,,,,,,,,,,,,03-04-2007 00:00
72278023183,20-08-2024 13:51,FM-15,7,,N,0.5,mi,"TEMP, PRECIP",1107,,"MXMN, SRG",33.4442,-112.0247,CONTRACTOR,,,,,,,,,,,,,,,,,,,,,,,,,,,,29.86,57,107,0,,0.08,8,19,29.79,FEW:02 80 FEW:02 150 FEW:02 250,28.69,10,74,330,20,8,,,,,,,,,,,,,,,,,,,,,,,,,,,,,,,,,,,,,MET13808/20/24 13:51:02 METAR KPHX 202051Z 33007G17KT 10SM FEW080 FEW150 FEW250 42/14 A2986 RMK AO2 SLP087 CB DSNT N AND NE T04170139 58028 (SH),FM-15,7,,,,,,,,,,,,,,,,,,,,,,,,,,,03-04-2007 00:00
72278023183,20-08-2024 14:00,FM-12,4,,N,0.5,mi,"TEMP, PRECIP",1107,,"MXMN, SRG",33.4442,-112.0247,CONTRACTOR,,,,,,,,,,,,,,,,,,,,,,,,,,,,,57,107,,,0.08,8,19,29.79,74,28.69,9.94,74,330,,8,,,,,,,,,,,,,,,,,,,,,,,,,,,,,,,,,,,,,SYN07472278 32866 23307 10417 20139 39715 40087 58028 92051 333 91017 555 92021=,FM-12,4,,,,,,,,,,,,,,,,,,,,,,,,,,,03-04-2007 00:00
72278023183,20-08-2024 14:51,FM-15,7,,N,0.5,mi,"TEMP, PRECIP",1107,,"MXMN, SRG",33.4442,-112.0247,CONTRACTOR,,,,,,,,,,,,,,,,,,,,,,,,,,,,29.83,57,108,0,,,,19,29.76,FEW:02 100 FEW:02 150 SCT:04 250,28.66,10,74,310,,8,,,,,,,,,,,,,,,,,,,,,,,,,,,,,,,,,,,,,MET12508/20/24 14:51:02 METAR KPHX 202151Z 31007KT 10SM FEW100 FEW150 SCT250 42/14 A2983 RMK AO2 SLP077 CB DSNT N-NE T04220139 (JH),FM-15,7,,,,,,,,,,,,,,,,,,,,,,,,,,,03-04-2007 00:00
72278023183,20-08-2024 15:51,FM-15,7,,N,0.5,mi,"TEMP, PRECIP",1107,,"MXMN, SRG",33.4442,-112.0247,CONTRACTOR,,,,,,,,,,,,,,,,,,,,,,,,,,,,29.8,58,111,0,,,,18,29.72,FEW:02 100 FEW:02 250,28.63,10,75,260,17,10,,,,,,,,,,,,,,,,,,,,,,,,,,,,,,,,,,,,,MET12208/20/24 15:51:02 METAR KPHX 202251Z 26009G15KT 10SM FEW100 FEW250 44/14 A2980 RMK AO2 SLP066 CB DSNT NE-SE T04390144 (JH),FM-15,7,,,,,,,,,,,,,,,,,,,,,,,,,,,03-04-2007 00:00
72278023183,20-08-2024 16:51,FM-15,7,,N,0.5,mi,"TEMP, PRECIP",1107,,"MXMN, SRG",33.4442,-112.0247,CONTRACTOR,,,,,,,,,,,,,,,,,,,,,,,,,,,,29.78,57,111,0,,0.07,6,17,29.71,FEW:02 100 FEW:02 250,28.61,10,75,240,21,14,,,,,,,,,,,,,,,,,,,,,,,,,,,,,,,,,,,,,MET13708/20/24 16:51:02 METAR KPHX 202351Z 24012G18KT 10SM FEW100 FEW250 44/14 A2978 RMK AO2 SLP061 CB DSNT NE T04390139 10444 20389 56025 (JH),FM-15,7,,,,,,,,,,,,,,,,,,,,,,,,,,,03-04-2007 00:00
72278023183,20-08-2024 17:00,FM-12,4,,N,0.5,mi,"TEMP, PRECIP",1107,,"MXMN, SRG",33.4442,-112.0247,CONTRACTOR,,,,,,,,,,,,,,,,,,,,,,,,,,,,,57,111,,,0.07,6,17,29.71,,28.61,9.94,75,240,,14,,,,,,,,,,,,,,,,,,,,,,,,,,,,,,,,,,,,,SYN08672278 32966 22412 10439 20139 39689 40061 56025 92351 333 10444 20339 91018 555 92100=,FM-12,4,,,,,,,,,,,,,,,,,,,,,,,,,,,03-04-2007 00:00
72278023183,20-08-2024 17:51,FM-15,7,,N,0.5,mi,"TEMP, PRECIP",1107,,"MXMN, SRG",33.4442,-112.0247,CONTRACTOR,,,,,,,,,,,,,,,,,,,,,,,,,,,,29.76,54,111,0,,,,15,29.69,FEW:02 100 FEW:02 250,28.59,10,73,270,,13,,,,,,,,,,,,,,,,,,,,,,,,,,,,,,,,,,,,,MET12008/20/24 17:51:01 METAR KPHX 210051Z 27011KT 10SM FEW100 FEW250 44/12 A2976 RMK AO2 SLP054 CB DSNT NE AND SE-S T04390122,FM-15,7,,,,,,,,,,,,,,,,,,,,,,,,,,,03-04-2007 00:00
72278023183,20-08-2024 18:51,FM-15,7,,N,0.5,mi,"TEMP, PRECIP",1107,,"MXMN, SRG",33.4442,-112.0247,CONTRACTOR,,,,,,,,,,,,,,,,,,,,,,,,,,,,29.77,53,109,0,,,,16,29.7,FEW:02 100 FEW:02 250,28.6,10,72,260,,10,,,,,,,,,,,,,,,,,,,,,,,,,,,,,,,,,,,,,MET12008/20/24 18:51:01 METAR KPHX 210151Z 26009KT 10SM FEW100 FEW250 43/12 A2977 RMK AO2 SLP059 CB DSNT NE AND SE-S T04280117,FM-15,7,,,,,,,,,,,,,,,,,,,,,,,,,,,03-04-2007 00:00
72278023183,20-08-2024 19:51,FM-15,7,,N,0.5,mi,"TEMP, PRECIP",1107,,"MXMN, SRG",33.4442,-112.0247,CONTRACTOR,,,,,,,,,,,,,,,,,,,,,,,,,,,,29.79,56,107,0,,-0.01,3,19,29.72,FEW:02 100 FEW:02 250,28.62,10,73,240,,10,,,,,,,,,,,,,,,,,,,,,,,,,,,,,,,,,,,,,MET14808/20/24 19:51:01 METAR KPHX 210251Z 24009KT 10SM FEW100 FEW250 42/13 A2979 RMK AO2 SLP065 OCNL LTGIC DSNT NE AND S CB DSNT NE AND S T04170133 53003,FM-15,7,,,,,,,,,,,,,,,,,,,,,,,,,,,03-04-2007 00:00
72278023183,20-08-2024 20:00,FM-12,4,,N,0.5,mi,"TEMP, PRECIP",1107,,"MXMN, SRG",33.4442,-112.0247,CONTRACTOR,,,,,,,,,,,,,,,,,,,,,,,,,,,,,56,107,,,-0.01,3,19,29.72,,28.62,9.94,73,240,,10,,,,,,,,,,,,,,,,,,,,,,,,,,,,,,,,,,,,,SYN06472278 32966 22409 10417 20133 39692 40065 53003 90251 555 92103=,FM-12,4,,,,,,,,,,,,,,,,,,,,,,,,,,,03-04-2007 00:00
72278023183,20-08-2024 20:51,FM-15,7,,N,0.5,mi,"TEMP, PRECIP",1107,,"MXMN, SRG",33.4442,-112.0247,CONTRACTOR,,,,,,,,,,,,,,,,,,,,,,,,,,,,29.82,56,105,0,,,,20,29.75,SCT:04 120 BKN:07 230,28.65,10,73,240,,13,,,,,,,,,,,,,,,,,,,,,,,,,,,,,,,,,,,,,MET10008/20/24 20:51:02 METAR KPHX 210351Z 24011KT 10SM SCT120 BKN230 41/13 A2982 RMK AO2 SLP075 T04060133,FM-15,7,,,,,,,,,,,,,,,,,,,,,,,,,,,03-04-2007 00:00
72278023183,20-08-2024 21:51,FM-15,7,,N,0.5,mi,"TEMP, PRECIP",1107,,"MXMN, SRG",33.4442,-112.0247,CONTRACTOR,,,,,,,,,,,,,,,,,,,,,,,,,,,,29.85,61,103,0,,,,25,29.78,SCT:04 120 SCT:04 170 BKN:07 230,28.68,10,74,250,30,15,,,,,,,,,,,,,,,,,,,,,,,,,,,,,,,,,,,,,MET12808/20/24 21:51:01 METAR KPHX 210451Z 25013G26KT 10SM SCT120 SCT170 BKN230 39/16 A2985 RMK AO2 PK WND 25026/0443 SLP084 T03940161,FM-15,7,,,,,,,,,,,,,,,,,,,,,,,,,,,03-04-2007 00:00
72278023183,20-08-2024 22:51,FM-15,7,,N,0.5,mi,"TEMP, PRECIP",1107,,"MXMN, SRG",33.4442,-112.0247,CONTRACTOR,,,,,,,,,,,,,,,,,,,,,,,,,,,,29.86,62,100,0,,-0.07,1,29,29.79,SCT:04 120 SCT:04 170 BKN:07 230,28.69,10,74,260,,10,,,,,,,,,,,,,,,,,,,,,,,,,,,,,,,,,,,,,MET12508/20/24 22:51:02 METAR KPHX 210551Z 26009KT 10SM SCT120 SCT170 BKN230 38/17 A2986 RMK AO2 SLP089 T03780167 10444 20378 51023,FM-15,7,,,,,,,,,,,,,,,,,,,,,,,,,,,03-04-2007 00:00
72278023183,20-08-2024 23:00,FM-12,4,,N,0.5,mi,"TEMP, PRECIP",1107,,"MXMN, SRG",33.4442,-112.0247,CONTRACTOR,,,,,,,,,,,,,,,,,,,,,,,,,,,,,62,100,,,-0.07,1,29,29.79,,28.69,9.94,74,260,,10,,,,,,,,,,,,,,,,,,,,,,,,,,,,,,,,,,,,,SYN08072278 32966 62609 10378 20167 39715 40089 51023 90551 333 10444 20339 555 92106=,FM-12,4,,,,,,,,,,,,,,,,,,,,,,,,,,,03-04-2007 00:00
72278023183,20-08-2024 23:51,FM-15,7,,N,0.5,mi,"TEMP, PRECIP",1107,,"MXMN, SRG",33.4442,-112.0247,CONTRACTOR,,,,,,,,,,,,,,,,,,,,,,,,,,,,29.89,62,101,0,,,,28,29.81,SCT:04 130 BKN:07 150 BKN:07 230,28.71,10,74,290,,7,,,,,,,,,,,,,,,,,,,,,,,,,,,,,,,,,,,,,MET11708/20/24 23:51:01 METAR KPHX 210651Z 29006KT 10SM SCT130 BKN150 BKN230 38/17 A2989 RMK AO2 SLP096 T03830167 404440333,FM-15,7,,,,,,,,,,,,,,,,,,,,,,,,,,,03-04-2007 00:00
72278023183,20-08-2024 23:59,SOD  ,6,,N,0.5,mi,"TEMP, PRECIP",1107,,"MXMN, SRG",33.4442,-112.0247,CONTRACTOR,,,,,,59,102,25,29.79,28.68,73,7.5,37,8.6,0,112,92,250,30,0,,,250,22,,,,,,,,,,,,,,,,,,,,,,,,,,,,,,,,,,,,,,,,,,,,,,,,,,,,,,,,SOD73924 HR PRECIPITATION (IN): 0.00 SNOW DEPTH (IN):0     24 HR SNOWFALL (IN):0.0  24 HR MAX TEMP (F):11224 HR MIN TEMP (F): 92AVERAGE STATION PRESSURE:28.680 MINIMUM SEA LEVEL PRESSURE:29.69 TIME OF OCCURRENCE:1827 PEAK WIND SPEED (MPH): 30 PEAK WIND DIR (DEG):250 PEAK WIND TIME (LST):      FASTEST 2MIN SPEED (MPH): 22FASTEST 2MIN DIR (DEG):250 FASTEST 2MIN TIME (LST):     AVERAGE WIND SPEED (MPH): 7.5 24 HR AVG TEMP (F):102DEPART FROM NORMAL:  8  HEATING DEGREE DAYS:  0 COOLING DEGREE DAYS: 37 LATEST DAY MAX TEMP (0700-1900 LST):112 LATEST NIGHT MIN TEMP(1900-0800 LST):92 HOURLY INCREMENTAL PRECIPITATION VALUES (IN):.00 0.00 0.00 0.00 0.00 0.00 0.00 0.00 0.00 0.00 0.00 0.00 0.00 0.00 0.00 0.00 0.00 0.00 0.00 0.00 0.00 0.00 0.00 0.00,SOD  ,6,,,,,,,,,,,,,,,,,,,,,,,,,554,1907,03-04-2007 00:00
72278023183,21-08-2024 00:13,FM-16,7,,N,0.5,mi,"TEMP, PRECIP",1107,,"MXMN, SRG",33.4442,-112.0247,CONTRACTOR,,,,,,,,,,,,,,,,,,,,,,,,,,,,29.89,62,100,,TS:7 |TS TS |,,,29,,SCT:04 130 BKN:07 150 BKN:07 230,28.71,10,74,260,,10,,,,,,,,,,,,,,,,,,,,,,,,,,,,,,,,,,,,,MET13608/21/24 00:13:02 SPECI KPHX 210713Z 26009KT 10SM TS SCT130 BKN150 BKN230 38/17 A2989 RMK AO2 LTG DSNT W AND NW TSE11B13 T03780167 (GEH),FM-16,7,,,,,,,,,,,,,,,,,,,,,,,,,,,03-04-2007 00:00
72278023183,21-08-2024 00:15,FM-16,7,,N,0.5,mi,"TEMP, PRECIP",1107,,"MXMN, SRG",33.4442,-112.0247,CONTRACTOR,,,,,,,,,,,,,,,,,,,,,,,,,,,,29.89,62,100,,TS:7 |TS TS |,,,29,,SCT:04 130 SCT:04 150 SCT:04 230,28.71,10,74,260,,9,,,,,,,,,,,,,,,,,,,,,,,,,,,,,,,,,,,,,MET17108/21/24 00:15:02 SPECI KPHX 210715Z 26008KT 10SM TS SCT130CB SCT150 SCT230 38/17 A2989 RMK AO2 LTG DSNT W AND NW TSE11B13 FRQ LTGCGCCCA W-NW TS W-NW MOV N T03780167 (GEH),FM-16,7,,,,,,,,,,,,,,,,,,,,,,,,,,,03-04-2007 00:00
72278023183,21-08-2024 00:34,FM-16,7,,N,0.5,mi,"TEMP, PRECIP",1107,,"MXMN, SRG",33.4442,-112.0247,CONTRACTOR,,,,,,,,,,,,,,,,,,,,,,,,,,,,29.91,61,99,,,,,29,,SCT:04 130 SCT:04 150 SCT:04 230,28.73,10,73,150,,9,,,,,,,,,,,,,,,,,,,,,,,,,,,,,,,,,,,,,MET15308/21/24 00:34:02 SPECI KPHX 210734Z 15008KT 10SM SCT130CB SCT150 SCT230 37/16 A2991 RMK AO2 TSE11B13E32 FRQ LTGCGCCCA W-NW TS W-NW MOV N T03720161 (GEH),FM-16,7,,,,,,,,,,,,,,,,,,,,,,,,,,,03-04-2007 00:00
72278023183,21-08-2024 00:51,FM-15,7,,N,0.5,mi,"TEMP, PRECIP",1107,,"MXMN, SRG",33.4442,-112.0247,CONTRACTOR,,,,,,,,,,,,,,,,,,,,,,,,,,,,29.92,58,98,0,TS:7 |TS TS |,,,26,29.85,SCT:04 130 SCT:04 150 BKN:07 230,28.74,10,72,180,,6,,,,,,,,,,,,,,,,,,,,,,,,,,,,,,,,,,,,,MET16408/21/24 00:51:02 METAR KPHX 210751Z 18005KT 10SM TS SCT130CB SCT150 BKN230 37/14 A2992 RMK AO2 TSE11B13E32B39 SLP107 FRQ LTGICCA W-NW TS W-NW MOV N T03670144 (GEH),FM-15,7,,,,,,,,,,,,,,,,,,,,,,,,,,,03-04-2007 00:00
72278023183,21-08-2024 01:51,FM-15,7,,N,0.5,mi,"TEMP, PRECIP",1107,,"MXMN, SRG",33.4442,-112.0247,CONTRACTOR,,,,,,,,,,,,,,,,,,,,,,,,,,,,29.93,62,96,0,TS:7 |TS TS |,-0.06,1,32,29.86,SCT:04 130 BKN:07 190 BKN:07 210,28.75,10,73,0,,0,,,,,,,,,,,,,,,,,,,,,,,,,,,,,,,,,,,,,MET18608/21/24 01:51:02 METAR KPHX 210851Z 00000KT 10SM TS SCT130CB BKN190 BKN210 36/17 A2993 RMK AO2 SLP112 FRQ LTGICCA N-NE OCNL LTGIC DSNT NW TS N-NE MOV NW CB DSNT NW T03560167 51022 (GEH),FM-15,7,,,,,,,,,,,,,,,,,,,,,,,,,,,03-04-2007 00:00
72278023183,21-08-2024 02:00,FM-12,4,,N,0.5,mi,"TEMP, PRECIP",1107,,"MXMN, SRG",33.4442,-112.0247,CONTRACTOR,,,,,,,,,,,,,,,,,,,,,,,,,,,,,62,96,,||TS,-0.06,1,32,29.86,,28.76,9.94,73,0,,0,,,,,,,,,,,,,,,,,,,,,,,,,,,,,,,,,,,,,SYN07072278 31966 60000 10356 20167 39738 40112 51022 795// 90851 555 92109=,FM-12,4,,,,,,,,,,,,,,,,,,,,,,,,,,,03-04-2007 00:00
72278023183,21-08-2024 02:24,FM-16,7,,N,0.5,mi,"TEMP, PRECIP",1107,,"MXMN, SRG",33.4442,-112.0247,CONTRACTOR,,,,,,,,,,,,,,,,,,,,,,,,,,,,29.94,62,96,,,,,32,,SCT:04 130 BKN:07 190 BKN:07 210,28.76,10,73,290,,9,,,,,,,,,,,,,,,,,,,,,,,,,,,,,,,,,,,,,MET11208/21/24 02:24:02 SPECI KPHX 210924Z 29008KT 10SM SCT130 BKN190 BKN210 36/17 A2994 RMK AO2 TSE24 T03560167 (GEH),FM-16,7,,,,,,,,,,,,,,,,,,,,,,,,,,,03-04-2007 00:00
72278023183,21-08-2024 02:51,FM-15,7,,N,0.5,mi,"TEMP, PRECIP",1107,,"MXMN, SRG",33.4442,-112.0247,CONTRACTOR,,,,,,,,,,,,,,,,,,,,,,,,,,,,29.94,62,95,0,,,,34,29.87,SCT:04 140 BKN:07 160 BKN:07 210,28.76,10,73,250,,7,,,,,,,,,,,,,,,,,,,,,,,,,,,,,,,,,,,,,MET11908/21/24 02:51:02 METAR KPHX 210951Z 25006KT 10SM SCT140 BKN160 BKN210 35/17 A2994 RMK AO2 TSE24 SLP116 T03500167 (GEH),FM-15,7,,,,,,,,,,,,,,,,,,,,,,,,,,,03-04-2007 00:00
72278023183,21-08-2024 03:51,FM-15,7,,N,0.5,mi,"TEMP, PRECIP",1107,,"MXMN, SRG",33.4442,-112.0247,CONTRACTOR,,,,,,,,,,,,,,,,,,,,,,,,,,,,29.94,62,94,T,,,,35,29.87,SCT:04 150 BKN:07 170 BKN:07 200,28.76,10,73,320,,7,,,,,,,,,,,,,,,,,,,,,,,,,,,,,,,,,,,,,MET12808/21/24 03:51:02 METAR KPHX 211051Z 32006KT 10SM SCT150 BKN170 BKN200 34/17 A2994 RMK AO2 RAB03E12 SLP115 P0000 T03440167 (GEH),FM-15,7,,,,,,,,,,,,,,,,,,,,,,,,,,,03-04-2007 00:00
72278023183,21-08-2024 04:51,FM-15,7,,N,0.5,mi,"TEMP, PRECIP",1107,,"MXMN, SRG",33.4442,-112.0247,CONTRACTOR,,,,,,,,,,,,,,,,,,,,,,,,,,,,29.95,65,92,0,,-0.02,1,41,29.88,SCT:04 150 BKN:07 170 BKN:07 200,28.77,10,74,50,,8,,,,,,,,,,,,,,,,,,,,,,,,,,,,,,,,,,,,,MET13708/21/24 04:51:02 METAR KPHX 211151Z 05007KT 10SM SCT150 BKN170 BKN200 33/18 A2995 RMK AO2 SLP118 60000 T03330183 10383 20333 51006 (GEH),FM-15,7,,,,,,,,,,,,,,,,,,,,,,,,,,,03-04-2007 00:00
72278023183,21-08-2024 05:00,FM-12,4,,N,0.5,mi,"TEMP, PRECIP",1107,,"MXMN, SRG",33.4442,-112.0247,CONTRACTOR,,,,,,,,,,,,,,,,,,,,,,,,,,,,,65,92,,,-0.02,1,41,29.88,,28.77,9.94,74,50,,8,,,,,,,,,,,,,,,,,,,,,,,,,,,,,,,,,,,,,SYN08672278 12966 60507 10333 20183 39744 40118 51006 69901 91151 333 10444 20333 555 92112=,FM-12,4,,,,,,,,,,,,,,,,,,,,,,,,,,,03-04-2007 00:00
72278023183,21-08-2024 05:51,FM-15,7,,N,0.5,mi,"TEMP, PRECIP",1107,,"MXMN, SRG",33.4442,-112.0247,CONTRACTOR,,,,,,,,,,,,,,,,,,,,,,,,,,,,29.96,65,91,0,,,,42,29.89,FEW:02 150 SCT:04 190 SCT:04 250,28.78,10,73,50,,8,,,,,,,,,,,,,,,,,,,,,,,,,,,,,,,,,,,,,MET11308/21/24 05:51:02 METAR KPHX 211251Z 05007KT 10SM FEW150 SCT190 SCT250 33/18 A2996 RMK AO2 SLP122 T03280183 (GEH),FM-15,7,,,,,,,,,,,,,,,,,,,,,,,,,,,03-04-2007 00:00
72278023183,21-08-2024 06:51,FM-15,7,,N,0.5,mi,"TEMP, PRECIP",1107,,"MXMN, SRG",33.4442,-112.0247,CONTRACTOR,,,,,,,,,,,,,,,,,,,,,,,,,,,,29.97,66,91,0,,,,44,29.9,FEW:02 150 SCT:04 180 SCT:04 250,28.79,10,74,100,,6,,,,,,,,,,,,,,,,,,,,,,,,,,,,,,,,,,,,,MET11208/21/24 06:51:02 METAR KPHX 211351Z 10005KT 10SM FEW150 SCT180 SCT250 33/19 A2997 RMK AO2 SLP126 T03280189 (AR),FM-15,7,,,,,,,,,,,,,,,,,,,,,,,,,,,03-04-2007 00:00
72278023183,21-08-2024 07:51,FM-15,7,,N,0.5,mi,"TEMP, PRECIP",1107,,"MXMN, SRG",33.4442,-112.0247,CONTRACTOR,,,,,,,,,,,,,,,,,,,,,,,,,,,,29.98,62,94,0,,-0.03,2,35,29.91,FEW:02 150 SCT:04 190 SCT:04 250,28.8,10,73,0,,0,,,,,,,,,,,,,,,,,,,,,,,,,,,,,,,,,,,,,MET11808/21/24 07:51:02 METAR KPHX 211451Z 00000KT 10SM FEW150 SCT190 SCT250 34/17 A2998 RMK AO2 SLP130 T03440167 52011 (AR),FM-15,7,,,,,,,,,,,,,,,,,,,,,,,,,,,03-04-2007 00:00
72278023183,21-08-2024 08:00,FM-12,4,,N,0.5,mi,"TEMP, PRECIP",1107,,"MXMN, SRG",33.4442,-112.0247,CONTRACTOR,,,,,,,,,,,,,,,,,,,,,,,,,,,,,62,94,,,-0.03,2,35,29.91,,28.8,9.94,73,0,,0,,,,,,,,,,,,,,,,,,,,,,,,,,,,,,,,,,,,,SYN06472278 32966 40000 10344 20167 39754 40130 52011 91451 555 92115=,FM-12,4,,,,,,,,,,,,,,,,,,,,,,,,,,,03-04-2007 00:00
72278023183,21-08-2024 08:51,FM-15,7,,N,0.5,mi,"TEMP, PRECIP",1107,,"MXMN, SRG",33.4442,-112.0247,CONTRACTOR,,,,,,,,,,,,,,,,,,,,,,,,,,,,29.98,61,96,0,,,,31,29.91,FEW:02 180 SCT:04 200 SCT:04 250,28.8,10,73,110,,5,,,,,,,,,,,,,,,,,,,,,,,,,,,,,,,,,,,,,MET11208/21/24 08:51:02 METAR KPHX 211551Z 11004KT 10SM FEW180 SCT200 SCT250 36/16 A2998 RMK AO2 SLP130 T03560161 (AR),FM-15,7,,,,,,,,,,,,,,,,,,,,,,,,,,,03-04-2007 00:00
72278023183,21-08-2024 09:51,FM-15,7,,N,0.5,mi,"TEMP, PRECIP",1107,,"MXMN, SRG",33.4442,-112.0247,CONTRACTOR,,,,,,,,,,,,,,,,,,,,,,,,,,,,30,61,97,0,,,,30,29.93,SCT:04 140 BKN:07 180 BKN:07 230,28.82,10,73,110,,5,,,,,,,,,,,,,,,,,,,,,,,,,,,,,,,,,,,,,MET11208/21/24 09:51:02 METAR KPHX 211651Z 11004KT 10SM SCT140 BKN180 BKN230 36/16 A3000 RMK AO2 SLP134 T03610161 (AR),FM-15,7,,,,,,,,,,,,,,,,,,,,,,,,,,,03-04-2007 00:00
72278023183,21-08-2024 10:51,FM-15,7,,N,0.5,mi,"TEMP, PRECIP",1107,,"MXMN, SRG",33.4442,-112.0247,CONTRACTOR,,,,,,,,,,,,,,,,,,,,,,,,,,,,30,63,98,0,,-0.01,3,32,29.93,FEW:02 130 BKN:07 180 BKN:07 230,28.82,10,74,130,,8,,,,,,,,,,,,,,,,,,,,,,,,,,,,,,,,,,,,,MET13008/21/24 10:51:02 METAR KPHX 211751Z 13007KT 10SM FEW130 BKN180 BKN230 37/17 A3000 RMK AO2 SLP135 T03670172 10372 20322 53005 (AR),FM-15,7,,,,,,,,,,,,,,,,,,,,,,,,,,,03-04-2007 00:00
72278023183,21-08-2024 11:00,FM-12,4,,N,0.5,mi,"TEMP, PRECIP",1107,,"MXMN, SRG",33.4442,-112.0247,CONTRACTOR,,,,,,,,,,,,,,,,,,,,,,,,,,,,,63,98,,,-0.01,3,32,29.93,,28.82,9.94,74,130,,8,,,,,,,,,,,,,,,,,,,,,,,,,,,,,,,,,,,,,SYN08072278 32966 61307 10367 20172 39761 40135 53005 91751 333 10383 20322 555 92118=,FM-12,4,,,,,,,,,,,,,,,,,,,,,,,,,,,03-04-2007 00:00
72278023183,21-08-2024 11:51,FM-15,7,,N,0.5,mi,"TEMP, PRECIP",1107,,"MXMN, SRG",33.4442,-112.0247,CONTRACTOR,,,,,,,,,,,,,,,,,,,,,,,,,,,,29.98,62,103,0,,,,26,29.91,FEW:02 80 FEW:02 140 SCT:04 180,28.8,10,75,180,,13,,,,,,,,,,,,,,,,,,,,,,,,,,,,,,,,,,,,,MET11208/21/24 11:51:02 METAR KPHX 211851Z 18011KT 10SM FEW080 FEW140 SCT180 39/17 A2998 RMK AO2 SLP128 T03940167 (AR),FM-15,7,,,,,,,,,,,,,,,,,,,,,,,,,,,03-04-2007 00:00
72278023183,21-08-2024 12:51,FM-15,7,,N,0.5,mi,"TEMP, PRECIP",1107,,"MXMN, SRG",33.4442,-112.0247,CONTRACTOR,,,,,,,,,,,,,,,,,,,,,,,,,,,,29.95,57,103,0,,,,22,29.88,FEW:02 80 FEW:02 140 SCT:04 180,28.77,10,73,210,,17,,,,,,,,,,,,,,,,,,,,,,,,,,,,,,,,,,,,,MET11208/21/24 12:51:02 METAR KPHX 211951Z 21015KT 10SM FEW080 FEW140 SCT180 39/14 A2995 RMK AO2 SLP119 T03940139 (AR),FM-15,7,,,,,,,,,,,,,,,,,,,,,,,,,,,03-04-2007 00:00
72278023183,21-08-2024 13:51,FM-15,7,,N,0.5,mi,"TEMP, PRECIP",1107,,"MXMN, SRG",33.4442,-112.0247,CONTRACTOR,,,,,,,,,,,,,,,,,,,,,,,,,,,,29.93,55,98,0,,0.06,6,24,29.87,FEW:02 90 SCT:04 140 BKN:07 160,28.75,10,70,190,,9,,,,,,,,,,,,,,,,,,,,,,,,,,,,,,,,,,,,,MET13108/21/24 13:51:02 METAR KPHX 212051Z 19008KT 10SM FEW090 SCT140 BKN160 37/13 A2993 RMK AO2 SLP114 SHRA DSNT SE T03670128 56021 (AR),FM-15,7,,,,,,,,,,,,,,,,,,,,,,,,,,,03-04-2007 00:00
72278023183,21-08-2024 14:00,FM-12,4,,N,0.5,mi,"TEMP, PRECIP",1107,,"MXMN, SRG",33.4442,-112.0247,CONTRACTOR,,,,,,,,,,,,,,,,,,,,,,,,,,,,,55,98,,,0.06,6,24,29.87,,28.76,9.94,70,190,,9,,,,,,,,,,,,,,,,,,,,,,,,,,,,,,,,,,,,,SYN06472278 32966 61908 10367 20128 39738 40114 56021 92051 555 92121=,FM-12,4,,,,,,,,,,,,,,,,,,,,,,,,,,,03-04-2007 00:00
72278023183,21-08-2024 14:51,FM-15,7,,N,0.5,mi,"TEMP, PRECIP",1107,,"MXMN, SRG",33.4442,-112.0247,CONTRACTOR,,,,,,,,,,,,,,,,,,,,,,,,,,,,29.91,62,94,0,,,,35,29.84,SCT:04 90 SCT:04 130 BKN:07 160,28.73,10,73,120,,8,,,,,,,,,,,,,,,,,,,,,,,,,,,,,,,,,,,,,MET12908/21/24 14:51:02 METAR KPHX 212151Z 12007KT 10SM SCT090 SCT130 BKN160 34/17 A2991 RMK AO2 SLP105 VIRGA CB DSNT NE T03440167 (JH),FM-15,7,,,,,,,,,,,,,,,,,,,,,,,,,,,03-04-2007 00:00
72278023183,21-08-2024 15:51,FM-15,7,,N,0.5,mi,"TEMP, PRECIP",1107,,"MXMN, SRG",33.4442,-112.0247,CONTRACTOR,,,,,,,,,,,,,,,,,,,,,,,,,,,,29.88,61,91,0,,,,37,29.81,FEW:02 90 SCT:04 120 SCT:04 150,28.7,10,71,90,,5,,,,,,,,,,,,,,,,,,,,,,,,,,,,,,,,,,,,,MET12908/21/24 15:51:02 METAR KPHX 212251Z 09004KT 10SM FEW090 SCT120 SCT150 33/16 A2988 RMK AO2 SLP096 VIRGA CB DSNT NE T03280161 (JH),FM-15,7,,,,,,,,,,,,,,,,,,,,,,,,,,,03-04-2007 00:00
72278023183,21-08-2024 16:51,FM-15,7,,N,0.5,mi,"TEMP, PRECIP",1107,,"MXMN, SRG",33.4442,-112.0247,CONTRACTOR,,,,,,,,,,,,,,,,,,,,,,,,,,,,29.87,59,93,0,,0.06,6,32,29.8,FEW:02 90 SCT:04 120 SCT:04 150,28.69,10,71,140,,10,,,,,,,,,,,,,,,,,,,,,,,,,,,,,,,,,,,,,MET15008/21/24 16:51:02 METAR KPHX 212351Z 14009KT 10SM FEW090 SCT120 SCT150 34/15 A2987 RMK AO2 SLP093 CB DSNT N-NE AND SE T03390150 10406 20328 56021 (JH),FM-15,7,,,,,,,,,,,,,,,,,,,,,,,,,,,03-04-2007 00:00
72278023183,21-08-2024 17:00,FM-12,4,,N,0.5,mi,"TEMP, PRECIP",1107,,"MXMN, SRG",33.4442,-112.0247,CONTRACTOR,,,,,,,,,,,,,,,,,,,,,,,,,,,,,59,93,,,0.06,6,32,29.8,,28.7,9.94,71,140,,10,,,,,,,,,,,,,,,,,,,,,,,,,,,,,,,,,,,,,SYN08072278 32966 61409 10339 20150 39718 40093 56021 92351 333 10406 20328 555 92200=,FM-12,4,,,,,,,,,,,,,,,,,,,,,,,,,,,03-04-2007 00:00
72278023183,21-08-2024 17:51,FM-15,7,,N,0.5,mi,"TEMP, PRECIP",1107,,"MXMN, SRG",33.4442,-112.0247,CONTRACTOR,,,,,,,,,,,,,,,,,,,,,,,,,,,,29.86,58,93,0,,,,31,29.8,FEW:02 90 SCT:04 120 SCT:04 150,28.69,10,70,160,,8,,,,,,,,,,,,,,,,,,,,,,,,,,,,,,,,,,,,,MET11808/21/24 17:51:01 METAR KPHX 220051Z 16007KT 10SM FEW090 SCT120 SCT150 34/14 A2986 RMK AO2 SLP091 CB DSNT NE T03390144,FM-15,7,,,,,,,,,,,,,,,,,,,,,,,,,,,03-04-2007 00:00
72278023183,21-08-2024 18:51,FM-15,7,,N,0.5,mi,"TEMP, PRECIP",1107,,"MXMN, SRG",33.4442,-112.0247,CONTRACTOR,,,,,,,,,,,,,,,,,,,,,,,,,,,,29.86,57,93,0,,,,30,29.8,FEW:02 90 SCT:04 120 SCT:04 160,28.69,10,70,140,,10,,,,,,,,,,,,,,,,,,,,,,,,,,,,,,,,,,,,,MET11308/21/24 18:51:01 METAR KPHX 220151Z 14009KT 10SM FEW090 SCT120 SCT160 34/14 A2986 RMK AO2 SLP091 VIRGA T03390139,FM-15,7,,,,,,,,,,,,,,,,,,,,,,,,,,,03-04-2007 00:00
72278023183,21-08-2024 19:51,FM-15,7,,N,0.5,mi,"TEMP, PRECIP",1107,,"MXMN, SRG",33.4442,-112.0247,CONTRACTOR,,,,,,,,,,,,,,,,,,,,,,,,,,,,29.87,60,92,0,,0,3,34,29.81,FEW:02 90 SCT:04 120 BKN:07 150,28.69,10,71,140,,10,,,,,,,,,,,,,,,,,,,,,,,,,,,,,,,,,,,,,MET14308/21/24 19:51:01 METAR KPHX 220251Z 14009KT 10SM FEW090 SCT120 BKN150 33/16 A2987 RMK AO2 SLP094 OCNL LTGIC DSNT NE CB DSNT NE T03330156 53001,FM-15,7,,,,,,,,,,,,,,,,,,,,,,,,,,,03-04-2007 00:00
72278023183,21-08-2024 20:00,FM-12,4,,N,0.5,mi,"TEMP, PRECIP",1107,,"MXMN, SRG",33.4442,-112.0247,CONTRACTOR,,,,,,,,,,,,,,,,,,,,,,,,,,,,,60,92,,,0,3,34,29.81,,28.7,9.94,71,140,,10,,,,,,,,,,,,,,,,,,,,,,,,,,,,,,,,,,,,,SYN06472278 32966 61409 10333 20156 39718 40094 53001 90251 555 92203=,FM-12,4,,,,,,,,,,,,,,,,,,,,,,,,,,,03-04-2007 00:00
72278023183,21-08-2024 20:51,FM-15,7,,N,0.5,mi,"TEMP, PRECIP",1107,,"MXMN, SRG",33.4442,-112.0247,CONTRACTOR,,,,,,,,,,,,,,,,,,,,,,,,,,,,29.89,60,93,0,,,,33,29.82,SCT:04 100 BKN:07 140 BKN:07 190,28.71,10,71,150,,8,,,,,,,,,,,,,,,,,,,,,,,,,,,,,,,,,,,,,MET10708/21/24 20:51:01 METAR KPHX 220351Z 15007KT 10SM SCT100 BKN140 BKN190 34/16 A2989 RMK AO2 SLP098 T03390156,FM-15,7,,,,,,,,,,,,,,,,,,,,,,,,,,,03-04-2007 00:00
72278023183,21-08-2024 21:51,FM-15,7,,N,0.5,mi,"TEMP, PRECIP",1107,,"MXMN, SRG",33.4442,-112.0247,CONTRACTOR,,,,,,,,,,,,,,,,,,,,,,,,,,,,29.89,61,92,0,,,,36,29.82,FEW:02 110 BKN:07 150 BKN:07 190,28.71,10,71,140,,6,,,,,,,,,,,,,,,,,,,,,,,,,,,,,,,,,,,,,MET10708/21/24 21:51:01 METAR KPHX 220451Z 14005KT 10SM FEW110 BKN150 BKN190 33/16 A2989 RMK AO2 SLP098 T03330161,FM-15,7,,,,,,,,,,,,,,,,,,,,,,,,,,,03-04-2007 00:00
72278023183,21-08-2024 22:51,FM-15,7,,N,0.5,mi,"TEMP, PRECIP",1107,,"MXMN, SRG",33.4442,-112.0247,CONTRACTOR,,,,,,,,,,,,,,,,,,,,,,,,,,,,29.88,61,92,0,,-0.01,0,36,29.81,FEW:02 110 BKN:07 160 BKN:07 180,28.7,10,71,110,,3,,,,,,,,,,,,,,,,,,,,,,,,,,,,,,,,,,,,,MET12508/21/24 22:51:02 METAR KPHX 220551Z 11003KT 10SM FEW110 BKN160 BKN180 33/16 A2988 RMK AO2 SLP096 T03330161 10339 20333 50003,FM-15,7,,,,,,,,,,,,,,,,,,,,,,,,,,,03-04-2007 00:00
72278023183,21-08-2024 23:00,FM-12,4,,N,0.5,mi,"TEMP, PRECIP",1107,,"MXMN, SRG",33.4442,-112.0247,CONTRACTOR,,,,,,,,,,,,,,,,,,,,,,,,,,,,,61,92,,,0.01,9,36,29.81,,28.71,9.94,71,110,,3,,,,,,,,,,,,,,,,,,,,,,,,,,,,,,,,,,,,,SYN08072278 32966 61103 10333 20161 39721 40096 50003 90551 333 10383 20333 555 92206=,FM-12,4,,,,,,,,,,,,,,,,,,,,,,,,,,,03-04-2007 00:00
72278023183,21-08-2024 23:51,FM-15,7,,N,0.5,mi,"TEMP, PRECIP",1107,,"MXMN, SRG",33.4442,-112.0247,CONTRACTOR,,,,,,,,,,,,,,,,,,,,,,,,,,,,29.88,60,92,0,,,,34,29.81,FEW:02 110 SCT:04 130 BKN:07 170,28.7,10,71,90,,5,,,,,,,,,,,,,,,,,,,,,,,,,,,,,,,,,,,,,MET11708/21/24 23:51:01 METAR KPHX 220651Z 09004KT 10SM FEW110 SCT130 BKN170 33/16 A2988 RMK AO2 SLP094 T03330156 404060322,FM-15,7,,,,,,,,,,,,,,,,,,,,,,,,,,,03-04-2007 00:00
72278023183,21-08-2024 23:59,SOD  ,6,,N,0.5,mi,"TEMP, PRECIP",1107,,"MXMN, SRG",33.4442,-112.0247,CONTRACTOR,,,,,,61,98,33,29.86,28.74,72,7.1,33,4.6,0,105,90,150,22,T,,,210,17,TS,,,,,,,,,,,,,,,,,,,,,,,,,,,,,,,,,,,,,,,,,,,,,,,,,,,,,,,SOD75624 HR PRECIPITATION (IN):    T SNOW DEPTH (IN):0     24 HR SNOWFALL (IN):0.0  WEATHER(CODE):3  24 HR MAX TEMP (F):10524 HR MIN TEMP (F): 90AVERAGE STATION PRESSURE:28.740 MINIMUM SEA LEVEL PRESSURE:29.80 TIME OF OCCURRENCE:1945 PEAK WIND SPEED (MPH): 22 PEAK WIND DIR (DEG):150 PEAK WIND TIME (LST):      FASTEST 2MIN SPEED (MPH): 17FASTEST 2MIN DIR (DEG):210 FASTEST 2MIN TIME (LST):     AVERAGE WIND SPEED (MPH): 7.1 24 HR AVG TEMP (F): 98DEPART FROM NORMAL:  4  HEATING DEGREE DAYS:  0 COOLING DEGREE DAYS: 33 LATEST DAY MAX TEMP (0700-1900 LST):105 LATEST NIGHT MIN TEMP(1900-0800 LST):90 HOURLY INCREMENTAL PRECIPITATION VALUES (IN):.00 0.00 0.00 T    0.00 0.00 0.00 0.00 0.00 0.00 0.00 0.00 0.00 0.00 0.00 0.00 0.00 0.00 0.00 0.00 0.00 0.00 0.00 0.00,SOD  ,6,,,,,,,,,,,,,,,,,,,,,,,,,555,1906,03-04-2007 00:00
72278023183,22-08-2024 00:51,FM-15,7,,N,0.5,mi,"TEMP, PRECIP",1107,,"MXMN, SRG",33.4442,-112.0247,CONTRACTOR,,,,,,,,,,,,,,,,,,,,,,,,,,,,29.87,61,91,0,,,,37,29.81,FEW:02 110 SCT:04 130 BKN:07 180,28.69,10,71,110,,5,,,,,,,,,,,,,,,,,,,,,,,,,,,,,,,,,,,,,MET11308/22/24 00:51:02 METAR KPHX 220751Z 11004KT 10SM FEW110 SCT130 BKN180 33/16 A2987 RMK AO2 SLP094 T03280161 (GEH),FM-15,7,,,,,,,,,,,,,,,,,,,,,,,,,,,03-04-2007 00:00
72278023183,22-08-2024 01:51,FM-15,7,,N,0.5,mi,"TEMP, PRECIP",1107,,"MXMN, SRG",33.4442,-112.0247,CONTRACTOR,,,,,,,,,,,,,,,,,,,,,,,,,,,,29.88,61,91,0,,0,5,37,29.81,FEW:02 110 SCT:04 130 BKN:07 180,28.7,10,71,100,,6,,,,,,,,,,,,,,,,,,,,,,,,,,,,,,,,,,,,,MET11908/22/24 01:51:02 METAR KPHX 220851Z 10005KT 10SM FEW110 SCT130 BKN180 33/16 A2988 RMK AO2 SLP095 T03280161 55001 (GEH),FM-15,7,,,,,,,,,,,,,,,,,,,,,,,,,,,03-04-2007 00:00
72278023183,22-08-2024 02:00,FM-12,4,,N,0.5,mi,"TEMP, PRECIP",1107,,"MXMN, SRG",33.4442,-112.0247,CONTRACTOR,,,,,,,,,,,,,,,,,,,,,,,,,,,,,61,91,,,0,5,37,29.81,,28.71,9.94,71,100,,6,,,,,,,,,,,,,,,,,,,,,,,,,,,,,,,,,,,,,SYN06472278 32966 61005 10328 20161 39721 40095 55001 90851 555 92209=,FM-12,4,,,,,,,,,,,,,,,,,,,,,,,,,,,03-04-2007 00:00
72278023183,22-08-2024 02:51,FM-15,7,,N,0.5,mi,"TEMP, PRECIP",1107,,"MXMN, SRG",33.4442,-112.0247,CONTRACTOR,,,,,,,,,,,,,,,,,,,,,,,,,,,,29.88,61,91,0,,,,37,29.82,FEW:02 110 SCT:04 130 BKN:07 180,28.7,10,71,140,,3,,,,,,,,,,,,,,,,,,,,,,,,,,,,,,,,,,,,,MET11308/22/24 02:51:02 METAR KPHX 220951Z 14003KT 10SM FEW110 SCT130 BKN180 33/16 A2988 RMK AO2 SLP097 T03280161 (GEH),FM-15,7,,,,,,,,,,,,,,,,,,,,,,,,,,,03-04-2007 00:00
72278023183,22-08-2024 03:51,FM-15,7,,N,0.5,mi,"TEMP, PRECIP",1107,,"MXMN, SRG",33.4442,-112.0247,CONTRACTOR,,,,,,,,,,,,,,,,,,,,,,,,,,,,29.87,60,91,0,,,,35,29.8,FEW:02 100 SCT:04 130 BKN:07 180,28.69,10,71,160,,6,,,,,,,,,,,,,,,,,,,,,,,,,,,,,,,,,,,,,MET11308/22/24 03:51:02 METAR KPHX 221051Z 16005KT 10SM FEW100 SCT130 BKN180 33/16 A2987 RMK AO2 SLP093 T03280156 (GEH),FM-15,7,,,,,,,,,,,,,,,,,,,,,,,,,,,03-04-2007 00:00
72278023183,22-08-2024 04:51,FM-15,7,,N,0.5,mi,"TEMP, PRECIP",1107,,"MXMN, SRG",33.4442,-112.0247,CONTRACTOR,,,,,,,,,,,,,,,,,,,,,,,,,,,,29.87,60,89,0,,0,7,38,29.81,FEW:02 100 SCT:04 130 BKN:07 210,28.69,10,70,140,,7,,,,,,,,,,,,,,,,,,,,,,,,,,,,,,,,,,,,,MET13108/22/24 04:51:02 METAR KPHX 221151Z 14006KT 10SM FEW100 SCT130 BKN210 32/16 A2987 RMK AO2 SLP094 T03170156 10333 20317 57001 (GEH),FM-15,7,,,,,,,,,,,,,,,,,,,,,,,,,,,03-04-2007 00:00
72278023183,22-08-2024 05:00,FM-12,4,,N,0.5,mi,"TEMP, PRECIP",1107,,"MXMN, SRG",33.4442,-112.0247,CONTRACTOR,,,,,,,,,,,,,,,,,,,,,,,,,,,,,60,89,,,0,7,38,29.81,,28.7,9.94,70,140,,7,,,,,,,,,,,,,,,,,,,,,,,,,,,,,,,,,,,,,SYN08072278 32966 61406 10317 20156 39718 40094 57001 91151 333 10406 20317 555 92212=,FM-12,4,,,,,,,,,,,,,,,,,,,,,,,,,,,03-04-2007 00:00
72278023183,22-08-2024 05:51,FM-15,7,,N,0.5,mi,"TEMP, PRECIP",1107,,"MXMN, SRG",33.4442,-112.0247,CONTRACTOR,,,,,,,,,,,,,,,,,,,,,,,,,,,,29.89,62,88,0,,,,42,29.83,SCT:04 100 BKN:07 130 BKN:07 210,28.71,10,71,130,,8,,,,,,,,,,,,,,,,,,,,,,,,,,,,,,,,,,,,,MET11308/22/24 05:51:02 METAR KPHX 221251Z 13007KT 10SM SCT100 BKN130 BKN210 31/17 A2989 RMK AO2 SLP101 T03110167 (GEH),FM-15,7,,,,,,,,,,,,,,,,,,,,,,,,,,,03-04-2007 00:00
72278023183,22-08-2024 06:51,FM-15,7,,N,0.5,mi,"TEMP, PRECIP",1107,,"MXMN, SRG",33.4442,-112.0247,CONTRACTOR,,,,,,,,,,,,,,,,,,,,,,,,,,,,29.9,62,89,0,,,,41,29.84,SCT:04 100 BKN:07 130 BKN:07 210,28.72,10,71,120,,6,,,,,,,,,,,,,,,,,,,,,,,,,,,,,,,,,,,,,MET11208/22/24 06:51:02 METAR KPHX 221351Z 12005KT 10SM SCT100 BKN130 BKN210 32/17 A2990 RMK AO2 SLP104 T03170167 (SH),FM-15,7,,,,,,,,,,,,,,,,,,,,,,,,,,,03-04-2007 00:00
72278023183,22-08-2024 07:51,FM-15,7,,N,0.5,mi,"TEMP, PRECIP",1107,,"MXMN, SRG",33.4442,-112.0247,CONTRACTOR,,,,,,,,,,,,,,,,,,,,,,,,,,,,29.91,62,91,0,,-0.04,1,38,29.85,FEW:02 100 SCT:04 130 SCT:04 210,28.73,10,72,110,,6,,,,,,,,,,,,,,,,,,,,,,,,,,,,,,,,,,,,,MET11808/22/24 07:51:02 METAR KPHX 221451Z 11005KT 10SM FEW100 SCT130 SCT210 33/17 A2991 RMK AO2 SLP107 T03280167 51013 (SH),FM-15,7,,,,,,,,,,,,,,,,,,,,,,,,,,,03-04-2007 00:00
72278023183,22-08-2024 08:00,FM-12,4,,N,0.5,mi,"TEMP, PRECIP",1107,,"MXMN, SRG",33.4442,-112.0247,CONTRACTOR,,,,,,,,,,,,,,,,,,,,,,,,,,,,,62,91,,,-0.04,1,38,29.85,,28.74,9.94,72,110,,6,,,,,,,,,,,,,,,,,,,,,,,,,,,,,,,,,,,,,SYN06472278 32966 61105 10328 20167 39731 40107 51013 91451 555 92215=,FM-12,4,,,,,,,,,,,,,,,,,,,,,,,,,,,03-04-2007 00:00
72278023183,22-08-2024 08:51,FM-15,7,,N,0.5,mi,"TEMP, PRECIP",1107,,"MXMN, SRG",33.4442,-112.0247,CONTRACTOR,,,,,,,,,,,,,,,,,,,,,,,,,,,,29.91,62,92,0,,,,37,29.85,FEW:02 100 SCT:04 130 SCT:04 210,28.73,10,72,130,,8,,,,,,,,,,,,,,,,,,,,,,,,,,,,,,,,,,,,,MET13008/22/24 08:51:02 METAR KPHX 221551Z 13007KT 10SM FEW100 SCT130 SCT210 33/17 A2991 RMK AO2 SLP107 TCU DSNT N AND NW T03330167 (SH),FM-15,7,,,,,,,,,,,,,,,,,,,,,,,,,,,03-04-2007 00:00
72278023183,22-08-2024 09:51,FM-15,7,,N,0.5,mi,"TEMP, PRECIP",1107,,"MXMN, SRG",33.4442,-112.0247,CONTRACTOR,,,,,,,,,,,,,,,,,,,,,,,,,,,,29.91,65,97,0,,,,35,29.84,FEW:02 100 FEW:02 130 SCT:04 210,28.73,10,75,160,,8,,,,,,,,,,,,,,,,,,,,,,,,,,,,,,,,,,,,,MET12308/22/24 09:51:02 METAR KPHX 221651Z 16007KT 10SM FEW100 FEW130 SCT210 36/18 A2991 RMK AO2 SLP106 CB DSNT NW T03610183 (SH),FM-15,7,,,,,,,,,,,,,,,,,,,,,,,,,,,03-04-2007 00:00
72278023183,22-08-2024 10:51,FM-15,7,,N,0.5,mi,"TEMP, PRECIP",1107,,"MXMN, SRG",33.4442,-112.0247,CONTRACTOR,,,,,,,,,,,,,,,,,,,,,,,,,,,,29.9,63,99,0,,0.01,8,31,29.83,FEW:02 100 FEW:02 130 SCT:04 210,28.72,10,74,140,,7,,,,,,,,,,,,,,,,,,,,,,,,,,,,,,,,,,,,,MET14308/22/24 10:51:02 METAR KPHX 221751Z 14006KT 10SM FEW100 FEW130 SCT210 37/17 A2990 RMK AO2 SLP102 CB DSNT NW T03720172 10378 20311 58004 $ (SH),FM-15,7,,,,,,,,,,,,,,,,,,,,,,,,,,,03-04-2007 00:00
72278023183,22-08-2024 11:00,FM-12,4,,N,0.5,mi,"TEMP, PRECIP",1107,,"MXMN, SRG",33.4442,-112.0247,CONTRACTOR,,,,,,,,,,,,,,,,,,,,,,,,,,,,,63,99,,,0.01,8,31,29.83,,28.73,9.94,74,140,,7,,,,,,,,,,,,,,,,,,,,,,,,,,,,,,,,,,,,,SYN08072278 32966 41406 10372 20172 39728 40102 58004 91751 333 10378 20311 555 92218=,FM-12,4,,,,,,,,,,,,,,,,,,,,,,,,,,,03-04-2007 00:00
72278023183,22-08-2024 11:51,FM-15,7,,N,0.5,mi,"TEMP, PRECIP",1107,,"MXMN, SRG",33.4442,-112.0247,CONTRACTOR,,,,,,,,,,,,,,,,,,,,,,,,,,,,29.88,63,101,0,,,,29,29.81,FEW:02 100 FEW:02 130 FEW:02 210,28.7,10,75,VRB,,6,,,,,,,,,,,,,,,,,,,,,,,,,,,,,,,,,,,,,MET13008/22/24 11:51:02 METAR KPHX 221851Z VRB05KT 10SM FEW100 FEW130 FEW210 38/17 A2988 RMK AO2 SLP095 CB DSNT SE AND NW T03830172 (SH),FM-15,7,,,,,,,,,,,,,,,,,,,,,,,,,,,03-04-2007 00:00
72278023183,22-08-2024 12:51,FM-15,7,,N,0.5,mi,"TEMP, PRECIP",1107,,"MXMN, SRG",33.4442,-112.0247,CONTRACTOR,,,,,,,,,,,,,,,,,,,,,,,,,,,,29.86,62,103,0,,,,26,29.79,SCT:04 100 SCT:04 130 SCT:04 210,28.69,10,75,,,,,,,,,,,,,,,,,,,,,,,,,,,,,,,,,,,,,,,,MET13708/22/24 12:51:02 METAR KPHX 221951Z      KT 10SM SCT100 SCT130 SCT210 39/17 A2986 RMK AO2 SLP088 CB DSNT N-NE E SE AND NW T03940167 (SH),FM-15,7,,,,,,,,,,,,,,,,,,,,,,,,,,,03-04-2007 00:00
72278023183,22-08-2024 12:56,FM-16,7,,N,0.5,mi,"TEMP, PRECIP",1107,,"MXMN, SRG",33.4442,-112.0247,CONTRACTOR,,,,,,,,,,,,,,,,,,,,,,,,,,,,29.86,62,104,,,,,25,,SCT:04 100 SCT:04 130 SCT:04 210,28.69,10,75,160,,5,,,,,,,,,,,,,,,,,,,,,,,,,,,,,,,,,,,,,MET13008/22/24 12:56:02 SPECI KPHX 221956Z 16004KT 10SM SCT100 SCT130 SCT210 40/17 A2986 RMK AO2 CB DSNT N-NE E SE AND NW T04000167 (SH),FM-16,7,,,,,,,,,,,,,,,,,,,,,,,,,,,03-04-2007 00:00
72278023183,22-08-2024 13:51,FM-15,7,,N,0.5,mi,"TEMP, PRECIP",1107,,"MXMN, SRG",33.4442,-112.0247,CONTRACTOR,,,,,,,,,,,,,,,,,,,,,,,,,,,,29.83,59,105,0,,0.07,8,22,29.76,SCT:04 100 SCT:04 210 SCT:04 270,28.66,10,74,160,,5,,,,,,,,,,,,,,,,,,,,,,,,,,,,,,,,,,,,,MET14308/22/24 13:51:02 METAR KPHX 222051Z 16004KT 10SM SCT100 SCT210 SCT270 41/15 A2983 RMK AO2 SLP077 CB DSNT N-NE E-SE AND NW T04060150 58024 (SH),FM-15,7,,,,,,,,,,,,,,,,,,,,,,,,,,,03-04-2007 00:00
72278023183,22-08-2024 14:00,FM-12,4,,N,0.5,mi,"TEMP, PRECIP",1107,,"MXMN, SRG",33.4442,-112.0247,CONTRACTOR,,,,,,,,,,,,,,,,,,,,,,,,,,,,,59,105,,,0.07,8,22,29.76,,28.66,9.94,74,160,,5,,,,,,,,,,,,,,,,,,,,,,,,,,,,,,,,,,,,,SYN06472278 32966 41604 10406 20150 39705 40077 58024 92051 555 92221=,FM-12,4,,,,,,,,,,,,,,,,,,,,,,,,,,,03-04-2007 00:00
72278023183,22-08-2024 14:51,FM-15,7,,N,0.5,mi,"TEMP, PRECIP",1107,,"MXMN, SRG",33.4442,-112.0247,CONTRACTOR,,,,,,,,,,,,,,,,,,,,,,,,,,,,29.79,57,107,0,,,,19,29.72,SCT:04 95 BKN:07 140 BKN:07 210,28.62,10,74,220,,10,,,,,,,,,,,,,,,,,,,,,,,,,,,,,,,,,,,,,MET13608/22/24 14:51:02 METAR KPHX 222151Z 22009KT 10SM SCT095 BKN140 BKN210 42/14 A2979 RMK AO2 SLP065 CB DSNT NE E-SE AND NW T04170139 (ANH),FM-15,7,,,,,,,,,,,,,,,,,,,,,,,,,,,03-04-2007 00:00
72278023183,22-08-2024 15:51,FM-15,7,,N,0.5,mi,"TEMP, PRECIP",1107,,"MXMN, SRG",33.4442,-112.0247,CONTRACTOR,,,,,,,,,,,,,,,,,,,,,,,,,,,,29.76,55,106,0,,,,19,29.69,BKN:07 100 BKN:07 200 BKN:07 250,28.59,10,72,VRB,17,5,,,,,,,,,,,,,,,,,,,,,,,,,,,,,,,,,,,,,MET13708/22/24 15:51:02 METAR KPHX 222251Z VRB04G15KT 10SM BKN100 BKN200 BKN250 41/13 A2976 RMK AO2 SLP053 CB DSNT NE-SE AND NW T04110128 (ANH),FM-15,7,,,,,,,,,,,,,,,,,,,,,,,,,,,03-04-2007 00:00
72278023183,22-08-2024 15:57,FM-16,7,,N,0.5,mi,"TEMP, PRECIP",1107,,"MXMN, SRG",33.4442,-112.0247,CONTRACTOR,,,,,,,,,,,,,,,,,,,,,,,,,,,,29.76,56,106,,,,,19,,BKN:07 100 BKN:07 180 BKN:07 250,28.59,10,73,230,16,8,,,,,,,,,,,,,,,,,,,,,,,,,,,,,,,,,,,,,MET13008/22/24 15:57:02 SPECI KPHX 222257Z 23007G14KT 10SM BKN100 BKN180 BKN250 41/13 A2976 RMK AO2 CB DSNT NE-SE AND NW T04110133 (ANH),FM-16,7,,,,,,,,,,,,,,,,,,,,,,,,,,,03-04-2007 00:00
72278023183,22-08-2024 16:20,FM-16,7,,N,0.5,mi,"TEMP, PRECIP",1107,,"MXMN, SRG",33.4442,-112.0247,CONTRACTOR,,,,,,,,,,,,,,,,,,,,,,,,,,,,29.75,59,106,,,,,21,,FEW:02 9 BKN:07 100 BKN:07 180,28.58,10,74,290,22,16,,,,,,,,,,,,,,,,,,,,,,,,,,,,,,,,,,,,,MET14208/22/24 16:20:02 SPECI KPHX 222320Z 29014G19KT 10SM FEW009 BKN100 BKN180 41/15 A2975 RMK AO2 BLDU FEW009 CB DSNT NE-SE AND NW T04110150 (ANH),FM-16,7,,,,,,,,,,,,,,,,,,,,,,,,,,,03-04-2007 00:00
72278023183,22-08-2024 16:31,FM-16,7,,N,0.5,mi,"TEMP, PRECIP",1107,,"MXMN, SRG",33.4442,-112.0247,CONTRACTOR,,,,,,,,,,,,,,,,,,,,,,,,,,,,29.78,68,97,0.01,|SQ RA |,,,39,,FEW:02 20 BKN:07 100 BKN:07 180,28.61,2,77,360,64,38,,,,,,,,,,,,,,,,,,,,,,,,,,,,,,,,,,,,,MET18508/22/24 16:31:02 SPECI KPHX 222331Z 36033G56KT 2SM -RA SQ FEW020 BKN100 BKN180 36/20 A2978 RMK AO2 PK WND 36056/2330 RAB25 PRESRR BLDU FEW200 CB DSNT NE-SE AND NW P0001 T03610200 (ANH),FM-16,7,,,,,,,,,,,,,,,,,,,,,,,,,,,03-04-2007 00:00
72278023183,22-08-2024 16:35,FM-16,7,,N,0.5,mi,"TEMP, PRECIP",1107,,"MXMN, SRG",33.4442,-112.0247,CONTRACTOR,,,,,,,,,,,,,,,,,,,,,,,,,,,,29.75,66,95,0.06,-RA:02 SQ:2 |SQ RA |,,,39,,FEW:02 20 BKN:07 100 BKN:07 150,28.58,8,75,360,64,20,,,,,,,,,,,,,,,,,,,,,,,,,,,,,,,,,,,,,MET20708/22/24 16:35:02 SPECI KPHX 222335Z 36017G56KT 8SM -RA SQ FEW020 BKN100CB BKN1 35/19 A2975 RMK AO2 PK WND 36056/2330 WSHFT 2320 RAB25 BLDU FEW200 CB OHD MOV NE AND DSNT NE-SE VCSH N-NE P0006 T03500189 (ANH),FM-16,7,,,,,,,,,,,,,,,,,,,,,,,,,,,03-04-2007 00:00
72278023183,22-08-2024 16:43,FM-16,7,,N,0.5,mi,"TEMP, PRECIP",1107,,"MXMN, SRG",33.4442,-112.0247,CONTRACTOR,,,,,,,,,,,,,,,,,,,,,,,,,,,,29.75,66,97,0.06,-RA:02 |RA |,,,36,,FEW:02 20 BKN:07 100 BKN:07 150,28.58,10,75,20,28,17,,,,,,,,,,,,,,,,,,,,,,,,,,,,,,,,,,,,,MET20408/22/24 16:43:02 SPECI KPHX 222343Z 02015G24KT 10SM -RA FEW020 BKN100CB BKN1 36/19 A2975 RMK AO2 PK WND 36056/2330 WSHFT 2320 RAB25 BLDU FEW200 CB NE MOV NE AND DSNT NE-SE VCSH N-NE P0006 T03610189 (ANH),FM-16,7,,,,,,,,,,,,,,,,,,,,,,,,,,,03-04-2007 00:00
72278023183,22-08-2024 16:51,FM-15,7,,N,0.5,mi,"TEMP, PRECIP",1107,,"MXMN, SRG",33.4442,-112.0247,CONTRACTOR,,,,,,,,,,,,,,,,,,,,,,,,,,,,29.75,66,97,0.06,,0.07,6,37,29.69,SCT:04 20 BKN:07 100 BKN:07 150,28.58,9,75,40,25,16,,,,,,,,,,,,,,,,,,,,,,,,,,,,,,,,,,,,,MET22408/22/24 16:51:02 METAR KPHX 222351Z 04014G22KT 9SM SCT020 BKN100CB BKN1 36/19 A2975 RMK AO2 PK WND 36056/2330 WSHFT 2320 RAB25E44 SLP054 BLDU SCT200 CB NE MOV NE AND DSNT E-SE VCSH NE P0006 60006 T03610189 10433 20344 56023,FM-15,7,,,,,,,,,,,,,,,,,,,,,,,,,,,03-04-2007 00:00
72278023183,22-08-2024 16:59,FM-16,7,,N,0.5,mi,"TEMP, PRECIP",1107,,"MXMN, SRG",33.4442,-112.0247,CONTRACTOR,,,,,,,,,,,,,,,,,,,,,,,,,,,,29.76,66,101,,TS:7 |TS |,,,32,,SCT:04 20 BKN:07 100 BKN:07 150,28.59,10,76,20,,11,,,,,,,,,,,,,,,,,,,,,,,,,,,,,,,,,,,,,MET18908/22/24 16:59:02 SPECI KPHX 222359Z 02010KT 10SM TS SCT020 BKN100CB BKN1 38/19 A2976 RMK AO2 TSB58 OCNL LTGCCIC OHD AND NE BLDU SCT200 TS OHD-NE MOV NE CB DSNT E-SE VCSH NE T03830189 (ANH),FM-16,7,,,,,,,,,,,,,,,,,,,,,,,,,,,03-04-2007 00:00
72278023183,22-08-2024 17:00,FM-12,4,,N,0.5,mi,"TEMP, PRECIP",1107,,"MXMN, SRG",33.4442,-112.0247,CONTRACTOR,,,,,,,,,,,,,,,,,,,,,,,,,,,,,66,97,,,0.07,6,36,29.69,26,28.58,8.7,75,40,,16,,,,,,,,,,,,,,,,,,,,,,,,,,,,,,,,,,,,,SYN09272278 12564 60414 10361 20189 39679 40054 56023 60021 92351 333 10433 20317 91022 555 92300=,FM-12,4,,,,,,,,,,,,,,,,,,,,,,,,,,,03-04-2007 00:00
72278023183,22-08-2024 17:24,FM-16,7,,N,0.5,mi,"TEMP, PRECIP",1107,,"MXMN, SRG",33.4442,-112.0247,CONTRACTOR,,,,,,,,,,,,,,,,,,,,,,,,,,,,29.8,66,93,,TS:7 BL:5 DU:5 |TS TS |,,,41,,SCT:04 20 BKN:07 100 BKN:07 130,28.63,5,74,100,32,25,,,,,,,,,,,,,,,,,,,,,,,,,,,,,,,,,,,,,MET20308/22/24 17:24:01 SPECI KPHX 230024Z 10022G28KT 5SM TS BLDU SCT020 BKN100CB BKN130 34/19 A2980 RMK AO2 PK WND 10028/0019 WSHFT 0004 TSB2358 PRESRR OCNL LTGCCIC NE-SE BLDU SCT200 TS NE-SE MOV NE T03390189,FM-16,7,,,,,,,,,,,,,,,,,,,,,,,,,,,03-04-2007 00:00
72278023183,22-08-2024 17:51,FM-15,7,,N,0.5,mi,"TEMP, PRECIP",1107,,"MXMN, SRG",33.4442,-112.0247,CONTRACTOR,,,,,,,,,,,,,,,,,,,,,,,,,,,,29.78,70,84,0.02,|TS |,,,59,29.72,FEW:02 30 FEW:02 60 BKN:07 100,28.61,10,75,100,28,17,,,,,,,,,,,,,,,,,,,,,,,,,,,,,,,,,,,,,MET23808/22/24 17:51:01 METAR KPHX 230051Z 10015G24KT 10SM TS FEW030 FEW060 BKN100 30/21 A2978 RMK AO2 PK WND 10032/0026 WSHFT 0004 RAB27E47 TSB2358 SLP066 OCNL LTGCCIC NE-E AND OCNL LTGCG DSNT S BLDU FEW030 TS E MOV NE CB DSNT S-SW P0002 T0300,FM-15,7,,,,,,,,,,,,,,,,,,,,,,,,,,,03-04-2007 00:00
72278023183,22-08-2024 18:28,FM-16,7,,N,0.5,mi,"TEMP, PRECIP",1107,,"MXMN, SRG",33.4442,-112.0247,CONTRACTOR,,,,,,,,,,,,,,,,,,,,,,,,,,,,29.81,73,85,0.03,|TS |,,,70,,FEW:02 23 FEW:02 50 BKN:07 100,28.64,8,76,130,25,13,,,,,,,,,,,,,,,,,,,,,,,,,,,,,,,,,,,,,MET18808/22/24 18:28:02 SPECI KPHX 230128Z 13011G22KT 8SM -TSRA FEW023 FEW050 BKN100 29/23 A2981 RMK AO2 PK WND 11027/0116 RAB0059 OCNL LTGCGCCIC NE AND S-W TS S-W MOV NE VCSH SW P0003 T02890228,FM-16,7,,,,,,,,,,,,,,,,,,,,,,,,,,,03-04-2007 00:00
72278023183,22-08-2024 18:51,FM-15,7,,N,0.5,mi,"TEMP, PRECIP",1107,,"MXMN, SRG",33.4442,-112.0247,CONTRACTOR,,,,,,,,,,,,,,,,,,,,,,,,,,,,29.83,71,87,0.09,|TS |,,,59,29.77,FEW:02 38 FEW:02 70 BKN:07 100,28.66,7,76,60,,16,,,,,,,,,,,,,,,,,,,,,,,,,,,,,,,,,,,,,MET18108/22/24 18:51:02 METAR KPHX 230151Z 06014KT 7SM -TSRA FEW038 FEW070 BKN100 31/22 A2983 RMK AO2 PK WND 11027/0116 RAB0059 SLP081 OCNL LTGCGCCIC ALQDS TS OHD MOV NE P0009 T03060217 $,FM-15,7,,,,,,,,,,,,,,,,,,,,,,,,,,,03-04-2007 00:00
72278023183,22-08-2024 19:49,FM-16,6,,N,0.5,mi,"TEMP, PRECIP",1107,,"MXMN, SRG",33.4442,-112.0247,CONTRACTOR,,,,,,,,,,,,,,,,,,,,,,,,,,,,29.8,72,86,,,,,62,,FEW:02 40 SCT:04 70 BKN:07 100,28.63,10,76,100,,6,,,,,,,,,,,,,,,,,,,,,,,,,,,,,,,,,,,,,MET16908/22/24 19:49:03 SPECI KPHX 230249Z 10005KT 10SM FEW040 SCT070 BKN100 30/22 A2980 RMK AO2 RAE00B19E49 TSE49 OCNL LTGCG DSNT NE AND S CB DSNT NE AND S P0007 $ FIBI (ANH),FM-16,6,,,,,,,,,,,,,,,,,,,,,,,,,,,03-04-2007 00:00
72278023183,22-08-2024 19:51,FM-15,7,,N,0.5,mi,"TEMP, PRECIP",1107,,"MXMN, SRG",33.4442,-112.0247,CONTRACTOR,,,,,,,,,,,,,,,,,,,,,,,,,,,,29.8,73,86,0.07,,-0.04,0,65,29.74,FEW:02 40 SCT:04 70 BKN:07 100,28.63,10,77,110,,6,,,,,,,,,,,,,,,,,,,,,,,,,,,,,,,,,,,,,MET18708/22/24 19:51:01 METAR KPHX 230251Z 11005KT 10SM FEW040 SCT070 BKN100 30/23 A2980 RMK AO2 RAE00B19E49 TSE49 SLP071 OCNL LTGCG DSNT NE AND S CB DSNT NE AND S P0007 60018 T03000228 50015 $,FM-15,7,,,,,,,,,,,,,,,,,,,,,,,,,,,03-04-2007 00:00
72278023183,22-08-2024 20:00,FM-12,4,,N,0.5,mi,"TEMP, PRECIP",1107,,"MXMN, SRG",33.4442,-112.0247,CONTRACTOR,,,,,,,,,,,,,,,,,,,,,,,,,,,,,73,86,,,0.04,9,65,29.74,41,28.63,9.94,77,110,,6,,,,,,,,,,,,,,,,,,,,,,,,,,,,,,,,,,,,,SYN07072278 12666 61105 10300 20228 39695 40071 50015 60057 90251 555 92303=,FM-12,4,,,,,,,,,,,,,,,,,,,,,,,,,,,03-04-2007 00:00
72278023183,22-08-2024 20:51,FM-15,7,,N,0.5,mi,"TEMP, PRECIP",1107,,"MXMN, SRG",33.4442,-112.0247,CONTRACTOR,,,,,,,,,,,,,,,,,,,,,,,,,,,,29.81,72,88,0,,,,59,29.75,FEW:02 70 FEW:02 100 BKN:07 150,28.64,10,77,150,,7,,,,,,,,,,,,,,,,,,,,,,,,,,,,,,,,,,,,,MET11508/22/24 20:51:03 METAR KPHX 230351Z 15006KT 10SM FEW070 FEW100 BKN150 31/22 A2981 RMK AO2 SLP075 T03110222 $ (ANH),FM-15,7,,,,,,,,,,,,,,,,,,,,,,,,,,,03-04-2007 00:00
72278023183,22-08-2024 21:51,FM-15,7,,N,0.5,mi,"TEMP, PRECIP",1107,,"MXMN, SRG",33.4442,-112.0247,CONTRACTOR,,,,,,,,,,,,,,,,,,,,,,,,,,,,29.83,69,89,0,,,,52,29.77,FEW:02 100 SCT:04 180 SCT:04 210,28.66,10,75,120,,9,,,,,,,,,,,,,,,,,,,,,,,,,,,,,,,,,,,,,MET11508/22/24 21:51:03 METAR KPHX 230451Z 12008KT 10SM FEW100 SCT180 SCT210 32/21 A2983 RMK AO2 SLP080 T03170206 $ (ANH),FM-15,7,,,,,,,,,,,,,,,,,,,,,,,,,,,03-04-2007 00:00
72278023183,22-08-2024 22:51,FM-15,7,,N,0.5,mi,"TEMP, PRECIP",1107,,"MXMN, SRG",33.4442,-112.0247,CONTRACTOR,,,,,,,,,,,,,,,,,,,,,,,,,,,,29.83,72,87,0,,-0.03,1,61,29.77,SCT:04 210,28.66,10,76,90,,6,,,,,,,,,,,,,,,,,,,,,,,,,,,,,,,,,,,,,MET11908/22/24 22:51:02 METAR KPHX 230551Z 09005KT 10SM SCT210 31/22 A2983 RMK AO2 SLP081 60018 T03060222 10383 20283 51010 $,FM-15,7,,,,,,,,,,,,,,,,,,,,,,,,,,,03-04-2007 00:00
72278023183,22-08-2024 23:00,FM-12,4,,N,0.5,mi,"TEMP, PRECIP",1107,,"MXMN, SRG",33.4442,-112.0247,CONTRACTOR,,,,,,,,,,,,,,,,,,,,,,,,,,,,,72,87,,,-0.03,1,61,29.77,,28.66,9.94,76,90,,6,,,,,,,,,,,,,,,,,,,,,,,,,,,,,,,,,,,,,SYN08672278 12966 40905 10306 20222 39705 40081 51010 60051 90551 333 10383 20283 555 92306=,FM-12,4,,,,,,,,,,,,,,,,,,,,,,,,,,,03-04-2007 00:00
72278023183,22-08-2024 23:51,FM-15,7,,N,0.5,mi,"TEMP, PRECIP",1107,,"MXMN, SRG",33.4442,-112.0247,CONTRACTOR,,,,,,,,,,,,,,,,,,,,,,,,,,,,29.84,71,86,0,,,,61,29.78,FEW:02 140 SCT:04 200,28.66,10,76,90,,7,,,,,,,,,,,,,,,,,,,,,,,,,,,,,,,,,,,,,MET11208/22/24 23:51:02 METAR KPHX 230651Z 09006KT 10SM FEW140 SCT200 30/22 A2984 RMK AO2 SLP083 T03000217 404330283 $,FM-15,7,,,,,,,,,,,,,,,,,,,,,,,,,,,03-04-2007 00:00
72278023183,22-08-2024 23:59,SOD  ,6,,N,0.5,mi,"TEMP, PRECIP",1107,,"MXMN, SRG",33.4442,-112.0247,CONTRACTOR,,,,,,64,97,41,29.79,28.66,74,7.8,32,3.7,0,110,83,360,65,0.24,,,360,38,TS RA DU,,,,,,,,,,,,,,,,,,,,,,,,,,,,,,,,,,,,,,,,,,,,,,,,,,,,,,,SOD75724 HR PRECIPITATION (IN): 0.24 SNOW DEPTH (IN):0     24 HR SNOWFALL (IN):0.0  WEATHER(CODE):37  24 HR MAX TEMP (F):11024 HR MIN TEMP (F): 83AVERAGE STATION PRESSURE:28.660 MINIMUM SEA LEVEL PRESSURE:29.68 TIME OF OCCURRENCE:1623 PEAK WIND SPEED (MPH): 65 PEAK WIND DIR (DEG):360 PEAK WIND TIME (LST):      FASTEST 2MIN SPEED (MPH): 38FASTEST 2MIN DIR (DEG):360 FASTEST 2MIN TIME (LST):     AVERAGE WIND SPEED (MPH): 7.8 24 HR AVG TEMP (F): 97DEPART FROM NORMAL:  3  HEATING DEGREE DAYS:  0 COOLING DEGREE DAYS: 32 LATEST DAY MAX TEMP (0700-1900 LST):110 LATEST NIGHT MIN TEMP(1900-0800 LST):88 HOURLY INCREMENTAL PRECIPITATION VALUES (IN):.00 0.00 0.00 0.00 0.00 0.00 0.00 0.00 0.00 0.00 0.00 0.00 0.00 0.00 0.00 0.00 0.06 0.02 0.09 0.07 0.00 0.00 0.00 0.00,SOD  ,6,,,,,,,,,,,,,,,,,,,,,,,,,556,1905,03-04-2007 00:00
72278023183,23-08-2024 00:51,FM-15,7,,N,0.5,mi,"TEMP, PRECIP",1107,,"MXMN, SRG",33.4442,-112.0247,CONTRACTOR,,,,,,,,,,,,,,,,,,,,,,,,,,,,29.83,68,87,0,,,,53,29.77,BKN:07 200,28.66,10,74,90,,10,,,,,,,,,,,,,,,,,,,,,,,,,,,,,,,,,,,,,MET10108/23/24 00:51:02 METAR KPHX 230751Z 09009KT 10SM BKN200 31/20 A2983 RMK AO2 SLP080 T03060200 $ (GEH),FM-15,7,,,,,,,,,,,,,,,,,,,,,,,,,,,03-04-2007 00:00
72278023183,23-08-2024 01:51,FM-15,7,,N,0.5,mi,"TEMP, PRECIP",1107,,"MXMN, SRG",33.4442,-112.0247,CONTRACTOR,,,,,,,,,,,,,,,,,,,,,,,,,,,,29.83,68,85,0,,0,8,57,29.76,FEW:02 140 BKN:07 200,28.66,10,73,80,,10,,,,,,,,,,,,,,,,,,,,,,,,,,,,,,,,,,,,,MET11408/23/24 01:51:02 METAR KPHX 230851Z 08009KT 10SM FEW140 BKN200 29/20 A2983 RMK AO2 SLP079 T02940200 58001 $ (GEH),FM-15,7,,,,,,,,,,,,,,,,,,,,,,,,,,,03-04-2007 00:00
72278023183,23-08-2024 02:00,FM-12,4,,N,0.5,mi,"TEMP, PRECIP",1107,,"MXMN, SRG",33.4442,-112.0247,CONTRACTOR,,,,,,,,,,,,,,,,,,,,,,,,,,,,,68,85,,,0,8,57,29.76,,28.66,9.94,73,80,,10,,,,,,,,,,,,,,,,,,,,,,,,,,,,,,,,,,,,,SYN06472278 32966 60809 10294 20200 39705 40079 58001 90851 555 92309=,FM-12,4,,,,,,,,,,,,,,,,,,,,,,,,,,,03-04-2007 00:00
72278023183,23-08-2024 02:51,FM-15,7,,N,0.5,mi,"TEMP, PRECIP",1107,,"MXMN, SRG",33.4442,-112.0247,CONTRACTOR,,,,,,,,,,,,,,,,,,,,,,,,,,,,29.84,70,85,0,,,,61,29.77,BKN:07 100,28.66,10,75,100,,6,,,,,,,,,,,,,,,,,,,,,,,,,,,,,,,,,,,,,MET10108/23/24 02:51:02 METAR KPHX 230951Z 10005KT 10SM BKN100 29/21 A2984 RMK AO2 SLP081 T02940211 $ (GEH),FM-15,7,,,,,,,,,,,,,,,,,,,,,,,,,,,03-04-2007 00:00
72278023183,23-08-2024 03:51,FM-15,7,,N,0.5,mi,"TEMP, PRECIP",1107,,"MXMN, SRG",33.4442,-112.0247,CONTRACTOR,,,,,,,,,,,,,,,,,,,,,,,,,,,,29.84,70,85,0,,,,61,29.77,SCT:04 100,28.66,10,75,120,,6,,,,,,,,,,,,,,,,,,,,,,,,,,,,,,,,,,,,,MET10108/23/24 03:51:02 METAR KPHX 231051Z 12005KT 10SM SCT100 29/21 A2984 RMK AO2 SLP082 T02940211 $ (GEH),FM-15,7,,,,,,,,,,,,,,,,,,,,,,,,,,,03-04-2007 00:00
72278023183,23-08-2024 04:51,FM-15,7,,N,0.5,mi,"TEMP, PRECIP",1107,,"MXMN, SRG",33.4442,-112.0247,CONTRACTOR,,,,,,,,,,,,,,,,,,,,,,,,,,,,29.84,70,85,0,,-0.01,1,61,29.78,SCT:04 100,28.66,10,75,90,,6,,,,,,,,,,,,,,,,,,,,,,,,,,,,,,,,,,,,,MET12508/23/24 04:51:02 METAR KPHX 231151Z 09005KT 10SM SCT100 29/21 A2984 RMK AO2 SLP084 70024 T02940211 10306 20289 51004 $ (GEH),FM-15,7,,,,,,,,,,,,,,,,,,,,,,,,,,,03-04-2007 00:00
72278023183,23-08-2024 05:00,FM-12,4,,N,0.5,mi,"TEMP, PRECIP",1107,,"MXMN, SRG",33.4442,-112.0247,CONTRACTOR,,,,,,,,,,,,,,,,,,,,,,,,,,,,,70,85,,,-0.01,1,61,29.78,,28.67,9.94,75,90,,6,,,,,,,,,,,,,,,,,,,,,,,,,,,,,,,,,,,,,SYN08672278 32966 40905 10294 20211 39708 40084 51004 91151 333 10433 20283 70061 555 92312=,FM-12,4,,,,,,,,,,,,,,,,,,,,,,,,,,,03-04-2007 00:00
72278023183,23-08-2024 05:51,FM-15,7,,N,0.5,mi,"TEMP, PRECIP",1107,,"MXMN, SRG",33.4442,-112.0247,CONTRACTOR,,,,,,,,,,,,,,,,,,,,,,,,,,,,29.85,70,84,0,,,,63,29.8,SCT:04 100 SCT:04 200,28.68,10,74,120,,7,,,,,,,,,,,,,,,,,,,,,,,,,,,,,,,,,,,,,MET10808/23/24 05:51:02 METAR KPHX 231251Z 12006KT 10SM SCT100 SCT200 29/21 A2985 RMK AO2 SLP090 T02890211 $ (GEH),FM-15,7,,,,,,,,,,,,,,,,,,,,,,,,,,,03-04-2007 00:00
72278023183,23-08-2024 06:51,FM-15,7,,N,0.5,mi,"TEMP, PRECIP",1107,,"MXMN, SRG",33.4442,-112.0247,CONTRACTOR,,,,,,,,,,,,,,,,,,,,,,,,,,,,29.87,69,85,0,,,,59,29.81,SCT:04 100 SCT:04 200,28.69,10,74,140,,6,,,,,,,,,,,,,,,,,,,,,,,,,,,,,,,,,,,,,MET10708/23/24 06:51:02 METAR KPHX 231351Z 14005KT 10SM SCT100 SCT200 29/21 A2987 RMK AO2 SLP095 T02940206 $ (SH),FM-15,7,,,,,,,,,,,,,,,,,,,,,,,,,,,03-04-2007 00:00
72278023183,23-08-2024 07:51,FM-15,7,,N,0.5,mi,"TEMP, PRECIP",1107,,"MXMN, SRG",33.4442,-112.0247,CONTRACTOR,,,,,,,,,,,,,,,,,,,,,,,,,,,,29.89,67,88,0,,-0.04,3,50,29.83,SCT:04 100 BKN:07 200,28.71,10,74,120,,5,,,,,,,,,,,,,,,,,,,,,,,,,,,,,,,,,,,,,MET11108/23/24 07:51:02 METAR KPHX 231451Z 12004KT 10SM SCT100 BKN200 31/19 A2989 RMK AO2 SLP101 T03110194 53015 (SH),FM-15,7,,,,,,,,,,,,,,,,,,,,,,,,,,,03-04-2007 00:00
72278023183,23-08-2024 08:00,FM-12,4,,N,0.5,mi,"TEMP, PRECIP",1107,,"MXMN, SRG",33.4442,-112.0247,CONTRACTOR,,,,,,,,,,,,,,,,,,,,,,,,,,,,,67,88,,,-0.04,3,50,29.83,,28.72,9.94,74,120,,5,,,,,,,,,,,,,,,,,,,,,,,,,,,,,,,,,,,,,SYN06472278 32966 61204 10311 20194 39725 40101 53015 91451 555 92315=,FM-12,4,,,,,,,,,,,,,,,,,,,,,,,,,,,03-04-2007 00:00
72278023183,23-08-2024 08:51,FM-15,7,,N,0.5,mi,"TEMP, PRECIP",1107,,"MXMN, SRG",33.4442,-112.0247,CONTRACTOR,,,,,,,,,,,,,,,,,,,,,,,,,,,,29.9,65,91,0,,,,42,29.84,SCT:04 100 BKN:07 200,28.72,10,73,0,,0,,,,,,,,,,,,,,,,,,,,,,,,,,,,,,,,,,,,,MET10508/23/24 08:51:02 METAR KPHX 231551Z 00000KT 10SM SCT100 BKN200 33/18 A2990 RMK AO2 SLP105 T03280183 (SH),FM-15,7,,,,,,,,,,,,,,,,,,,,,,,,,,,03-04-2007 00:00
72278023183,23-08-2024 09:51,FM-15,7,,N,0.5,mi,"TEMP, PRECIP",1107,,"MXMN, SRG",33.4442,-112.0247,CONTRACTOR,,,,,,,,,,,,,,,,,,,,,,,,,,,,29.9,64,95,0,,,,36,29.84,SCT:04 100 BKN:07 200,28.72,10,74,140,,8,,,,,,,,,,,,,,,,,,,,,,,,,,,,,,,,,,,,,MET10508/23/24 09:51:02 METAR KPHX 231651Z 14007KT 10SM SCT100 BKN200 35/18 A2990 RMK AO2 SLP104 T03500178 (SH),FM-15,7,,,,,,,,,,,,,,,,,,,,,,,,,,,03-04-2007 00:00
72278023183,23-08-2024 10:51,FM-15,7,,N,0.5,mi,"TEMP, PRECIP",1107,,"MXMN, SRG",33.4442,-112.0247,CONTRACTOR,,,,,,,,,,,,,,,,,,,,,,,,,,,,29.9,58,99,0,,-0.01,0,26,29.83,FEW:02 80 FEW:02 120 SCT:04 210,28.72,10,72,VRB,,8,,,,,,,,,,,,,,,,,,,,,,,,,,,,,,,,,,,,,MET13008/23/24 10:51:02 METAR KPHX 231751Z 15007KT 10SM FEW080 FEW120 SCT210 37/14 A2990 RMK AO2 SLP102 T03720144 10378 20289 50002 (SH),FM-15,7,,,,,,,,,,,,,,,,,,,,,,,,,,,03-04-2007 00:00
72278023183,23-08-2024 11:00,FM-12,4,,N,0.5,mi,"TEMP, PRECIP",1107,,"MXMN, SRG",33.4442,-112.0247,CONTRACTOR,,,,,,,,,,,,,,,,,,,,,,,,,,,,,58,99,,,0.01,9,26,29.83,74,28.73,9.94,72,150,,8,,,,,,,,,,,,,,,,,,,,,,,,,,,,,,,,,,,,,SYN08072278 32866 41507 10372 20144 39728 40102 50002 91751 333 10378 20289 555 92318=,FM-12,4,,,,,,,,,,,,,,,,,,,,,,,,,,,03-04-2007 00:00
72278023183,23-08-2024 11:51,FM-15,7,,N,0.5,mi,"TEMP, PRECIP",1107,,"MXMN, SRG",33.4442,-112.0247,CONTRACTOR,,,,,,,,,,,,,,,,,,,,,,,,,,,,29.88,56,101,0,,,,22,29.82,FEW:02 80 FEW:02 120 SCT:04 210,28.7,10,72,130,,8,,,,,,,,,,,,,,,,,,,,,,,,,,,,,,,,,,,,,MET11208/23/24 11:51:02 METAR KPHX 231851Z 13007KT 10SM FEW080 FEW120 SCT210 38/13 A2988 RMK AO2 SLP097 T03830133 (SH),FM-15,7,,,,,,,,,,,,,,,,,,,,,,,,,,,03-04-2007 00:00
72278023183,23-08-2024 12:08,FM-16,7,,N,0.5,mi,"TEMP, PRECIP",1107,,"MXMN, SRG",33.4442,-112.0247,CONTRACTOR,,,,,,,,,,,,,,,,,,,,,,,,,,,,29.88,55,102,,,,,21,,FEW:02 80 FEW:02 120 SCT:04 210,28.7,10,71,180,,10,,,,,,,,,,,,,,,,,,,,,,,,,,,,,,,,,,,,,MET10508/23/24 12:08:02 SPECI KPHX 231908Z 18009KT 10SM FEW080 FEW120 SCT210 39/13 A2988 RMK AO2 T03890128 (SH),FM-16,7,,,,,,,,,,,,,,,,,,,,,,,,,,,03-04-2007 00:00
72278023183,23-08-2024 12:51,FM-15,7,,N,0.5,mi,"TEMP, PRECIP",1107,,"MXMN, SRG",33.4442,-112.0247,CONTRACTOR,,,,,,,,,,,,,,,,,,,,,,,,,,,,29.86,53,103,0,,,,19,29.79,FEW:02 80 FEW:02 120 FEW:02 210,28.69,10,71,210,18,10,,,,,,,,,,,,,,,,,,,,,,,,,,,,,,,,,,,,,MET12608/23/24 12:51:02 METAR KPHX 231951Z 21009G16KT 10SM FEW080 FEW120 FEW210 39/12 A2986 RMK AO2 SLP089 CB DSNT SE T03940117 (SH),FM-15,7,,,,,,,,,,,,,,,,,,,,,,,,,,,03-04-2007 00:00
72278023183,23-08-2024 13:51,FM-15,7,,N,0.5,mi,"TEMP, PRECIP",1107,,"MXMN, SRG",33.4442,-112.0247,CONTRACTOR,,,,,,,,,,,,,,,,,,,,,,,,,,,,29.84,53,106,0,,0.06,8,17,29.77,FEW:02 80 FEW:02 120 FEW:02 210,28.66,10,72,200,21,13,,,,,,,,,,,,,,,,,,,,,,,,,,,,,,,,,,,,,MET14108/23/24 13:51:02 METAR KPHX 232051Z 20011G18KT 10SM FEW080 FEW120 FEW210 41/12 A2984 RMK AO2 SLP080 CB DSNT NE AND E-SE T04110117 58020 (SH),FM-15,7,,,,,,,,,,,,,,,,,,,,,,,,,,,03-04-2007 00:00
72278023183,23-08-2024 14:00,FM-12,4,,N,0.5,mi,"TEMP, PRECIP",1107,,"MXMN, SRG",33.4442,-112.0247,CONTRACTOR,,,,,,,,,,,,,,,,,,,,,,,,,,,,,53,106,,,0.06,8,17,29.77,74,28.67,9.94,72,200,,13,,,,,,,,,,,,,,,,,,,,,,,,,,,,,,,,,,,,,SYN07472278 32866 42011 10411 20117 39708 40080 58020 92051 333 91018 555 92321=,FM-12,4,,,,,,,,,,,,,,,,,,,,,,,,,,,03-04-2007 00:00
72278023183,23-08-2024 14:51,FM-15,7,,N,0.5,mi,"TEMP, PRECIP",1107,,"MXMN, SRG",33.4442,-112.0247,CONTRACTOR,,,,,,,,,,,,,,,,,,,,,,,,,,,,29.81,51,105,0,,,,16,29.74,FEW:02 80 FEW:02 110 SCT:04 150,28.64,10,71,250,18,10,,,,,,,,,,,,,,,,,,,,,,,,,,,,,,,,,,,,,MET13408/23/24 14:51:02 METAR KPHX 232151Z 25009G16KT 10SM FEW080 FEW110 SCT150 41/11 A2981 RMK AO2 PK WND 17027/2134 SLP071 T04060106 (ADH),FM-15,7,,,,,,,,,,,,,,,,,,,,,,,,,,,03-04-2007 00:00
72278023183,23-08-2024 15:51,FM-15,7,,N,0.5,mi,"TEMP, PRECIP",1107,,"MXMN, SRG",33.4442,-112.0247,CONTRACTOR,,,,,,,,,,,,,,,,,,,,,,,,,,,,29.78,48,106,0,,,,14,29.71,FEW:02 80 FEW:02 110 SCT:04 150,28.61,10,70,230,25,8,,,,,,,,,,,,,,,,,,,,,,,,,,,,,,,,,,,,,MET12908/23/24 15:51:02 METAR KPHX 232251Z 23007G22KT 10SM FEW080 FEW110 SCT150 41/09 A2978 RMK AO2 SLP061 CB DSNT E-SE T04110089 (ADH),FM-15,7,,,,,,,,,,,,,,,,,,,,,,,,,,,03-04-2007 00:00
72278023183,23-08-2024 16:51,FM-15,7,,N,0.5,mi,"TEMP, PRECIP",1107,,"MXMN, SRG",33.4442,-112.0247,CONTRACTOR,,,,,,,,,,,,,,,,,,,,,,,,,,,,29.76,48,107,0,,0.08,6,14,29.69,FEW:02 80 SCT:04 120 SCT:04 210,28.59,10,70,VRB,22,8,,,,,,,,,,,,,,,,,,,,,,,,,,,,,,,,,,,,,MET14808/23/24 16:51:02 METAR KPHX 232351Z 25007G19KT 10SM FEW080 SCT120 SCT210 42/09 A2976 RMK AO2 SLP053 CB DSNT NE-SE T04170089 10428 20372 56026 (ADH),FM-15,7,,,,,,,,,,,,,,,,,,,,,,,,,,,03-04-2007 00:00
72278023183,23-08-2024 17:00,FM-12,4,,N,0.5,mi,"TEMP, PRECIP",1107,,"MXMN, SRG",33.4442,-112.0247,CONTRACTOR,,,,,,,,,,,,,,,,,,,,,,,,,,,,,48,107,,,0.08,6,14,29.69,74,28.59,9.94,70,250,,8,,,,,,,,,,,,,,,,,,,,,,,,,,,,,,,,,,,,,SYN08672278 32866 42507 10417 20089 39682 40053 56026 92351 333 10428 20289 91019 555 92400=,FM-12,4,,,,,,,,,,,,,,,,,,,,,,,,,,,03-04-2007 00:00
72278023183,23-08-2024 17:21,FM-16,7,,N,0.5,mi,"TEMP, PRECIP",1107,,"MXMN, SRG",33.4442,-112.0247,CONTRACTOR,,,,,,,,,,,,,,,,,,,,,,,,,,,,29.75,49,106,,,,,15,,FEW:02 80 FEW:02 120 SCT:04 210,28.58,10,70,260,,13,,,,,,,,,,,,,,,,,,,,,,,,,,,,,,,,,,,,,MET12508/23/24 17:21:01 SPECI KPHX 240021Z 26011KT 10SM FEW080 FEW120 SCT210 41/09 A2975 RMK AO2 WSHFT 0003 CB DSNT NE-SE T04110094,FM-16,7,,,,,,,,,,,,,,,,,,,,,,,,,,,03-04-2007 00:00
72278023183,23-08-2024 17:51,FM-15,7,,N,0.5,mi,"TEMP, PRECIP",1107,,"MXMN, SRG",33.4442,-112.0247,CONTRACTOR,,,,,,,,,,,,,,,,,,,,,,,,,,,,29.76,49,105,0,,,,15,29.7,FEW:02 80 FEW:02 120 SCT:04 200,28.59,10,70,270,,16,,,,,,,,,,,,,,,,,,,,,,,,,,,,,,,,,,,,,MET13208/23/24 17:51:01 METAR KPHX 240051Z 27014KT 10SM FEW080 FEW120 SCT200 41/09 A2976 RMK AO2 WSHFT 0003 SLP056 CB DSNT NE-SE T04060094,FM-15,7,,,,,,,,,,,,,,,,,,,,,,,,,,,03-04-2007 00:00
72278023183,23-08-2024 18:51,FM-15,7,,N,0.5,mi,"TEMP, PRECIP",1107,,"MXMN, SRG",33.4442,-112.0247,CONTRACTOR,,,,,,,,,,,,,,,,,,,,,,,,,,,,29.79,51,103,0,,,,18,29.72,FEW:02 20 FEW:02 120 SCT:04 180,28.62,10,70,230,23,11,,,,,,,,,,,,,,,,,,,,,,,,,,,,,,,,,,,,,MET13608/23/24 18:51:01 METAR KPHX 240151Z 23010G20KT 10SM FEW020 FEW120 SCT180 39/11 A2979 RMK AO2 SLP065 BLDU FEW020 CB DSNT NE-SE T03940106,FM-15,7,,,,,,,,,,,,,,,,,,,,,,,,,,,03-04-2007 00:00
72278023183,23-08-2024 18:57,FM-16,7,,N,0.5,mi,"TEMP, PRECIP",1107,,"MXMN, SRG",33.4442,-112.0247,CONTRACTOR,,,,,,,,,,,,,,,,,,,,,,,,,,,,29.8,53,102,,,,,19,,FEW:02 20 FEW:02 120 SCT:04 180,28.63,8,71,VRB,,11,,,,,,,,,,,,,,,,,,,,,,,,,,,,,,,,,,,,,MET14308/23/24 18:57:01 SPECI KPHX 240157Z 18010KT 8SM FEW020 FEW120 SCT180 39/12 A2980 RMK AO2 WSHFT 0143 PRESRR BLDU FEW020 CB DSNT NE-SE T03890117,FM-16,7,,,,,,,,,,,,,,,,,,,,,,,,,,,03-04-2007 00:00
72278023183,23-08-2024 19:04,FM-16,7,,N,0.5,mi,"TEMP, PRECIP",1107,,"MXMN, SRG",33.4442,-112.0247,CONTRACTOR,,,,,,,,,,,,,,,,,,,,,,,,,,,,29.8,59,98,,,,,27,,FEW:02 20 FEW:02 120 SCT:04 180,28.63,8,72,130,,11,,,,,,,,,,,,,,,,,,,,,,,,,,,,,,,,,,,,,MET13808/23/24 19:04:01 SPECI KPHX 240204Z 13010KT 8SM FEW020 FEW120 SCT180 37/15 A2980 RMK AO2 WSHFT 0144 BLDU FEW020 CB DSNT NE-SE T03670150 $,FM-16,7,,,,,,,,,,,,,,,,,,,,,,,,,,,03-04-2007 00:00
72278023183,23-08-2024 19:51,FM-15,7,,N,0.5,mi,"TEMP, PRECIP",1107,,"MXMN, SRG",33.4442,-112.0247,CONTRACTOR,,,,,,,,,,,,,,,,,,,,,,,,,,,,29.82,60,95,0,,-0.06,3,31,29.75,FEW:02 120 SCT:04 190 SCT:04 250,28.65,10,72,120,,11,,,,,,,,,,,,,,,,,,,,,,,,,,,,,,,,,,,,,MET15608/23/24 19:51:02 METAR KPHX 240251Z 12010KT 10SM FEW120 SCT190 SCT250 35/16 A2982 RMK AO2 WSHFT 0144 SLP076 OCNL LTGIC DSNT NE CB DSNT NE T03500156 53021 $,FM-15,7,,,,,,,,,,,,,,,,,,,,,,,,,,,03-04-2007 00:00
72278023183,23-08-2024 20:00,FM-12,4,,N,0.5,mi,"TEMP, PRECIP",1107,,"MXMN, SRG",33.4442,-112.0247,CONTRACTOR,,,,,,,,,,,,,,,,,,,,,,,,,,,,,60,95,,,-0.06,3,31,29.75,,28.65,9.94,72,120,,11,,,,,,,,,,,,,,,,,,,,,,,,,,,,,,,,,,,,,SYN06472278 32966 41210 10350 20156 39702 40076 53021 90251 555 92403=,FM-12,4,,,,,,,,,,,,,,,,,,,,,,,,,,,03-04-2007 00:00
72278023183,23-08-2024 20:51,FM-15,7,,N,0.5,mi,"TEMP, PRECIP",1107,,"MXMN, SRG",33.4442,-112.0247,CONTRACTOR,,,,,,,,,,,,,,,,,,,,,,,,,,,,29.84,62,92,0,,,,37,29.78,FEW:02 120 FEW:02 250,28.66,10,72,120,,13,,,,,,,,,,,,,,,,,,,,,,,,,,,,,,,,,,,,,MET10208/23/24 20:51:02 METAR KPHX 240351Z 12011KT 10SM FEW120 FEW250 33/17 A2984 RMK AO2 SLP083 T03330167 $,FM-15,7,,,,,,,,,,,,,,,,,,,,,,,,,,,03-04-2007 00:00
72278023183,23-08-2024 21:51,FM-15,7,,N,0.5,mi,"TEMP, PRECIP",1107,,"MXMN, SRG",33.4442,-112.0247,CONTRACTOR,,,,,,,,,,,,,,,,,,,,,,,,,,,,29.86,61,92,0,,,,36,29.79,FEW:02 120 FEW:02 250,28.69,10,71,130,,9,,,,,,,,,,,,,,,,,,,,,,,,,,,,,,,,,,,,,MET10208/23/24 21:51:02 METAR KPHX 240451Z 13008KT 10SM FEW120 FEW250 33/16 A2986 RMK AO2 SLP089 T03330161 $,FM-15,7,,,,,,,,,,,,,,,,,,,,,,,,,,,03-04-2007 00:00
72278023183,23-08-2024 22:51,FM-15,7,,N,0.5,mi,"TEMP, PRECIP",1107,,"MXMN, SRG",33.4442,-112.0247,CONTRACTOR,,,,,,,,,,,,,,,,,,,,,,,,,,,,29.87,62,91,0,,-0.05,1,38,29.8,FEW:02 120 FEW:02 250,28.69,10,72,100,,7,,,,,,,,,,,,,,,,,,,,,,,,,,,,,,,,,,,,,MET12008/23/24 22:51:02 METAR KPHX 240551Z 10006KT 10SM FEW120 FEW250 33/17 A2987 RMK AO2 SLP092 T03280167 10417 20328 51016 $,FM-15,7,,,,,,,,,,,,,,,,,,,,,,,,,,,03-04-2007 00:00
72278023183,23-08-2024 23:00,FM-12,4,,N,0.5,mi,"TEMP, PRECIP",1107,,"MXMN, SRG",33.4442,-112.0247,CONTRACTOR,,,,,,,,,,,,,,,,,,,,,,,,,,,,,62,91,,,-0.05,1,38,29.8,,28.7,9.94,72,100,,7,,,,,,,,,,,,,,,,,,,,,,,,,,,,,,,,,,,,,SYN08072278 32966 21006 10328 20167 39718 40092 51016 90551 333 10417 20289 555 92406=,FM-12,4,,,,,,,,,,,,,,,,,,,,,,,,,,,03-04-2007 00:00
72278023183,23-08-2024 23:51,FM-15,7,,N,0.5,mi,"TEMP, PRECIP",1107,,"MXMN, SRG",33.4442,-112.0247,CONTRACTOR,,,,,,,,,,,,,,,,,,,,,,,,,,,,29.89,62,90,0,,,,39,29.82,FEW:02 120 SCT:04 250,28.71,10,71,120,,10,,,,,,,,,,,,,,,,,,,,,,,,,,,,,,,,,,,,,MET11208/23/24 23:51:02 METAR KPHX 240651Z 12009KT 10SM FEW120 SCT250 32/17 A2989 RMK AO2 SLP099 T03220167 404280289 $,FM-15,7,,,,,,,,,,,,,,,,,,,,,,,,,,,03-04-2007 00:00
72278023183,23-08-2024 23:59,SOD  ,6,,N,0.5,mi,"TEMP, PRECIP",1107,,"MXMN, SRG",33.4442,-112.0247,CONTRACTOR,,,,,,61,97,36,29.78,28.66,72,8.6,32,3.8,0,109,84,170,31,0,,,170,24,,,,,,,,,,,,,,,,,,,,,,,,,,,,,,,,,,,,,,,,,,,,,,,,,,,,,,,,SOD73924 HR PRECIPITATION (IN): 0.00 SNOW DEPTH (IN):0     24 HR SNOWFALL (IN):0.0  24 HR MAX TEMP (F):10924 HR MIN TEMP (F): 84AVERAGE STATION PRESSURE:28.660 MINIMUM SEA LEVEL PRESSURE:29.68 TIME OF OCCURRENCE:1724 PEAK WIND SPEED (MPH): 31 PEAK WIND DIR (DEG):170 PEAK WIND TIME (LST):      FASTEST 2MIN SPEED (MPH): 24FASTEST 2MIN DIR (DEG):170 FASTEST 2MIN TIME (LST):     AVERAGE WIND SPEED (MPH): 8.6 24 HR AVG TEMP (F): 97DEPART FROM NORMAL:  3  HEATING DEGREE DAYS:  0 COOLING DEGREE DAYS: 32 LATEST DAY MAX TEMP (0700-1900 LST):109 LATEST NIGHT MIN TEMP(1900-0800 LST):84 HOURLY INCREMENTAL PRECIPITATION VALUES (IN):.00 0.00 0.00 0.00 0.00 0.00 0.00 0.00 0.00 0.00 0.00 0.00 0.00 0.00 0.00 0.00 0.00 0.00 0.00 0.00 0.00 0.00 0.00 0.00,SOD  ,6,,,,,,,,,,,,,,,,,,,,,,,,,557,1904,03-04-2007 00:00
72278023183,24-08-2024 00:51,FM-15,7,,N,0.5,mi,"TEMP, PRECIP",1107,,"MXMN, SRG",33.4442,-112.0247,CONTRACTOR,,,,,,,,,,,,,,,,,,,,,,,,,,,,29.89,63,87,0,,,,45,29.83,FEW:02 120 FEW:02 170 SCT:04 250,28.71,10,71,110,,9,,,,,,,,,,,,,,,,,,,,,,,,,,,,,,,,,,,,,MET15008/24/24 00:51:02 METAR KPHX 240751Z 11008KT 10SM FEW120 FEW170 SCT250 31/17 A2989 RMK AO2 SLP100 FRQ LTGCGIC DSNT E-SE CB DSNT E-SE T03060172 $ (ANH),FM-15,7,,,,,,,,,,,,,,,,,,,,,,,,,,,03-04-2007 00:00
72278023183,24-08-2024 01:51,FM-15,7,,N,0.5,mi,"TEMP, PRECIP",1107,,"MXMN, SRG",33.4442,-112.0247,CONTRACTOR,,,,,,,,,,,,,,,,,,,,,,,,,,,,29.89,64,87,0,,-0.02,1,46,29.83,FEW:02 120 FEW:02 170 SCT:04 250,28.71,10,72,110,,8,,,,,,,,,,,,,,,,,,,,,,,,,,,,,,,,,,,,,MET12108/24/24 01:51:02 METAR KPHX 240851Z 11007KT 10SM FEW120 FEW170 SCT250 31/18 A2989 RMK AO2 SLP100 T03060178 51008 $ (ANH),FM-15,7,,,,,,,,,,,,,,,,,,,,,,,,,,,03-04-2007 00:00
72278023183,24-08-2024 02:00,FM-12,4,,N,0.5,mi,"TEMP, PRECIP",1107,,"MXMN, SRG",33.4442,-112.0247,CONTRACTOR,,,,,,,,,,,,,,,,,,,,,,,,,,,,,64,87,,,-0.02,1,46,29.83,,28.72,9.94,72,110,,8,,,,,,,,,,,,,,,,,,,,,,,,,,,,,,,,,,,,,SYN06472278 32966 41107 10306 20178 39725 40100 51008 90851 555 92409=,FM-12,4,,,,,,,,,,,,,,,,,,,,,,,,,,,03-04-2007 00:00
72278023183,24-08-2024 02:51,FM-15,7,,N,0.5,mi,"TEMP, PRECIP",1107,,"MXMN, SRG",33.4442,-112.0247,CONTRACTOR,,,,,,,,,,,,,,,,,,,,,,,,,,,,29.91,65,86,0,,,,49,29.84,FEW:02 170 FEW:02 250,28.73,10,72,130,,9,,,,,,,,,,,,,,,,,,,,,,,,,,,,,,,,,,,,,MET10808/24/24 02:51:02 METAR KPHX 240951Z 13008KT 10SM FEW170 FEW250 30/18 A2991 RMK AO2 SLP104 T03000183 $ (ANH),FM-15,7,,,,,,,,,,,,,,,,,,,,,,,,,,,03-04-2007 00:00
72278023183,24-08-2024 03:51,FM-15,7,,N,0.5,mi,"TEMP, PRECIP",1107,,"MXMN, SRG",33.4442,-112.0247,CONTRACTOR,,,,,,,,,,,,,,,,,,,,,,,,,,,,29.91,61,86,0,,,,43,29.85,FEW:02 170 FEW:02 250,28.73,10,70,140,20,9,,,,,,,,,,,,,,,,,,,,,,,,,,,,,,,,,,,,,MET11108/24/24 03:51:02 METAR KPHX 241051Z 14008G17KT 10SM FEW170 FEW250 30/16 A2991 RMK AO2 SLP107 T03000161 $ (ANH),FM-15,7,,,,,,,,,,,,,,,,,,,,,,,,,,,03-04-2007 00:00
72278023183,24-08-2024 04:51,FM-15,7,,N,0.5,mi,"TEMP, PRECIP",1107,,"MXMN, SRG",33.4442,-112.0247,CONTRACTOR,,,,,,,,,,,,,,,,,,,,,,,,,,,,29.93,57,86,0,,-0.04,3,37,29.86,FEW:02 250,28.75,10,68,80,,5,,,,,,,,,,,,,,,,,,,,,,,,,,,,,,,,,,,,,MET11908/24/24 04:51:02 METAR KPHX 241151Z 08004KT 10SM FEW250 30/14 A2993 RMK AO2 SLP113 T03000139 10328 20294 53012 $ (ANH),FM-15,7,,,,,,,,,,,,,,,,,,,,,,,,,,,03-04-2007 00:00
72278023183,24-08-2024 05:00,FM-12,4,,N,0.5,mi,"TEMP, PRECIP",1107,,"MXMN, SRG",33.4442,-112.0247,CONTRACTOR,,,,,,,,,,,,,,,,,,,,,,,,,,,,,57,86,,,-0.04,3,37,29.86,,28.76,9.94,68,80,,5,,,,,,,,,,,,,,,,,,,,,,,,,,,,,,,,,,,,,SYN08072278 32966 20804 10300 20139 39738 40113 53012 91151 333 10428 20294 555 92412=,FM-12,4,,,,,,,,,,,,,,,,,,,,,,,,,,,03-04-2007 00:00
72278023183,24-08-2024 05:51,FM-15,7,,N,0.5,mi,"TEMP, PRECIP",1107,,"MXMN, SRG",33.4442,-112.0247,CONTRACTOR,,,,,,,,,,,,,,,,,,,,,,,,,,,,29.95,59,84,0,,,,43,29.89,FEW:02 120 FEW:02 180 FEW:02 250,28.77,10,68,140,,11,,,,,,,,,,,,,,,,,,,,,,,,,,,,,,,,,,,,,MET11508/24/24 05:51:02 METAR KPHX 241251Z 14010KT 10SM FEW120 FEW180 FEW250 29/15 A2995 RMK AO2 SLP121 T02890150 $ (ANH),FM-15,7,,,,,,,,,,,,,,,,,,,,,,,,,,,03-04-2007 00:00
72278023183,24-08-2024 06:51,FM-15,7,,N,0.5,mi,"TEMP, PRECIP",1107,,"MXMN, SRG",33.4442,-112.0247,CONTRACTOR,,,,,,,,,,,,,,,,,,,,,,,,,,,,29.98,62,84,0,,,,48,29.92,FEW:02 120 FEW:02 180 FEW:02 250,28.8,10,70,110,,6,,,,,,,,,,,,,,,,,,,,,,,,,,,,,,,,,,,,,MET11408/24/24 06:51:02 METAR KPHX 241351Z 11005KT 10SM FEW120 FEW180 FEW250 29/17 A2998 RMK AO2 SLP132 T02890167 $ (JH),FM-15,7,,,,,,,,,,,,,,,,,,,,,,,,,,,03-04-2007 00:00
72278023183,24-08-2024 07:51,FM-15,7,,N,0.5,mi,"TEMP, PRECIP",1107,,"MXMN, SRG",33.4442,-112.0247,CONTRACTOR,,,,,,,,,,,,,,,,,,,,,,,,,,,,29.98,63,87,0,,-0.05,1,45,29.92,FEW:02 140 FEW:02 180 FEW:02 250,28.8,10,71,130,,9,,,,,,,,,,,,,,,,,,,,,,,,,,,,,,,,,,,,,MET12008/24/24 07:51:02 METAR KPHX 241451Z 13008KT 10SM FEW140 FEW180 FEW250 31/17 A2998 RMK AO2 SLP132 T03060172 51018 $ (JH),FM-15,7,,,,,,,,,,,,,,,,,,,,,,,,,,,03-04-2007 00:00
72278023183,24-08-2024 08:00,FM-12,4,,N,0.5,mi,"TEMP, PRECIP",1107,,"MXMN, SRG",33.4442,-112.0247,CONTRACTOR,,,,,,,,,,,,,,,,,,,,,,,,,,,,,63,87,,,-0.05,1,45,29.92,,28.8,9.94,71,130,,9,,,,,,,,,,,,,,,,,,,,,,,,,,,,,,,,,,,,,SYN06472278 32966 21308 10306 20172 39754 40132 51018 91451 555 92415=,FM-12,4,,,,,,,,,,,,,,,,,,,,,,,,,,,03-04-2007 00:00
72278023183,24-08-2024 08:51,FM-15,7,,N,0.5,mi,"TEMP, PRECIP",1107,,"MXMN, SRG",33.4442,-112.0247,CONTRACTOR,,,,,,,,,,,,,,,,,,,,,,,,,,,,30,61,91,0,,,,37,29.94,FEW:02 140 FEW:02 180 FEW:02 250,28.82,10,71,VRB,,7,,,,,,,,,,,,,,,,,,,,,,,,,,,,,,,,,,,,,MET11408/24/24 08:51:02 METAR KPHX 241551Z VRB06KT 10SM FEW140 FEW180 FEW250 33/16 A3000 RMK AO2 SLP139 T03280161 $ (JH),FM-15,7,,,,,,,,,,,,,,,,,,,,,,,,,,,03-04-2007 00:00
72278023183,24-08-2024 09:51,FM-15,7,,N,0.5,mi,"TEMP, PRECIP",1107,,"MXMN, SRG",33.4442,-112.0247,CONTRACTOR,,,,,,,,,,,,,,,,,,,,,,,,,,,,30,58,95,0,,,,29,29.93,FEW:02 100 FEW:02 160 FEW:02 250,28.82,10,71,170,,10,,,,,,,,,,,,,,,,,,,,,,,,,,,,,,,,,,,,,MET11408/24/24 09:51:02 METAR KPHX 241651Z 17009KT 10SM FEW100 FEW160 FEW250 35/14 A3000 RMK AO2 SLP136 T03500144 $ (JH),FM-15,7,,,,,,,,,,,,,,,,,,,,,,,,,,,03-04-2007 00:00
72278023183,24-08-2024 10:51,FM-15,7,,N,0.5,mi,"TEMP, PRECIP",1107,,"MXMN, SRG",33.4442,-112.0247,CONTRACTOR,,,,,,,,,,,,,,,,,,,,,,,,,,,,29.98,57,97,0,,0,8,26,29.92,FEW:02 100 FEW:02 160 FEW:02 250,28.8,10,71,210,,7,,,,,,,,,,,,,,,,,,,,,,,,,,,,,,,,,,,,,MET13208/24/24 10:51:02 METAR KPHX 241751Z 21006KT 10SM FEW100 FEW160 FEW250 36/14 A2998 RMK AO2 SLP131 T03610139 10367 20283 58001 $ (JH),FM-15,7,,,,,,,,,,,,,,,,,,,,,,,,,,,03-04-2007 00:00
72278023183,24-08-2024 11:00,FM-12,4,,N,0.5,mi,"TEMP, PRECIP",1107,,"MXMN, SRG",33.4442,-112.0247,CONTRACTOR,,,,,,,,,,,,,,,,,,,,,,,,,,,,,57,97,,,0,8,26,29.92,,28.8,9.94,71,210,,7,,,,,,,,,,,,,,,,,,,,,,,,,,,,,,,,,,,,,SYN08072278 32966 22106 10361 20139 39754 40131 58001 91751 333 10367 20283 555 92418=,FM-12,4,,,,,,,,,,,,,,,,,,,,,,,,,,,03-04-2007 00:00
72278023183,24-08-2024 11:51,FM-15,7,,N,0.5,mi,"TEMP, PRECIP",1107,,"MXMN, SRG",33.4442,-112.0247,CONTRACTOR,,,,,,,,,,,,,,,,,,,,,,,,,,,,29.96,54,98,0,,,,23,29.9,FEW:02 100 FEW:02 160 FEW:02 250,28.78,10,70,0,,0,,,,,,,,,,,,,,,,,,,,,,,,,,,,,,,,,,,,,MET11408/24/24 11:51:02 METAR KPHX 241851Z 00000KT 10SM FEW100 FEW160 FEW250 37/12 A2996 RMK AO2 SLP124 T03670122 $ (JH),FM-15,7,,,,,,,,,,,,,,,,,,,,,,,,,,,03-04-2007 00:00
72278023183,24-08-2024 12:51,FM-15,7,,N,0.5,mi,"TEMP, PRECIP",1107,,"MXMN, SRG",33.4442,-112.0247,CONTRACTOR,,,,,,,,,,,,,,,,,,,,,,,,,,,,29.94,53,101,0,,,,20,29.87,FEW:02 90 SCT:04 250,28.76,10,70,VRB,,6,,,,,,,,,,,,,,,,,,,,,,,,,,,,,,,,,,,,,MET10708/24/24 12:51:02 METAR KPHX 241951Z VRB05KT 10SM FEW090 SCT250 38/12 A2994 RMK AO2 SLP116 T03830117 $ (JH),FM-15,7,,,,,,,,,,,,,,,,,,,,,,,,,,,03-04-2007 00:00
72278023183,24-08-2024 13:51,FM-15,7,,N,0.5,mi,"TEMP, PRECIP",1107,,"MXMN, SRG",33.4442,-112.0247,CONTRACTOR,,,,,,,,,,,,,,,,,,,,,,,,,,,,29.92,51,103,0,,0.06,6,18,29.85,FEW:02 90 SCT:04 250,28.74,10,70,VRB,16,5,,,,,,,,,,,,,,,,,,,,,,,,,,,,,,,,,,,,,MET11608/24/24 13:51:02 METAR KPHX 242051Z VRB04G14KT 10SM FEW090 SCT250 39/11 A2992 RMK AO2 SLP108 T03940106 56022 $ (JH),FM-15,7,,,,,,,,,,,,,,,,,,,,,,,,,,,03-04-2007 00:00
72278023183,24-08-2024 13:53,FM-16,7,,N,0.5,mi,"TEMP, PRECIP",1107,,"MXMN, SRG",33.4442,-112.0247,CONTRACTOR,,,,,,,,,,,,,,,,,,,,,,,,,,,,29.92,51,102,,,,,18,,FEW:02 90 SCT:04 250,28.74,10,70,140,,7,,,,,,,,,,,,,,,,,,,,,,,,,,,,,,,,,,,,,MET10008/24/24 13:53:02 SPECI KPHX 242053Z 14006KT 10SM FEW090 SCT250 39/11 A2992 RMK AO2 T03890106 $ (JH),FM-16,7,,,,,,,,,,,,,,,,,,,,,,,,,,,03-04-2007 00:00
72278023183,24-08-2024 14:00,FM-12,4,,N,0.5,mi,"TEMP, PRECIP",1107,,"MXMN, SRG",33.4442,-112.0247,CONTRACTOR,,,,,,,,,,,,,,,,,,,,,,,,,,,,,51,103,,,0.06,6,18,29.85,,28.74,9.94,70,,,5,,,,,,,,,,,,,,,,,,,,,,,,,,,,,,,,,,,,,SYN07472278 32966 4//04 10394 20106 39734 40108 56022 92051 333 91014 555 92421=,FM-12,4,,,,,,,,,,,,,,,,,,,,,,,,,,,03-04-2007 00:00
72278023183,24-08-2024 14:51,FM-15,7,,N,0.5,mi,"TEMP, PRECIP",1107,,"MXMN, SRG",33.4442,-112.0247,CONTRACTOR,,,,,,,,,,,,,,,,,,,,,,,,,,,,29.88,51,103,0,,,,18,29.82,FEW:02 90 SCT:04 250,28.7,10,70,190,20,7,,,,,,,,,,,,,,,,,,,,,,,,,,,,,,,,,,,,,MET11108/24/24 14:51:02 METAR KPHX 242151Z 19006G17KT 10SM FEW090 SCT250 39/11 A2988 RMK AO2 SLP097 T03940106 $ (ADH),FM-15,7,,,,,,,,,,,,,,,,,,,,,,,,,,,03-04-2007 00:00
72278023183,24-08-2024 15:51,FM-15,7,,N,0.5,mi,"TEMP, PRECIP",1107,,"MXMN, SRG",33.4442,-112.0247,CONTRACTOR,,,,,,,,,,,,,,,,,,,,,,,,,,,,29.86,52,104,0,,,,18,29.79,FEW:02 90 SCT:04 150 SCT:04 250,28.69,10,71,210,23,10,,,,,,,,,,,,,,,,,,,,,,,,,,,,,,,,,,,,,MET11808/24/24 15:51:02 METAR KPHX 242251Z 21009G20KT 10SM FEW090 SCT150 SCT250 40/11 A2986 RMK AO2 SLP088 T04000111 $ (ADH),FM-15,7,,,,,,,,,,,,,,,,,,,,,,,,,,,03-04-2007 00:00
72278023183,24-08-2024 16:51,FM-15,7,,N,0.5,mi,"TEMP, PRECIP",1107,,"MXMN, SRG",33.4442,-112.0247,CONTRACTOR,,,,,,,,,,,,,,,,,,,,,,,,,,,,29.83,52,105,0,,0.08,6,17,29.76,FEW:02 90 SCT:04 150 SCT:04 250,28.66,10,71,180,20,9,,,,,,,,,,,,,,,,,,,,,,,,,,,,,,,,,,,,,MET14808/24/24 16:51:02 METAR KPHX 242351Z 18008G17KT 10SM FEW090 SCT150 SCT250 41/11 A2983 RMK AO2 SLP079 TCU DSNT SE T04060111 10417 20356 56028 $ (ADH),FM-15,7,,,,,,,,,,,,,,,,,,,,,,,,,,,03-04-2007 00:00
72278023183,24-08-2024 17:00,FM-12,4,,N,0.5,mi,"TEMP, PRECIP",1107,,"MXMN, SRG",33.4442,-112.0247,CONTRACTOR,,,,,,,,,,,,,,,,,,,,,,,,,,,,,52,105,,,0.08,6,17,29.76,,28.66,9.94,71,180,,9,,,,,,,,,,,,,,,,,,,,,,,,,,,,,,,,,,,,,SYN08672278 32966 41808 10406 20111 39705 40079 56028 92351 333 10417 20294 91017 555 92500=,FM-12,4,,,,,,,,,,,,,,,,,,,,,,,,,,,03-04-2007 00:00
72278023183,24-08-2024 17:51,FM-15,7,,N,0.5,mi,"TEMP, PRECIP",1107,,"MXMN, SRG",33.4442,-112.0247,CONTRACTOR,,,,,,,,,,,,,,,,,,,,,,,,,,,,29.82,51,103,0,,,,18,29.75,FEW:02 100 SCT:04 150 SCT:04 250,28.65,10,70,VRB,,6,,,,,,,,,,,,,,,,,,,,,,,,,,,,,,,,,,,,,MET10908/24/24 17:51:01 METAR KPHX 250051Z VRB05KT 10SM FEW100 SCT150 SCT250 39/11 A2982 RMK AO2 SLP076 T03940106 $,FM-15,7,,,,,,,,,,,,,,,,,,,,,,,,,,,03-04-2007 00:00
72278023183,24-08-2024 18:51,FM-15,7,,N,0.5,mi,"TEMP, PRECIP",1107,,"MXMN, SRG",33.4442,-112.0247,CONTRACTOR,,,,,,,,,,,,,,,,,,,,,,,,,,,,29.82,51,102,0,,,,18,29.75,FEW:02 100 SCT:04 120 SCT:04 180,28.65,10,70,200,,7,,,,,,,,,,,,,,,,,,,,,,,,,,,,,,,,,,,,,MET13108/24/24 18:51:01 METAR KPHX 250151Z 20006KT 10SM FEW100 SCT120 SCT180 39/11 A2982 RMK AO2 SLP075 CB DSNT S SHRA DSNT S T03890106 $,FM-15,7,,,,,,,,,,,,,,,,,,,,,,,,,,,03-04-2007 00:00
72278023183,24-08-2024 19:51,FM-15,7,,N,0.5,mi,"TEMP, PRECIP",1107,,"MXMN, SRG",33.4442,-112.0247,CONTRACTOR,,,,,,,,,,,,,,,,,,,,,,,,,,,,29.83,51,99,0,,0,5,20,29.77,FEW:02 100 SCT:04 120 SCT:04 180,28.66,10,69,200,,9,,,,,,,,,,,,,,,,,,,,,,,,,,,,,,,,,,,,,MET15708/24/24 19:51:01 METAR KPHX 250251Z 20008KT 10SM FEW100 SCT120 SCT180 37/11 A2983 RMK AO2 SLP080 FRQ LTGCGIC DSNT S CB DSNT S SHRA DSNT SE T03720106 55001 $,FM-15,7,,,,,,,,,,,,,,,,,,,,,,,,,,,03-04-2007 00:00
72278023183,24-08-2024 20:00,FM-12,4,,N,0.5,mi,"TEMP, PRECIP",1107,,"MXMN, SRG",33.4442,-112.0247,CONTRACTOR,,,,,,,,,,,,,,,,,,,,,,,,,,,,,51,99,,,0,5,20,29.77,,28.66,9.94,69,200,,9,,,,,,,,,,,,,,,,,,,,,,,,,,,,,,,,,,,,,SYN06472278 32966 42008 10372 20106 39705 40080 55001 90251 555 92503=,FM-12,4,,,,,,,,,,,,,,,,,,,,,,,,,,,03-04-2007 00:00
72278023183,24-08-2024 20:51,FM-15,7,,N,0.5,mi,"TEMP, PRECIP",1107,,"MXMN, SRG",33.4442,-112.0247,CONTRACTOR,,,,,,,,,,,,,,,,,,,,,,,,,,,,29.85,52,99,0,,,,21,29.78,SCT:04 110 SCT:04 180 SCT:04 250,28.68,10,69,260,,8,,,,,,,,,,,,,,,,,,,,,,,,,,,,,,,,,,,,,MET10908/24/24 20:51:01 METAR KPHX 250351Z 26007KT 10SM SCT110 SCT180 SCT250 37/11 A2985 RMK AO2 SLP086 T03720111 $,FM-15,7,,,,,,,,,,,,,,,,,,,,,,,,,,,03-04-2007 00:00
72278023183,24-08-2024 21:51,FM-15,7,,N,0.5,mi,"TEMP, PRECIP",1107,,"MXMN, SRG",33.4442,-112.0247,CONTRACTOR,,,,,,,,,,,,,,,,,,,,,,,,,,,,29.86,47,98,0,,,,17,29.8,BKN:07 110 BKN:07 180 BKN:07 250,28.69,10,67,250,,13,,,,,,,,,,,,,,,,,,,,,,,,,,,,,,,,,,,,,MET10908/24/24 21:51:02 METAR KPHX 250451Z 25011KT 10SM BKN110 BKN180 BKN250 37/08 A2986 RMK AO2 SLP090 T03670083 $,FM-15,7,,,,,,,,,,,,,,,,,,,,,,,,,,,03-04-2007 00:00
72278023183,24-08-2024 22:51,FM-15,7,,N,0.5,mi,"TEMP, PRECIP",1107,,"MXMN, SRG",33.4442,-112.0247,CONTRACTOR,,,,,,,,,,,,,,,,,,,,,,,,,,,,29.87,43,97,0,,-0.04,1,16,29.8,SCT:04 110 BKN:07 180 BKN:07 250,28.69,10,65,250,,9,,,,,,,,,,,,,,,,,,,,,,,,,,,,,,,,,,,,,MET12708/24/24 22:51:01 METAR KPHX 250551Z 25008KT 10SM SCT110 BKN180 BKN250 36/06 A2987 RMK AO2 SLP092 T03610061 10406 20361 51013 $,FM-15,7,,,,,,,,,,,,,,,,,,,,,,,,,,,03-04-2007 00:00
72278023183,24-08-2024 23:00,FM-12,4,,N,0.5,mi,"TEMP, PRECIP",1107,,"MXMN, SRG",33.4442,-112.0247,CONTRACTOR,,,,,,,,,,,,,,,,,,,,,,,,,,,,,43,97,,,-0.04,1,16,29.8,,28.7,9.94,65,250,,9,,,,,,,,,,,,,,,,,,,,,,,,,,,,,,,,,,,,,SYN08072278 32966 62508 10361 20061 39718 40092 51013 90551 333 10406 20294 555 92506=,FM-12,4,,,,,,,,,,,,,,,,,,,,,,,,,,,03-04-2007 00:00
72278023183,24-08-2024 23:51,FM-15,7,,N,0.5,mi,"TEMP, PRECIP",1107,,"MXMN, SRG",33.4442,-112.0247,CONTRACTOR,,,,,,,,,,,,,,,,,,,,,,,,,,,,29.87,44,95,0,,,,17,29.8,BKN:07 160 BKN:07 190,28.69,10,65,230,,6,,,,,,,,,,,,,,,,,,,,,,,,,,,,,,,,,,,,,MET13908/24/24 23:51:01 METAR KPHX 250651Z 23005KT 10SM BKN160 BKN190 35/07 A2987 RMK AO2 SLP092 FRQ LTGIC DSNT N CB DSNT N T03500067 404170283 $,FM-15,7,,,,,,,,,,,,,,,,,,,,,,,,,,,03-04-2007 00:00
72278023183,24-08-2024 23:59,SOD  ,6,,N,0.5,mi,"TEMP, PRECIP",1107,,"MXMN, SRG",33.4442,-112.0247,CONTRACTOR,,,,,,55,95,28,29.84,28.72,70,7.7,30,1.8,0,107,83,170,23,0,,,210,16,,,,,,,,,,,,,,,,,,,,,,,,,,,,,,,,,,,,,,,,,,,,,,,,,,,,,,,,SOD73924 HR PRECIPITATION (IN): 0.00 SNOW DEPTH (IN):0     24 HR SNOWFALL (IN):0.0  24 HR MAX TEMP (F):10724 HR MIN TEMP (F): 83AVERAGE STATION PRESSURE:28.720 MINIMUM SEA LEVEL PRESSURE:29.75 TIME OF OCCURRENCE:1928 PEAK WIND SPEED (MPH): 23 PEAK WIND DIR (DEG):170 PEAK WIND TIME (LST):      FASTEST 2MIN SPEED (MPH): 16FASTEST 2MIN DIR (DEG):210 FASTEST 2MIN TIME (LST):     AVERAGE WIND SPEED (MPH): 7.7 24 HR AVG TEMP (F): 95DEPART FROM NORMAL:  1  HEATING DEGREE DAYS:  0 COOLING DEGREE DAYS: 30 LATEST DAY MAX TEMP (0700-1900 LST):107 LATEST NIGHT MIN TEMP(1900-0800 LST):83 HOURLY INCREMENTAL PRECIPITATION VALUES (IN):.00 0.00 0.00 0.00 0.00 0.00 0.00 0.00 0.00 0.00 0.00 0.00 0.00 0.00 0.00 0.00 0.00 0.00 0.00 0.00 0.00 0.00 0.00 0.00,SOD  ,6,,,,,,,,,,,,,,,,,,,,,,,,,557,1902,03-04-2007 00:00
72278023183,25-08-2024 00:51,FM-15,7,,N,0.5,mi,"TEMP, PRECIP",1107,,"MXMN, SRG",33.4442,-112.0247,CONTRACTOR,,,,,,,,,,,,,,,,,,,,,,,,,,,,29.87,38,94,0,,,,14,29.8,SCT:04 160 BKN:07 190,28.69,10,63,200,,5,,,,,,,,,,,,,,,,,,,,,,,,,,,,,,,,,,,,,MET10808/25/24 00:51:02 METAR KPHX 250751Z 20004KT 10SM SCT160 BKN190 34/03 A2987 RMK AO2 SLP093 T03440033 $ (ANH),FM-15,7,,,,,,,,,,,,,,,,,,,,,,,,,,,03-04-2007 00:00
72278023183,25-08-2024 01:51,FM-15,7,,N,0.5,mi,"TEMP, PRECIP",1107,,"MXMN, SRG",33.4442,-112.0247,CONTRACTOR,,,,,,,,,,,,,,,,,,,,,,,,,,,,29.88,38,95,0,,-0.01,3,14,29.81,SCT:04 160 BKN:07 190,28.7,10,63,30,,5,,,,,,,,,,,,,,,,,,,,,,,,,,,,,,,,,,,,,MET11408/25/24 01:51:02 METAR KPHX 250851Z 03004KT 10SM SCT160 BKN190 35/03 A2988 RMK AO2 SLP096 T03500033 53005 $ (ANH),FM-15,7,,,,,,,,,,,,,,,,,,,,,,,,,,,03-04-2007 00:00
72278023183,25-08-2024 02:00,FM-12,4,,N,0.5,mi,"TEMP, PRECIP",1107,,"MXMN, SRG",33.4442,-112.0247,CONTRACTOR,,,,,,,,,,,,,,,,,,,,,,,,,,,,,38,95,,,-0.01,3,14,29.81,,28.71,9.94,63,30,,5,,,,,,,,,,,,,,,,,,,,,,,,,,,,,,,,,,,,,SYN06472278 32966 60304 10350 20033 39721 40096 53005 90851 555 92509=,FM-12,4,,,,,,,,,,,,,,,,,,,,,,,,,,,03-04-2007 00:00
72278023183,25-08-2024 02:51,FM-15,7,,N,0.5,mi,"TEMP, PRECIP",1107,,"MXMN, SRG",33.4442,-112.0247,CONTRACTOR,,,,,,,,,,,,,,,,,,,,,,,,,,,,29.9,33,94,0,,,,12,29.83,SCT:04 160 BKN:07 190,28.72,10,61,310,,6,,,,,,,,,,,,,,,,,,,,,,,,,,,,,,,,,,,,,MET10808/25/24 02:51:02 METAR KPHX 250951Z 31005KT 10SM SCT160 BKN190 34/01 A2990 RMK AO2 SLP101 T03440006 $ (ANH),FM-15,7,,,,,,,,,,,,,,,,,,,,,,,,,,,03-04-2007 00:00
72278023183,25-08-2024 03:51,FM-15,7,,N,0.5,mi,"TEMP, PRECIP",1107,,"MXMN, SRG",33.4442,-112.0247,CONTRACTOR,,,,,,,,,,,,,,,,,,,,,,,,,,,,29.9,46,90,0,,,,22,29.83,FEW:02 160 BKN:07 190,28.72,10,64,90,,5,,,,,,,,,,,,,,,,,,,,,,,,,,,,,,,,,,,,,MET10808/25/24 03:51:02 METAR KPHX 251051Z 09004KT 10SM FEW160 BKN190 32/08 A2990 RMK AO2 SLP103 T03220078 $ (ANH),FM-15,7,,,,,,,,,,,,,,,,,,,,,,,,,,,03-04-2007 00:00
72278023183,25-08-2024 04:51,FM-15,7,,N,0.5,mi,"TEMP, PRECIP",1107,,"MXMN, SRG",33.4442,-112.0247,CONTRACTOR,,,,,,,,,,,,,,,,,,,,,,,,,,,,29.91,47,87,0,,-0.02,1,25,29.84,FEW:02 160 SCT:04 190,28.73,10,63,100,,5,,,,,,,,,,,,,,,,,,,,,,,,,,,,,,,,,,,,,MET12608/25/24 04:51:02 METAR KPHX 251151Z 10004KT 10SM FEW160 SCT190 31/08 A2991 RMK AO2 SLP105 T03060083 10361 20306 51008 $ (ANH),FM-15,7,,,,,,,,,,,,,,,,,,,,,,,,,,,03-04-2007 00:00
72278023183,25-08-2024 05:00,FM-12,4,,N,0.5,mi,"TEMP, PRECIP",1107,,"MXMN, SRG",33.4442,-112.0247,CONTRACTOR,,,,,,,,,,,,,,,,,,,,,,,,,,,,,47,87,,,-0.02,1,25,29.84,,28.74,9.94,63,100,,5,,,,,,,,,,,,,,,,,,,,,,,,,,,,,,,,,,,,,SYN08072278 32966 41004 10306 20083 39731 40105 51008 91151 333 10417 20306 555 92512=,FM-12,4,,,,,,,,,,,,,,,,,,,,,,,,,,,03-04-2007 00:00
72278023183,25-08-2024 05:51,FM-15,7,,N,0.5,mi,"TEMP, PRECIP",1107,,"MXMN, SRG",33.4442,-112.0247,CONTRACTOR,,,,,,,,,,,,,,,,,,,,,,,,,,,,29.93,44,86,0,,,,23,29.87,FEW:02 100 FEW:02 160 SCT:04 190,28.75,10,62,130,,6,,,,,,,,,,,,,,,,,,,,,,,,,,,,,,,,,,,,,MET11508/25/24 05:51:02 METAR KPHX 251251Z 13005KT 10SM FEW100 FEW160 SCT190 30/07 A2993 RMK AO2 SLP114 T03000067 $ (ANH),FM-15,7,,,,,,,,,,,,,,,,,,,,,,,,,,,03-04-2007 00:00
72278023183,25-08-2024 06:51,FM-15,7,,N,0.5,mi,"TEMP, PRECIP",1107,,"MXMN, SRG",33.4442,-112.0247,CONTRACTOR,,,,,,,,,,,,,,,,,,,,,,,,,,,,29.96,46,87,0,,,,24,29.89,FEW:02 140,28.78,10,63,100,,7,,,,,,,,,,,,,,,,,,,,,,,,,,,,,,,,,,,,,MET10008/25/24 06:51:02 METAR KPHX 251351Z 10006KT 10SM FEW140 31/08 A2996 RMK AO2 SLP123 T03060078 $ (JH),FM-15,7,,,,,,,,,,,,,,,,,,,,,,,,,,,03-04-2007 00:00
72278023183,25-08-2024 07:51,FM-15,7,,N,0.5,mi,"TEMP, PRECIP",1107,,"MXMN, SRG",33.4442,-112.0247,CONTRACTOR,,,,,,,,,,,,,,,,,,,,,,,,,,,,29.98,45,89,0,,-0.06,1,22,29.91,FEW:02 140,28.8,10,63,100,,5,,,,,,,,,,,,,,,,,,,,,,,,,,,,,,,,,,,,,MET10608/25/24 07:51:02 METAR KPHX 251451Z 10004KT 10SM FEW140 32/07 A2998 RMK AO2 SLP129 T03170072 51022 $ (JH),FM-15,7,,,,,,,,,,,,,,,,,,,,,,,,,,,03-04-2007 00:00
72278023183,25-08-2024 08:00,FM-12,4,,N,0.5,mi,"TEMP, PRECIP",1107,,"MXMN, SRG",33.4442,-112.0247,CONTRACTOR,,,,,,,,,,,,,,,,,,,,,,,,,,,,,45,89,,,-0.06,1,22,29.91,,28.8,9.94,63,100,,5,,,,,,,,,,,,,,,,,,,,,,,,,,,,,,,,,,,,,SYN06472278 32966 21004 10317 20072 39754 40129 51022 91451 555 92515=,FM-12,4,,,,,,,,,,,,,,,,,,,,,,,,,,,03-04-2007 00:00
72278023183,25-08-2024 08:51,FM-15,7,,N,0.5,mi,"TEMP, PRECIP",1107,,"MXMN, SRG",33.4442,-112.0247,CONTRACTOR,,,,,,,,,,,,,,,,,,,,,,,,,,,,29.98,41,92,0,,,,17,29.91,FEW:02 140,28.8,10,63,100,,6,,,,,,,,,,,,,,,,,,,,,,,,,,,,,,,,,,,,,MET10008/25/24 08:51:02 METAR KPHX 251551Z 10005KT 10SM FEW140 33/05 A2998 RMK AO2 SLP130 T03330050 $ (JH),FM-15,7,,,,,,,,,,,,,,,,,,,,,,,,,,,03-04-2007 00:00
72278023183,25-08-2024 09:51,FM-15,7,,N,0.5,mi,"TEMP, PRECIP",1107,,"MXMN, SRG",33.4442,-112.0247,CONTRACTOR,,,,,,,,,,,,,,,,,,,,,,,,,,,,29.99,40,96,0,,,,14,29.92,FEW:02 140,28.81,10,64,VRB,,3,,,,,,,,,,,,,,,,,,,,,,,,,,,,,,,,,,,,,MET10008/25/24 09:51:02 METAR KPHX 251651Z VRB03KT 10SM FEW140 36/04 A2999 RMK AO2 SLP132 T03560044 $ (JH),FM-15,7,,,,,,,,,,,,,,,,,,,,,,,,,,,03-04-2007 00:00
72278023183,25-08-2024 10:51,FM-15,7,,N,0.5,mi,"TEMP, PRECIP",1107,,"MXMN, SRG",33.4442,-112.0247,CONTRACTOR,,,,,,,,,,,,,,,,,,,,,,,,,,,,29.98,30,99,0,,0,0,9,29.91,FEW:02 90 FEW:02 140,28.8,10,62,VRB,,6,,,,,,,,,,,,,,,,,,,,,,,,,,,,,,,,,,,,,MET13708/25/24 10:51:02 METAR KPHX 251751Z VRB05KT 10SM FEW090 FEW140 37/M01 A2998 RMK AO2 SLP128 FU DSNT NE T03721011 10372 20300 50000 $ (JH),FM-15,7,,,,,,,,,,,,,,,,,,,,,,,,,,,03-04-2007 00:00
72278023183,25-08-2024 11:00,FM-12,4,,N,0.5,mi,"TEMP, PRECIP",1107,,"MXMN, SRG",33.4442,-112.0247,CONTRACTOR,,,,,,,,,,,,,,,,,,,,,,,,,,,,,30,99,,,0,9,9,29.91,,28.8,9.94,62,,,6,,,,,,,,,,,,,,,,,,,,,,,,,,,,,,,,,,,,,SYN08072278 32966 2//05 10372 21011 39754 40128 50000 91751 333 10372 20300 555 92518=,FM-12,4,,,,,,,,,,,,,,,,,,,,,,,,,,,03-04-2007 00:00
72278023183,25-08-2024 11:51,FM-15,7,,N,0.5,mi,"TEMP, PRECIP",1107,,"MXMN, SRG",33.4442,-112.0247,CONTRACTOR,,,,,,,,,,,,,,,,,,,,,,,,,,,,29.96,32,103,0,,,,8,29.89,FEW:02 90,28.78,10,64,200,,9,,,,,,,,,,,,,,,,,,,,,,,,,,,,,,,,,,,,,MET11208/25/24 11:51:02 METAR KPHX 251851Z 20008KT 10SM FEW090 39/00 A2996 RMK AO2 SLP123 TCU DSNT SE T03940000 $ (JH),FM-15,7,,,,,,,,,,,,,,,,,,,,,,,,,,,03-04-2007 00:00
72278023183,25-08-2024 12:51,FM-15,7,,N,0.5,mi,"TEMP, PRECIP",1107,,"MXMN, SRG",33.4442,-112.0247,CONTRACTOR,,,,,,,,,,,,,,,,,,,,,,,,,,,,29.94,29,103,0,,,,7,29.87,FEW:02 90,28.76,10,63,VRB,,6,,,,,,,,,,,,,,,,,,,,,,,,,,,,,,,,,,,,,MET11208/25/24 12:51:02 METAR KPHX 251951Z VRB05KT 10SM FEW090 39/M02 A2994 RMK AO2 SLP116 CB DSNT SE T03941017 $ (JH),FM-15,7,,,,,,,,,,,,,,,,,,,,,,,,,,,03-04-2007 00:00
72278023183,25-08-2024 13:51,FM-15,7,,N,0.5,mi,"TEMP, PRECIP",1107,,"MXMN, SRG",33.4442,-112.0247,CONTRACTOR,,,,,,,,,,,,,,,,,,,,,,,,,,,,29.92,29,102,0,,0.06,8,8,29.85,FEW:02 90 FEW:02 250,28.74,10,63,VRB,,6,,,,,,,,,,,,,,,,,,,,,,,,,,,,,,,,,,,,,MET14308/25/24 13:51:02 METAR KPHX 252051Z VRB05KT 10SM FEW090 FEW250 39/M02 A2992 RMK AO2 SLP107 CB DSNT E AND SE TCU DSNT NE T03891017 58019 $ (JH),FM-15,7,,,,,,,,,,,,,,,,,,,,,,,,,,,03-04-2007 00:00
72278023183,25-08-2024 14:00,FM-12,4,,N,0.5,mi,"TEMP, PRECIP",1107,,"MXMN, SRG",33.4442,-112.0247,CONTRACTOR,,,,,,,,,,,,,,,,,,,,,,,,,,,,,29,102,,,0.06,8,8,29.85,,28.74,9.94,63,,,6,,,,,,,,,,,,,,,,,,,,,,,,,,,,,,,,,,,,,SYN06472278 32966 2//05 10389 21017 39734 40107 58019 92051 555 92521=,FM-12,4,,,,,,,,,,,,,,,,,,,,,,,,,,,03-04-2007 00:00
72278023183,25-08-2024 14:51,FM-15,7,,N,0.5,mi,"TEMP, PRECIP",1107,,"MXMN, SRG",33.4442,-112.0247,CONTRACTOR,,,,,,,,,,,,,,,,,,,,,,,,,,,,29.89,30,107,0,,,,7,29.82,FEW:02 90 FEW:02 250,28.71,10,65,VRB,,8,,,,,,,,,,,,,,,,,,,,,,,,,,,,,,,,,,,,,MET12008/25/24 14:51:02 METAR KPHX 252151Z 18007KT 10SM FEW090 FEW250 42/M01 A2989 RMK AO2 SLP097 TCU DSNT E T04171011 $ (ADH),FM-15,7,,,,,,,,,,,,,,,,,,,,,,,,,,,03-04-2007 00:00
72278023183,25-08-2024 15:51,FM-15,7,,N,0.5,mi,"TEMP, PRECIP",1107,,"MXMN, SRG",33.4442,-112.0247,CONTRACTOR,,,,,,,,,,,,,,,,,,,,,,,,,,,,29.87,30,107,0,,,,7,29.8,FEW:02 90 FEW:02 250,28.69,10,65,VRB,,5,,,,,,,,,,,,,,,,,,,,,,,,,,,,,,,,,,,,,MET12008/25/24 15:51:02 METAR KPHX 252251Z VRB04KT 10SM FEW090 FEW250 42/M01 A2987 RMK AO2 SLP090 TCU DSNT E T04171011 $ (ADH),FM-15,7,,,,,,,,,,,,,,,,,,,,,,,,,,,03-04-2007 00:00
72278023183,25-08-2024 16:51,FM-15,7,,N,0.5,mi,"TEMP, PRECIP",1107,,"MXMN, SRG",33.4442,-112.0247,CONTRACTOR,,,,,,,,,,,,,,,,,,,,,,,,,,,,29.85,30,106,0,,0.06,6,7,29.78,FEW:02 90 FEW:02 250,28.68,10,65,VRB,,6,,,,,,,,,,,,,,,,,,,,,,,,,,,,,,,,,,,,,MET12708/25/24 16:51:02 METAR KPHX 252351Z VRB05KT 10SM FEW090 FEW250 41/M01 A2985 RMK AO2 SLP086 T04111011 10422 20367 56022 $ (ADH),FM-15,7,,,,,,,,,,,,,,,,,,,,,,,,,,,03-04-2007 00:00
72278023183,25-08-2024 17:00,FM-12,4,,N,0.5,mi,"TEMP, PRECIP",1107,,"MXMN, SRG",33.4442,-112.0247,CONTRACTOR,,,,,,,,,,,,,,,,,,,,,,,,,,,,,30,106,,,0.06,6,7,29.78,,28.68,9.94,65,,,6,,,,,,,,,,,,,,,,,,,,,,,,,,,,,,,,,,,,,SYN08072278 32966 2//05 10411 21011 39712 40086 56022 92351 333 10422 20306 555 92600=,FM-12,4,,,,,,,,,,,,,,,,,,,,,,,,,,,03-04-2007 00:00
72278023183,25-08-2024 17:51,FM-15,7,,N,0.5,mi,"TEMP, PRECIP",1107,,"MXMN, SRG",33.4442,-112.0247,CONTRACTOR,,,,,,,,,,,,,,,,,,,,,,,,,,,,29.85,31,106,0,,,,7,29.78,FEW:02 90 FEW:02 250,28.68,10,65,270,,10,,,,,,,,,,,,,,,,,,,,,,,,,,,,,,,,,,,,,MET10308/25/24 17:51:01 METAR KPHX 260051Z 27009KT 10SM FEW090 FEW250 41/M01 A2985 RMK AO2 SLP085 T04111006 $,FM-15,7,,,,,,,,,,,,,,,,,,,,,,,,,,,03-04-2007 00:00
72278023183,25-08-2024 18:51,FM-15,7,,N,0.5,mi,"TEMP, PRECIP",1107,,"MXMN, SRG",33.4442,-112.0247,CONTRACTOR,,,,,,,,,,,,,,,,,,,,,,,,,,,,29.86,33,103,0,,,,9,29.79,FEW:02 90 FEW:02 250,28.69,10,64,290,21,11,,,,,,,,,,,,,,,,,,,,,,,,,,,,,,,,,,,,,MET11508/25/24 18:51:01 METAR KPHX 260151Z 29010G18KT 10SM FEW090 FEW250 39/01 A2986 RMK AO2 SLP087 CB DSNT E T03940006 $,FM-15,7,,,,,,,,,,,,,,,,,,,,,,,,,,,03-04-2007 00:00
72278023183,25-08-2024 19:51,FM-15,7,,N,0.5,mi,"TEMP, PRECIP",1107,,"MXMN, SRG",33.4442,-112.0247,CONTRACTOR,,,,,,,,,,,,,,,,,,,,,,,,,,,,29.87,37,102,0,,-0.02,3,10,29.8,FEW:02 90 FEW:02 250,28.69,10,65,300,,8,,,,,,,,,,,,,,,,,,,,,,,,,,,,,,,,,,,,,MET13708/25/24 19:51:01 METAR KPHX 260251Z 30007KT 10SM FEW090 FEW250 39/03 A2987 RMK AO2 SLP092 FRQ LTGIC DSNT SE CB DSNT SE T03890028 53006 $,FM-15,7,,,,,,,,,,,,,,,,,,,,,,,,,,,03-04-2007 00:00
72278023183,25-08-2024 20:00,FM-12,4,,N,0.5,mi,"TEMP, PRECIP",1107,,"MXMN, SRG",33.4442,-112.0247,CONTRACTOR,,,,,,,,,,,,,,,,,,,,,,,,,,,,,37,102,,,-0.02,3,10,29.8,,28.7,9.94,65,300,,8,,,,,,,,,,,,,,,,,,,,,,,,,,,,,,,,,,,,,SYN06472278 32966 23007 10389 20028 39718 40092 53006 90251 555 92603=,FM-12,4,,,,,,,,,,,,,,,,,,,,,,,,,,,03-04-2007 00:00
72278023183,25-08-2024 20:51,FM-15,7,,N,0.5,mi,"TEMP, PRECIP",1107,,"MXMN, SRG",33.4442,-112.0247,CONTRACTOR,,,,,,,,,,,,,,,,,,,,,,,,,,,,29.88,39,101,0,,,,12,29.82,CLR:00,28.7,10,65,300,,9,,,,,,,,,,,,,,,,,,,,,,,,,,,,,,,,,,,,,MET09208/25/24 20:51:01 METAR KPHX 260351Z 30008KT 10SM CLR 38/04 A2988 RMK AO2 SLP097 T03830039 $,FM-15,7,,,,,,,,,,,,,,,,,,,,,,,,,,,03-04-2007 00:00
72278023183,25-08-2024 21:51,FM-15,7,,N,0.5,mi,"TEMP, PRECIP",1107,,"MXMN, SRG",33.4442,-112.0247,CONTRACTOR,,,,,,,,,,,,,,,,,,,,,,,,,,,,29.9,41,96,0,,,,15,29.83,CLR:00,28.72,10,64,240,,7,,,,,,,,,,,,,,,,,,,,,,,,,,,,,,,,,,,,,MET09208/25/24 21:51:01 METAR KPHX 260451Z 24006KT 10SM CLR 36/05 A2990 RMK AO2 SLP102 T03560050 $,FM-15,7,,,,,,,,,,,,,,,,,,,,,,,,,,,03-04-2007 00:00
72278023183,25-08-2024 22:51,FM-15,7,,N,0.5,mi,"TEMP, PRECIP",1107,,"MXMN, SRG",33.4442,-112.0247,CONTRACTOR,,,,,,,,,,,,,,,,,,,,,,,,,,,,29.92,42,94,0,,-0.04,3,17,29.85,CLR:00,28.74,10,64,230,,7,,,,,,,,,,,,,,,,,,,,,,,,,,,,,,,,,,,,,MET11008/25/24 22:51:02 METAR KPHX 260551Z 23006KT 10SM CLR 34/06 A2992 RMK AO2 SLP108 T03440056 10411 20344 53015 $,FM-15,7,,,,,,,,,,,,,,,,,,,,,,,,,,,03-04-2007 00:00
72278023183,25-08-2024 23:00,FM-12,4,,N,0.5,mi,"TEMP, PRECIP",1107,,"MXMN, SRG",33.4442,-112.0247,CONTRACTOR,,,,,,,,,,,,,,,,,,,,,,,,,,,,,42,94,,,-0.04,3,17,29.85,,28.74,9.94,64,230,,7,,,,,,,,,,,,,,,,,,,,,,,,,,,,,,,,,,,,,SYN08072278 32966 02306 10344 20056 39734 40108 53015 90551 333 10411 20306 555 92606=,FM-12,4,,,,,,,,,,,,,,,,,,,,,,,,,,,03-04-2007 00:00
72278023183,25-08-2024 23:51,FM-15,7,,N,0.5,mi,"TEMP, PRECIP",1107,,"MXMN, SRG",33.4442,-112.0247,CONTRACTOR,,,,,,,,,,,,,,,,,,,,,,,,,,,,29.93,38,94,0,,,,14,29.86,CLR:00,28.75,10,63,270,,5,,,,,,,,,,,,,,,,,,,,,,,,,,,,,,,,,,,,,MET10208/25/24 23:51:01 METAR KPHX 260651Z 27004KT 10SM CLR 34/03 A2993 RMK AO2 SLP113 T03440033 404220300 $,FM-15,7,,,,,,,,,,,,,,,,,,,,,,,,,,,03-04-2007 00:00
72278023183,25-08-2024 23:59,SOD  ,6,,N,0.5,mi,"TEMP, PRECIP",1107,,"MXMN, SRG",33.4442,-112.0247,CONTRACTOR,,,,,,37,97,13,29.84,28.74,64,5.7,32,3.9,0,108,86,300,25,0,,,280,15,,,,,,,,,,,,,,,,,,,,,,,,,,,,,,,,,,,,,,,,,,,,,,,,,,,,,,,,SOD74324 HR PRECIPITATION (IN): 0.00 SNOW DEPTH (IN):0     24 HR SNOWFALL (IN):0.0  24 HR MAX TEMP (F):10824 HR MIN TEMP (F): 86AVERAGE STATION PRESSURE(D):28.737 MINIMUM SEA LEVEL PRESSURE:29.78 TIME OF OCCURRENCE:1824 PEAK WIND SPEED (MPH): 25 PEAK WIND DIR (DEG):300 PEAK WIND TIME (LST):      FASTEST 2MIN SPEED (MPH): 15FASTEST 2MIN DIR (DEG):280 FASTEST 2MIN TIME (LST):     AVERAGE WIND SPEED (MPH): 5.7 24 HR AVG TEMP (F): 97DEPART FROM NORMAL:  3  HEATING DEGREE DAYS:  0 COOLING DEGREE DAYS: 32 LATEST DAY MAX TEMP (0700-1900 LST):108 LATEST NIGHT MIN TEMP(1900-0800 LST):86 HOURLY INCREMENTAL PRECIPITATION VALUES (IN):0.00 0.00 0.00 0.00 0.00 0.00 0.00 0.00 0.00 0.00 0.00 0.00 0.00 0.00 0.00 0.00 0.00 0.00 0.00 0.00 0.00 0.00 0.00 0.00,SOD  ,6,,,,,,,,,,,,,,,,,,,,,,,,,558,1901,03-04-2007 00:00
72278023183,26-08-2024 00:51,FM-15,7,,N,0.5,mi,"TEMP, PRECIP",1107,,"MXMN, SRG",33.4442,-112.0247,CONTRACTOR,,,,,,,,,,,,,,,,,,,,,,,,,,,,29.93,40,90,0,,,,17,29.86,CLR:00,28.75,10,62,230,,8,,,,,,,,,,,,,,,,,,,,,,,,,,,,,,,,,,,,,MET09808/26/24 00:51:02 METAR KPHX 260751Z 23007KT 10SM CLR 32/04 A2993 RMK AO2 SLP112 T03220044 $ (GEH),FM-15,7,,,,,,,,,,,,,,,,,,,,,,,,,,,03-04-2007 00:00
72278023183,26-08-2024 01:51,FM-15,7,,N,0.5,mi,"TEMP, PRECIP",1107,,"MXMN, SRG",33.4442,-112.0247,CONTRACTOR,,,,,,,,,,,,,,,,,,,,,,,,,,,,29.92,35,90,0,,0,0,14,29.85,CLR:00,28.74,10,60,230,,3,,,,,,,,,,,,,,,,,,,,,,,,,,,,,,,,,,,,,MET10408/26/24 01:51:02 METAR KPHX 260851Z 23003KT 10SM CLR 32/02 A2992 RMK AO2 SLP109 T03220017 50001 $ (GEH),FM-15,7,,,,,,,,,,,,,,,,,,,,,,,,,,,03-04-2007 00:00
72278023183,26-08-2024 02:00,FM-12,4,,N,0.5,mi,"TEMP, PRECIP",1107,,"MXMN, SRG",33.4442,-112.0247,CONTRACTOR,,,,,,,,,,,,,,,,,,,,,,,,,,,,,35,90,,,0,9,14,29.85,,28.74,9.94,60,230,,3,,,,,,,,,,,,,,,,,,,,,,,,,,,,,,,,,,,,,SYN06472278 32966 02303 10322 20017 39734 40109 50001 90851 555 92609=,FM-12,4,,,,,,,,,,,,,,,,,,,,,,,,,,,03-04-2007 00:00
72278023183,26-08-2024 02:51,FM-15,7,,N,0.5,mi,"TEMP, PRECIP",1107,,"MXMN, SRG",33.4442,-112.0247,CONTRACTOR,,,,,,,,,,,,,,,,,,,,,,,,,,,,29.93,32,89,0,,,,13,29.86,CLR:00,28.75,10,59,0,,0,,,,,,,,,,,,,,,,,,,,,,,,,,,,,,,,,,,,,MET09808/26/24 02:51:02 METAR KPHX 260951Z 00000KT 10SM CLR 32/00 A2993 RMK AO2 SLP113 T03170000 $ (GEH),FM-15,7,,,,,,,,,,,,,,,,,,,,,,,,,,,03-04-2007 00:00
72278023183,26-08-2024 03:51,FM-15,7,,N,0.5,mi,"TEMP, PRECIP",1107,,"MXMN, SRG",33.4442,-112.0247,CONTRACTOR,,,,,,,,,,,,,,,,,,,,,,,,,,,,29.93,32,87,0,,,,14,29.86,CLR:00,28.75,10,58,0,,0,,,,,,,,,,,,,,,,,,,,,,,,,,,,,,,,,,,,,MET09808/26/24 03:51:02 METAR KPHX 261051Z 00000KT 10SM CLR 31/00 A2993 RMK AO2 SLP113 T03060000 $ (GEH),FM-15,7,,,,,,,,,,,,,,,,,,,,,,,,,,,03-04-2007 00:00
72278023183,26-08-2024 04:51,FM-15,7,,N,0.5,mi,"TEMP, PRECIP",1107,,"MXMN, SRG",33.4442,-112.0247,CONTRACTOR,,,,,,,,,,,,,,,,,,,,,,,,,,,,29.93,30,87,0,,-0.01,1,13,29.87,CLR:00,28.75,10,58,0,,0,,,,,,,,,,,,,,,,,,,,,,,,,,,,,,,,,,,,,MET11708/26/24 04:51:02 METAR KPHX 261151Z 00000KT 10SM CLR 31/M01 A2993 RMK AO2 SLP114 T03061011 10350 20306 51005 $ (GEH),FM-15,7,,,,,,,,,,,,,,,,,,,,,,,,,,,03-04-2007 00:00
72278023183,26-08-2024 05:00,FM-12,4,,N,0.5,mi,"TEMP, PRECIP",1107,,"MXMN, SRG",33.4442,-112.0247,CONTRACTOR,,,,,,,,,,,,,,,,,,,,,,,,,,,,,30,87,,,-0.01,1,13,29.87,,28.76,9.94,58,0,,0,,,,,,,,,,,,,,,,,,,,,,,,,,,,,,,,,,,,,SYN08072278 32966 00000 10306 21011 39738 40114 51005 91151 333 10422 20306 555 92612=,FM-12,4,,,,,,,,,,,,,,,,,,,,,,,,,,,03-04-2007 00:00
72278023183,26-08-2024 05:51,FM-15,7,,N,0.5,mi,"TEMP, PRECIP",1107,,"MXMN, SRG",33.4442,-112.0247,CONTRACTOR,,,,,,,,,,,,,,,,,,,,,,,,,,,,29.96,45,84,0,,,,25,29.89,FEW:02 100 FEW:02 210,28.78,10,62,100,,6,,,,,,,,,,,,,,,,,,,,,,,,,,,,,,,,,,,,,MET10808/26/24 05:51:02 METAR KPHX 261251Z 10005KT 10SM FEW100 FEW210 29/07 A2996 RMK AO2 SLP122 T02890072 $ (GEH),FM-15,7,,,,,,,,,,,,,,,,,,,,,,,,,,,03-04-2007 00:00
72278023183,26-08-2024 06:51,FM-15,7,,N,0.5,mi,"TEMP, PRECIP",1107,,"MXMN, SRG",33.4442,-112.0247,CONTRACTOR,,,,,,,,,,,,,,,,,,,,,,,,,,,,29.98,47,85,0,,,,27,29.92,FEW:02 100 FEW:02 210,28.8,10,63,150,,8,,,,,,,,,,,,,,,,,,,,,,,,,,,,,,,,,,,,,MET10508/26/24 06:51:02 METAR KPHX 261351Z 15007KT 10SM FEW100 FEW210 29/08 A2998 RMK AO2 SLP132 T02940083 (SH),FM-15,7,,,,,,,,,,,,,,,,,,,,,,,,,,,03-04-2007 00:00
72278023183,26-08-2024 07:51,FM-15,7,,N,0.5,mi,"TEMP, PRECIP",1107,,"MXMN, SRG",33.4442,-112.0247,CONTRACTOR,,,,,,,,,,,,,,,,,,,,,,,,,,,,30,46,89,0,,-0.06,1,23,29.93,FEW:02 100 FEW:02 210,28.82,10,64,110,,6,,,,,,,,,,,,,,,,,,,,,,,,,,,,,,,,,,,,,MET11108/26/24 07:51:02 METAR KPHX 261451Z 11005KT 10SM FEW100 FEW210 32/08 A3000 RMK AO2 SLP137 T03170078 51022 (SH),FM-15,7,,,,,,,,,,,,,,,,,,,,,,,,,,,03-04-2007 00:00
72278023183,26-08-2024 08:00,FM-12,4,,N,0.5,mi,"TEMP, PRECIP",1107,,"MXMN, SRG",33.4442,-112.0247,CONTRACTOR,,,,,,,,,,,,,,,,,,,,,,,,,,,,,46,89,,,-0.06,1,23,29.93,,28.82,9.94,64,110,,6,,,,,,,,,,,,,,,,,,,,,,,,,,,,,,,,,,,,,SYN06472278 32966 21105 10317 20078 39761 40137 51022 91451 555 92615=,FM-12,4,,,,,,,,,,,,,,,,,,,,,,,,,,,03-04-2007 00:00
72278023183,26-08-2024 08:51,FM-15,7,,N,0.5,mi,"TEMP, PRECIP",1107,,"MXMN, SRG",33.4442,-112.0247,CONTRACTOR,,,,,,,,,,,,,,,,,,,,,,,,,,,,30,51,92,0,,,,25,29.94,FEW:02 100 FEW:02 210,28.82,10,67,120,,7,,,,,,,,,,,,,,,,,,,,,,,,,,,,,,,,,,,,,MET10508/26/24 08:51:02 METAR KPHX 261551Z 12006KT 10SM FEW100 FEW210 33/11 A3000 RMK AO2 SLP138 T03330106 (SH),FM-15,7,,,,,,,,,,,,,,,,,,,,,,,,,,,03-04-2007 00:00
72278023183,26-08-2024 09:51,FM-15,7,,N,0.5,mi,"TEMP, PRECIP",1107,,"MXMN, SRG",33.4442,-112.0247,CONTRACTOR,,,,,,,,,,,,,,,,,,,,,,,,,,,,30.01,48,96,0,,,,19,29.94,FEW:02 100 FEW:02 210,28.83,10,67,VRB,,5,,,,,,,,,,,,,,,,,,,,,,,,,,,,,,,,,,,,,MET10508/26/24 09:51:02 METAR KPHX 261651Z VRB04KT 10SM FEW100 FEW210 36/09 A3001 RMK AO2 SLP139 T03560089 (SH),FM-15,7,,,,,,,,,,,,,,,,,,,,,,,,,,,03-04-2007 00:00
72278023183,26-08-2024 10:51,FM-15,7,,N,0.5,mi,"TEMP, PRECIP",1107,,"MXMN, SRG",33.4442,-112.0247,CONTRACTOR,,,,,,,,,,,,,,,,,,,,,,,,,,,,30,44,99,0,,0,8,15,29.93,FEW:02 100 FEW:02 210,28.82,10,66,0,,0,,,,,,,,,,,,,,,,,,,,,,,,,,,,,,,,,,,,,MET11808/26/24 10:51:02 METAR KPHX 261751Z 00000KT 10SM FEW100 FEW210 37/07 A3000 RMK AO2 SLP136 T03720067 10378 20289 58000,FM-15,7,,,,,,,,,,,,,,,,,,,,,,,,,,,03-04-2007 00:00
72278023183,26-08-2024 11:00,FM-12,4,,N,0.5,mi,"TEMP, PRECIP",1107,,"MXMN, SRG",33.4442,-112.0247,CONTRACTOR,,,,,,,,,,,,,,,,,,,,,,,,,,,,,44,99,,,0,7,15,29.93,,28.82,9.94,66,0,,0,,,,,,,,,,,,,,,,,,,,,,,,,,,,,,,,,,,,,SYN08072278 32966 20000 10372 20067 39761 40136 58000 91751 333 10378 20289 555 92618=,FM-12,4,,,,,,,,,,,,,,,,,,,,,,,,,,,03-04-2007 00:00
72278023183,26-08-2024 11:51,FM-15,7,,N,0.5,mi,"TEMP, PRECIP",1107,,"MXMN, SRG",33.4442,-112.0247,CONTRACTOR,,,,,,,,,,,,,,,,,,,,,,,,,,,,29.99,41,102,0,,,,12,29.92,FEW:02 100 FEW:02 210,28.81,10,66,70,,6,,,,,,,,,,,,,,,,,,,,,,,,,,,,,,,,,,,,,MET10008/26/24 11:51:02 METAR KPHX 261851Z 07005KT 10SM FEW100 FEW210 39/05 A2999 RMK AO2 SLP131 T03890050,FM-15,7,,,,,,,,,,,,,,,,,,,,,,,,,,,03-04-2007 00:00
72278023183,26-08-2024 12:51,FM-15,7,,N,0.5,mi,"TEMP, PRECIP",1107,,"MXMN, SRG",33.4442,-112.0247,CONTRACTOR,,,,,,,,,,,,,,,,,,,,,,,,,,,,29.97,38,104,0,,,,10,29.9,FEW:02 80 FEW:02 230,28.79,10,66,,,,,,,,,,,,,,,,,,,,,,,,,,,,,,,,,,,,,,,,MET11808/26/24 12:51:02 METAR KPHX 261951Z      KT 10SM FEW080 FEW230 40/03 A2997 RMK AO2 SLP125 TCU DSNT E AND SE T04000033,FM-15,7,,,,,,,,,,,,,,,,,,,,,,,,,,,03-04-2007 00:00
72278023183,26-08-2024 12:53,FM-16,7,,N,0.5,mi,"TEMP, PRECIP",1107,,"MXMN, SRG",33.4442,-112.0247,CONTRACTOR,,,,,,,,,,,,,,,,,,,,,,,,,,,,29.96,37,104,,,,,10,,FEW:02 80 FEW:02 230,28.78,10,66,240,,3,,,,,,,,,,,,,,,,,,,,,,,,,,,,,,,,,,,,,MET11108/26/24 12:53:02 SPECI KPHX 261953Z 24003KT 10SM FEW080 FEW230 40/03 A2996 RMK AO2 TCU DSNT E AND SE T04000028,FM-16,7,,,,,,,,,,,,,,,,,,,,,,,,,,,03-04-2007 00:00
72278023183,26-08-2024 13:51,FM-15,7,,N,0.5,mi,"TEMP, PRECIP",1107,,"MXMN, SRG",33.4442,-112.0247,CONTRACTOR,,,,,,,,,,,,,,,,,,,,,,,,,,,,29.94,34,105,0,,0.06,8,8,29.87,FEW:02 80 FEW:02 150 FEW:02 230,28.76,10,65,,,,,,,,,,,,,,,,,,,,,,,,,,,,,,,,,,,,,,,,MET14108/26/24 13:51:02 METAR KPHX 262051Z      KT 10SM FEW080 FEW150 FEW230 41/01 A2994 RMK AO2 SLP115 CB DSNT E TCU DSNT SE AND S T04060011 58020,FM-15,7,,,,,,,,,,,,,,,,,,,,,,,,,,,03-04-2007 00:00
72278023183,26-08-2024 14:00,FM-12,4,,N,0.5,mi,"TEMP, PRECIP",1107,,"MXMN, SRG",33.4442,-112.0247,CONTRACTOR,,,,,,,,,,,,,,,,,,,,,,,,,,,,,34,105,,,0.06,8,8,29.87,74,28.77,9.94,65,,,,,,,,,,,,,,,,,,,,,,,,,,,,,,,,,,,,,,,,SYN06472278 32866 2//// 10406 20011 39741 40115 58020 92051 555 92621=,FM-12,4,,,,,,,,,,,,,,,,,,,,,,,,,,,03-04-2007 00:00
72278023183,26-08-2024 14:03,FM-16,7,,N,0.5,mi,"TEMP, PRECIP",1107,,"MXMN, SRG",33.4442,-112.0247,CONTRACTOR,,,,,,,,,,,,,,,,,,,,,,,,,,,,29.93,33,105,,,,,8,,FEW:02 80 FEW:02 150 FEW:02 230,28.75,10,65,210,,6,,,,,,,,,,,,,,,,,,,,,,,,,,,,,,,,,,,,,MET12808/26/24 14:03:02 SPECI KPHX 262103Z 21005KT 10SM FEW080 FEW150 FEW230 41/01 A2993 RMK AO2 CB DSNT E TCU DSNT SE AND S T04060006,FM-16,7,,,,,,,,,,,,,,,,,,,,,,,,,,,03-04-2007 00:00
72278023183,26-08-2024 14:51,FM-15,7,,N,0.5,mi,"TEMP, PRECIP",1107,,"MXMN, SRG",33.4442,-112.0247,CONTRACTOR,,,,,,,,,,,,,,,,,,,,,,,,,,,,29.91,34,107,0,,,,8,29.84,FEW:02 90 FEW:02 250,28.73,10,66,250,,5,,,,,,,,,,,,,,,,,,,,,,,,,,,,,,,,,,,,,MET11308/26/24 14:51:02 METAR KPHX 262151Z 25004KT 10SM FEW090 FEW250 42/01 A2991 RMK AO2 SLP105 CB DSNT E-SE T04170011,FM-15,7,,,,,,,,,,,,,,,,,,,,,,,,,,,03-04-2007 00:00
72278023183,26-08-2024 15:51,FM-15,7,,N,0.5,mi,"TEMP, PRECIP",1107,,"MXMN, SRG",33.4442,-112.0247,CONTRACTOR,,,,,,,,,,,,,,,,,,,,,,,,,,,,29.89,30,108,0,,,,7,29.82,FEW:02 90 FEW:02 250,28.71,10,65,260,20,10,,,,,,,,,,,,,,,,,,,,,,,,,,,,,,,,,,,,,MET11508/26/24 15:51:02 METAR KPHX 262251Z 26009G17KT 10SM FEW090 FEW250 42/M01 A2989 RMK AO2 SLP098 CB DSNT SE T04221011,FM-15,7,,,,,,,,,,,,,,,,,,,,,,,,,,,03-04-2007 00:00
72278023183,26-08-2024 16:51,FM-15,7,,N,0.5,mi,"TEMP, PRECIP",1107,,"MXMN, SRG",33.4442,-112.0247,CONTRACTOR,,,,,,,,,,,,,,,,,,,,,,,,,,,,29.87,31,107,0,,0.07,6,7,29.8,FEW:02 90 FEW:02 250,28.69,10,65,250,,9,,,,,,,,,,,,,,,,,,,,,,,,,,,,,,,,,,,,,MET11908/26/24 16:51:02 METAR KPHX 262351Z 25008KT 10SM FEW090 FEW250 42/M01 A2987 RMK AO2 SLP092 T04171006 10433 20367 56023,FM-15,7,,,,,,,,,,,,,,,,,,,,,,,,,,,03-04-2007 00:00
72278023183,26-08-2024 17:00,FM-12,4,,N,0.5,mi,"TEMP, PRECIP",1107,,"MXMN, SRG",33.4442,-112.0247,CONTRACTOR,,,,,,,,,,,,,,,,,,,,,,,,,,,,,31,107,,,0.07,6,7,29.8,,28.7,9.94,65,250,,9,,,,,,,,,,,,,,,,,,,,,,,,,,,,,,,,,,,,,SYN08072278 32966 22508 10417 21006 39718 40092 56023 92351 333 10433 20306 555 92700=,FM-12,4,,,,,,,,,,,,,,,,,,,,,,,,,,,03-04-2007 00:00
72278023183,26-08-2024 17:51,FM-15,7,,N,0.5,mi,"TEMP, PRECIP",1107,,"MXMN, SRG",33.4442,-112.0247,CONTRACTOR,,,,,,,,,,,,,,,,,,,,,,,,,,,,29.86,32,106,0,,,,8,29.79,FEW:02 90 FEW:02 250,28.69,10,65,340,,5,,,,,,,,,,,,,,,,,,,,,,,,,,,,,,,,,,,,,MET10008/26/24 17:51:01 METAR KPHX 270051Z 34004KT 10SM FEW090 FEW250 41/00 A2986 RMK AO2 SLP089 T04110000,FM-15,7,,,,,,,,,,,,,,,,,,,,,,,,,,,03-04-2007 00:00
72278023183,26-08-2024 18:51,FM-15,7,,N,0.5,mi,"TEMP, PRECIP",1107,,"MXMN, SRG",33.4442,-112.0247,CONTRACTOR,,,,,,,,,,,,,,,,,,,,,,,,,,,,29.86,35,105,0,,,,9,29.79,FEW:02 120 FEW:02 250,28.69,10,65,VRB,,6,,,,,,,,,,,,,,,,,,,,,,,,,,,,,,,,,,,,,MET10008/26/24 18:51:01 METAR KPHX 270151Z VRB05KT 10SM FEW120 FEW250 41/02 A2986 RMK AO2 SLP089 T04060017,FM-15,7,,,,,,,,,,,,,,,,,,,,,,,,,,,03-04-2007 00:00
72278023183,26-08-2024 19:51,FM-15,7,,N,0.5,mi,"TEMP, PRECIP",1107,,"MXMN, SRG",33.4442,-112.0247,CONTRACTOR,,,,,,,,,,,,,,,,,,,,,,,,,,,,29.87,35,102,0,,0,5,10,29.8,CLR:00,28.69,10,64,260,,8,,,,,,,,,,,,,,,,,,,,,,,,,,,,,,,,,,,,,MET09608/26/24 19:51:01 METAR KPHX 270251Z 26007KT 10SM CLR 39/02 A2987 RMK AO2 SLP091 T03890017 55000,FM-15,7,,,,,,,,,,,,,,,,,,,,,,,,,,,03-04-2007 00:00
72278023183,26-08-2024 20:00,FM-12,4,,N,0.5,mi,"TEMP, PRECIP",1107,,"MXMN, SRG",33.4442,-112.0247,CONTRACTOR,,,,,,,,,,,,,,,,,,,,,,,,,,,,,35,102,,,0,5,10,29.8,,28.7,9.94,64,260,,8,,,,,,,,,,,,,,,,,,,,,,,,,,,,,,,,,,,,,SYN06472278 32966 02607 10389 20017 39718 40091 55000 90251 555 92703=,FM-12,4,,,,,,,,,,,,,,,,,,,,,,,,,,,03-04-2007 00:00
72278023183,26-08-2024 20:51,FM-15,7,,N,0.5,mi,"TEMP, PRECIP",1107,,"MXMN, SRG",33.4442,-112.0247,CONTRACTOR,,,,,,,,,,,,,,,,,,,,,,,,,,,,29.88,38,99,0,,,,12,29.81,CLR:00,28.7,10,64,250,,6,,,,,,,,,,,,,,,,,,,,,,,,,,,,,,,,,,,,,MET09008/26/24 20:51:01 METAR KPHX 270351Z 25005KT 10SM CLR 37/03 A2988 RMK AO2 SLP096 T03720033,FM-15,7,,,,,,,,,,,,,,,,,,,,,,,,,,,03-04-2007 00:00
72278023183,26-08-2024 21:51,FM-15,7,,N,0.5,mi,"TEMP, PRECIP",1107,,"MXMN, SRG",33.4442,-112.0247,CONTRACTOR,,,,,,,,,,,,,,,,,,,,,,,,,,,,29.89,39,97,0,,,,13,29.82,CLR:00,28.71,10,64,230,,3,,,,,,,,,,,,,,,,,,,,,,,,,,,,,,,,,,,,,MET09008/26/24 21:51:01 METAR KPHX 270451Z 23003KT 10SM CLR 36/04 A2989 RMK AO2 SLP099 T03610039,FM-15,7,,,,,,,,,,,,,,,,,,,,,,,,,,,03-04-2007 00:00
72278023183,26-08-2024 22:51,FM-15,7,,N,0.5,mi,"TEMP, PRECIP",1107,,"MXMN, SRG",33.4442,-112.0247,CONTRACTOR,,,,,,,,,,,,,,,,,,,,,,,,,,,,29.89,40,95,0,,-0.02,1,15,29.82,CLR:00,28.71,10,64,240,,3,,,,,,,,,,,,,,,,,,,,,,,,,,,,,,,,,,,,,MET10808/26/24 22:51:01 METAR KPHX 270551Z 24003KT 10SM CLR 35/04 A2989 RMK AO2 SLP099 T03500044 10422 20350 51007,FM-15,7,,,,,,,,,,,,,,,,,,,,,,,,,,,03-04-2007 00:00
72278023183,26-08-2024 23:00,FM-12,4,,N,0.5,mi,"TEMP, PRECIP",1107,,"MXMN, SRG",33.4442,-112.0247,CONTRACTOR,,,,,,,,,,,,,,,,,,,,,,,,,,,,,40,95,,,-0.02,1,15,29.82,,28.72,9.94,64,240,,3,,,,,,,,,,,,,,,,,,,,,,,,,,,,,,,,,,,,,SYN08072278 32966 02403 10350 20044 39725 40099 51007 90551 333 10422 20306 555 92706=,FM-12,4,,,,,,,,,,,,,,,,,,,,,,,,,,,03-04-2007 00:00
72278023183,26-08-2024 23:51,FM-15,7,,N,0.5,mi,"TEMP, PRECIP",1107,,"MXMN, SRG",33.4442,-112.0247,CONTRACTOR,,,,,,,,,,,,,,,,,,,,,,,,,,,,29.89,39,97,0,,,,13,29.83,FEW:02 110,28.71,10,64,330,,3,,,,,,,,,,,,,,,,,,,,,,,,,,,,,,,,,,,,,MET10308/26/24 23:51:01 METAR KPHX 270651Z 33003KT 10SM FEW110 36/04 A2989 RMK AO2 SLP100 T03610039 404330289,FM-15,7,,,,,,,,,,,,,,,,,,,,,,,,,,,03-04-2007 00:00
72278023183,26-08-2024 23:59,SOD  ,6,,N,0.5,mi,"TEMP, PRECIP",1107,,"MXMN, SRG",33.4442,-112.0247,CONTRACTOR,,,,,,38,97,14,29.86,28.75,64,4.9,32,4,0,110,84,280,20,0,,,280,15,,,,,,,,,,,,,,,,,,,,,,,,,,,,,,,,,,,,,,,,,,,,,,,,,,,,,,,,SOD74324 HR PRECIPITATION (IN): 0.00 SNOW DEPTH (IN):0     24 HR SNOWFALL (IN):0.0  24 HR MAX TEMP (F):11024 HR MIN TEMP (F): 84AVERAGE STATION PRESSURE(D):28.754 MINIMUM SEA LEVEL PRESSURE:29.79 TIME OF OCCURRENCE:1929 PEAK WIND SPEED (MPH): 20 PEAK WIND DIR (DEG):280 PEAK WIND TIME (LST):      FASTEST 2MIN SPEED (MPH): 15FASTEST 2MIN DIR (DEG):280 FASTEST 2MIN TIME (LST):     AVERAGE WIND SPEED (MPH): 4.9 24 HR AVG TEMP (F): 97DEPART FROM NORMAL:  3  HEATING DEGREE DAYS:  0 COOLING DEGREE DAYS: 32 LATEST DAY MAX TEMP (0700-1900 LST):110 LATEST NIGHT MIN TEMP(1900-0800 LST):84 HOURLY INCREMENTAL PRECIPITATION VALUES (IN):0.00 0.00 0.00 0.00 0.00 0.00 0.00 0.00 0.00 0.00 0.00 0.00 0.00 0.00 0.00 0.00 0.00 0.00 0.00 0.00 0.00 0.00 0.00 0.00,SOD  ,6,,,,,,,,,,,,,,,,,,,,,,,,,559,1900,03-04-2007 00:00
72278023183,27-08-2024 00:51,FM-15,7,,N,0.5,mi,"TEMP, PRECIP",1107,,"MXMN, SRG",33.4442,-112.0247,CONTRACTOR,,,,,,,,,,,,,,,,,,,,,,,,,,,,29.89,40,91,0,,,,17,29.82,CLR:00,28.71,10,62,230,,6,,,,,,,,,,,,,,,,,,,,,,,,,,,,,,,,,,,,,MET09608/27/24 00:51:02 METAR KPHX 270751Z 23005KT 10SM CLR 33/04 A2989 RMK AO2 SLP098 T03280044 (GEH),FM-15,7,,,,,,,,,,,,,,,,,,,,,,,,,,,03-04-2007 00:00
72278023183,27-08-2024 01:51,FM-15,7,,N,0.5,mi,"TEMP, PRECIP",1107,,"MXMN, SRG",33.4442,-112.0247,CONTRACTOR,,,,,,,,,,,,,,,,,,,,,,,,,,,,29.88,40,90,0,,0.01,8,17,29.82,CLR:00,28.7,10,62,230,,5,,,,,,,,,,,,,,,,,,,,,,,,,,,,,,,,,,,,,MET10208/27/24 01:51:02 METAR KPHX 270851Z 23004KT 10SM CLR 32/04 A2988 RMK AO2 SLP097 T03220044 58002 (GEH),FM-15,7,,,,,,,,,,,,,,,,,,,,,,,,,,,03-04-2007 00:00
72278023183,27-08-2024 02:00,FM-12,4,,N,0.5,mi,"TEMP, PRECIP",1107,,"MXMN, SRG",33.4442,-112.0247,CONTRACTOR,,,,,,,,,,,,,,,,,,,,,,,,,,,,,40,90,,,0.01,8,17,29.82,,28.71,9.94,62,230,,5,,,,,,,,,,,,,,,,,,,,,,,,,,,,,,,,,,,,,SYN06472278 32966 02304 10322 20044 39721 40097 58002 90851 555 92709=,FM-12,4,,,,,,,,,,,,,,,,,,,,,,,,,,,03-04-2007 00:00
72278023183,27-08-2024 02:51,FM-15,7,,N,0.5,mi,"TEMP, PRECIP",1107,,"MXMN, SRG",33.4442,-112.0247,CONTRACTOR,,,,,,,,,,,,,,,,,,,,,,,,,,,,29.89,49,89,0,,,,25,29.82,CLR:00,28.71,10,65,0,,0,,,,,,,,,,,,,,,,,,,,,,,,,,,,,,,,,,,,,MET09608/27/24 02:51:02 METAR KPHX 270951Z 00000KT 10SM CLR 32/09 A2989 RMK AO2 SLP098 T03170094 (GEH),FM-15,7,,,,,,,,,,,,,,,,,,,,,,,,,,,03-04-2007 00:00
72278023183,27-08-2024 03:51,FM-15,7,,N,0.5,mi,"TEMP, PRECIP",1107,,"MXMN, SRG",33.4442,-112.0247,CONTRACTOR,,,,,,,,,,,,,,,,,,,,,,,,,,,,29.88,48,87,0,,,,26,29.82,FEW:02 100,28.7,10,64,120,,3,,,,,,,,,,,,,,,,,,,,,,,,,,,,,,,,,,,,,MET09908/27/24 03:51:02 METAR KPHX 271051Z 12003KT 10SM FEW100 31/09 A2988 RMK AO2 SLP097 T03060089 (GEH),FM-15,7,,,,,,,,,,,,,,,,,,,,,,,,,,,03-04-2007 00:00
72278023183,27-08-2024 04:51,FM-15,7,,N,0.5,mi,"TEMP, PRECIP",1107,,"MXMN, SRG",33.4442,-112.0247,CONTRACTOR,,,,,,,,,,,,,,,,,,,,,,,,,,,,29.9,42,87,0,,-0.01,3,21,29.83,FEW:02 100,28.72,10,62,140,,3,,,,,,,,,,,,,,,,,,,,,,,,,,,,,,,,,,,,,MET11708/27/24 04:51:02 METAR KPHX 271151Z 14003KT 10SM FEW100 31/06 A2990 RMK AO2 SLP102 T03060056 10367 20306 53004 (GEH),FM-15,7,,,,,,,,,,,,,,,,,,,,,,,,,,,03-04-2007 00:00
72278023183,27-08-2024 05:00,FM-12,4,,N,0.5,mi,"TEMP, PRECIP",1107,,"MXMN, SRG",33.4442,-112.0247,CONTRACTOR,,,,,,,,,,,,,,,,,,,,,,,,,,,,,42,87,,,-0.01,3,21,29.83,,28.73,9.94,62,140,,3,,,,,,,,,,,,,,,,,,,,,,,,,,,,,,,,,,,,,SYN08072278 32966 21403 10306 20056 39728 40102 53004 91151 333 10433 20306 555 92712=,FM-12,4,,,,,,,,,,,,,,,,,,,,,,,,,,,03-04-2007 00:00
72278023183,27-08-2024 05:51,FM-15,7,,N,0.5,mi,"TEMP, PRECIP",1107,,"MXMN, SRG",33.4442,-112.0247,CONTRACTOR,,,,,,,,,,,,,,,,,,,,,,,,,,,,29.91,43,86,0,,,,22,29.84,FEW:02 100,28.73,10,62,90,,3,,,,,,,,,,,,,,,,,,,,,,,,,,,,,,,,,,,,,MET09908/27/24 05:51:02 METAR KPHX 271251Z 09003KT 10SM FEW100 30/06 A2991 RMK AO2 SLP105 T03000061 (GEH),FM-15,7,,,,,,,,,,,,,,,,,,,,,,,,,,,03-04-2007 00:00
72278023183,27-08-2024 06:51,FM-15,7,,N,0.5,mi,"TEMP, PRECIP",1107,,"MXMN, SRG",33.4442,-112.0247,CONTRACTOR,,,,,,,,,,,,,,,,,,,,,,,,,,,,29.92,46,85,0,,,,26,29.85,FEW:02 100 SCT:04 150 SCT:04 230,28.74,10,62,150,,5,,,,,,,,,,,,,,,,,,,,,,,,,,,,,,,,,,,,,MET11208/27/24 06:51:02 METAR KPHX 271351Z 15004KT 10SM FEW100 SCT150 SCT230 29/08 A2992 RMK AO2 SLP109 T02940078 (SH),FM-15,7,,,,,,,,,,,,,,,,,,,,,,,,,,,03-04-2007 00:00
72278023183,27-08-2024 07:51,FM-15,7,,N,0.5,mi,"TEMP, PRECIP",1107,,"MXMN, SRG",33.4442,-112.0247,CONTRACTOR,,,,,,,,,,,,,,,,,,,,,,,,,,,,29.93,45,88,0,,-0.04,3,22,29.87,FEW:02 100 SCT:04 150 SCT:04 230,28.75,10,63,100,,7,,,,,,,,,,,,,,,,,,,,,,,,,,,,,,,,,,,,,MET11808/27/24 07:51:02 METAR KPHX 271451Z 10006KT 10SM FEW100 SCT150 SCT230 31/07 A2993 RMK AO2 SLP114 T03110072 53013 (SH),FM-15,7,,,,,,,,,,,,,,,,,,,,,,,,,,,03-04-2007 00:00
72278023183,27-08-2024 08:00,FM-12,4,,N,0.5,mi,"TEMP, PRECIP",1107,,"MXMN, SRG",33.4442,-112.0247,CONTRACTOR,,,,,,,,,,,,,,,,,,,,,,,,,,,,,45,88,,,-0.04,3,22,29.87,,28.76,9.94,63,100,,7,,,,,,,,,,,,,,,,,,,,,,,,,,,,,,,,,,,,,SYN06472278 32966 41006 10311 20072 39738 40114 53013 91451 555 92715=,FM-12,4,,,,,,,,,,,,,,,,,,,,,,,,,,,03-04-2007 00:00
72278023183,27-08-2024 08:51,FM-15,7,,N,0.5,mi,"TEMP, PRECIP",1107,,"MXMN, SRG",33.4442,-112.0247,CONTRACTOR,,,,,,,,,,,,,,,,,,,,,,,,,,,,29.94,46,93,0,,,,20,29.88,BKN:07 150 BKN:07 230,28.76,10,65,100,,6,,,,,,,,,,,,,,,,,,,,,,,,,,,,,,,,,,,,,MET10508/27/24 08:51:02 METAR KPHX 271551Z 10005KT 10SM BKN150 BKN230 34/08 A2994 RMK AO2 SLP117 T03390078 (SH),FM-15,7,,,,,,,,,,,,,,,,,,,,,,,,,,,03-04-2007 00:00
72278023183,27-08-2024 09:51,FM-15,7,,N,0.5,mi,"TEMP, PRECIP",1107,,"MXMN, SRG",33.4442,-112.0247,CONTRACTOR,,,,,,,,,,,,,,,,,,,,,,,,,,,,29.95,45,96,0,,,,17,29.88,BKN:07 150 BKN:07 230,28.77,10,66,100,,6,,,,,,,,,,,,,,,,,,,,,,,,,,,,,,,,,,,,,MET10508/27/24 09:51:02 METAR KPHX 271651Z 10005KT 10SM BKN150 BKN230 36/07 A2995 RMK AO2 SLP119 T03560072 (SH),FM-15,7,,,,,,,,,,,,,,,,,,,,,,,,,,,03-04-2007 00:00
72278023183,27-08-2024 10:51,FM-15,7,,N,0.5,mi,"TEMP, PRECIP",1107,,"MXMN, SRG",33.4442,-112.0247,CONTRACTOR,,,,,,,,,,,,,,,,,,,,,,,,,,,,29.95,49,99,0,,-0.01,0,18,29.88,SCT:04 140 BKN:07 170 BKN:07 250,28.77,10,68,VRB,,8,,,,,,,,,,,,,,,,,,,,,,,,,,,,,,,,,,,,,MET13008/27/24 10:51:02 METAR KPHX 271751Z 13007KT 10SM SCT140 BKN170 BKN250 37/09 A2995 RMK AO2 SLP118 T03720094 10372 20294 50004 (SH),FM-15,7,,,,,,,,,,,,,,,,,,,,,,,,,,,03-04-2007 00:00
72278023183,27-08-2024 11:00,FM-12,4,,N,0.5,mi,"TEMP, PRECIP",1107,,"MXMN, SRG",33.4442,-112.0247,CONTRACTOR,,,,,,,,,,,,,,,,,,,,,,,,,,,,,49,99,,,0.01,9,18,29.88,,28.77,9.94,68,130,,8,,,,,,,,,,,,,,,,,,,,,,,,,,,,,,,,,,,,,SYN08072278 32966 61307 10372 20094 39744 40118 50004 91751 333 10372 20294 555 92718=,FM-12,4,,,,,,,,,,,,,,,,,,,,,,,,,,,03-04-2007 00:00
72278023183,27-08-2024 11:51,FM-15,7,,N,0.5,mi,"TEMP, PRECIP",1107,,"MXMN, SRG",33.4442,-112.0247,CONTRACTOR,,,,,,,,,,,,,,,,,,,,,,,,,,,,29.93,51,101,0,,,,19,29.86,FEW:02 80 BKN:07 130 BKN:07 160,28.75,10,69,VRB,,5,,,,,,,,,,,,,,,,,,,,,,,,,,,,,,,,,,,,,MET12508/27/24 11:51:02 METAR KPHX 271851Z VRB04KT 10SM FEW080 BKN130 BKN160 38/11 A2993 RMK AO2 SLP111 SHRA DSNT SE T03830106 (SH),FM-15,7,,,,,,,,,,,,,,,,,,,,,,,,,,,03-04-2007 00:00
72278023183,27-08-2024 12:51,FM-15,7,,N,0.5,mi,"TEMP, PRECIP",1107,,"MXMN, SRG",33.4442,-112.0247,CONTRACTOR,,,,,,,,,,,,,,,,,,,,,,,,,,,,29.91,53,102,0,,,,19,29.84,FEW:02 80 BKN:07 130 BKN:07 170,28.73,10,71,210,,8,,,,,,,,,,,,,,,,,,,,,,,,,,,,,,,,,,,,,MET12508/27/24 12:51:02 METAR KPHX 271951Z 21007KT 10SM FEW080 BKN130 BKN170 39/12 A2991 RMK AO2 SLP105 SHRA DSNT SE T03890117 (SH),FM-15,7,,,,,,,,,,,,,,,,,,,,,,,,,,,03-04-2007 00:00
72278023183,27-08-2024 13:51,FM-15,7,,N,0.5,mi,"TEMP, PRECIP",1107,,"MXMN, SRG",33.4442,-112.0247,CONTRACTOR,,,,,,,,,,,,,,,,,,,,,,,,,,,,29.89,49,103,0,,0.06,8,16,29.82,FEW:02 80 FEW:02 130 BKN:07 170,28.71,10,69,160,,7,,,,,,,,,,,,,,,,,,,,,,,,,,,,,,,,,,,,,MET13808/27/24 13:51:02 METAR KPHX 272051Z 16006KT 10SM FEW080 FEW130 BKN170 39/09 A2989 RMK AO2 SLP098 CB DSNT NE-E AND SE T03940094 58020 (SH),FM-15,7,,,,,,,,,,,,,,,,,,,,,,,,,,,03-04-2007 00:00
72278023183,27-08-2024 14:00,FM-12,4,,N,0.5,mi,"TEMP, PRECIP",1107,,"MXMN, SRG",33.4442,-112.0247,CONTRACTOR,,,,,,,,,,,,,,,,,,,,,,,,,,,,,49,103,,,0.06,8,16,29.82,74,28.72,9.94,69,160,,7,,,,,,,,,,,,,,,,,,,,,,,,,,,,,,,,,,,,,SYN06472278 32866 61606 10394 20094 39725 40098 58020 92051 555 92721=,FM-12,4,,,,,,,,,,,,,,,,,,,,,,,,,,,03-04-2007 00:00
72278023183,27-08-2024 14:51,FM-15,7,,N,0.5,mi,"TEMP, PRECIP",1107,,"MXMN, SRG",33.4442,-112.0247,CONTRACTOR,,,,,,,,,,,,,,,,,,,,,,,,,,,,29.86,44,106,0,,,,12,29.79,FEW:02 80 SCT:04 120 BKN:07 180,28.69,10,68,VRB,,3,,,,,,,,,,,,,,,,,,,,,,,,,,,,,,,,,,,,,MET13408/27/24 14:51:02 METAR KPHX 272151Z VRB03KT 10SM FEW080 SCT120 BKN180 41/07 A2986 RMK AO2 SLP088 VIRGA NW CB DSNT NE-E T04110067 (JH),FM-15,7,,,,,,,,,,,,,,,,,,,,,,,,,,,03-04-2007 00:00
72278023183,27-08-2024 15:51,FM-15,7,,N,0.5,mi,"TEMP, PRECIP",1107,,"MXMN, SRG",33.4442,-112.0247,CONTRACTOR,,,,,,,,,,,,,,,,,,,,,,,,,,,,29.83,35,108,0,,,,8,29.76,FEW:02 80 FEW:02 120 SCT:04 180,28.66,10,66,260,,11,,,,,,,,,,,,,,,,,,,,,,,,,,,,,,,,,,,,,MET12508/27/24 15:51:02 METAR KPHX 272251Z 26010KT 10SM FEW080 FEW120 SCT180 42/02 A2983 RMK AO2 SLP078 CB DSNT NE-E T04220017 (JH),FM-15,7,,,,,,,,,,,,,,,,,,,,,,,,,,,03-04-2007 00:00
72278023183,27-08-2024 16:51,FM-15,7,,N,0.5,mi,"TEMP, PRECIP",1107,,"MXMN, SRG",33.4442,-112.0247,CONTRACTOR,,,,,,,,,,,,,,,,,,,,,,,,,,,,29.81,36,107,0,,0.07,6,9,29.74,FEW:02 80 SCT:04 120 BKN:07 180,28.64,10,66,250,,9,,,,,,,,,,,,,,,,,,,,,,,,,,,,,,,,,,,,,MET14108/27/24 16:51:02 METAR KPHX 272351Z 25008KT 10SM FEW080 SCT120 BKN180 42/02 A2981 RMK AO2 SLP072 CB DSNT NE T04170022 10422 20372 56025 (JH),FM-15,7,,,,,,,,,,,,,,,,,,,,,,,,,,,03-04-2007 00:00
72278023183,27-08-2024 17:00,FM-12,4,,N,0.5,mi,"TEMP, PRECIP",1107,,"MXMN, SRG",33.4442,-112.0247,CONTRACTOR,,,,,,,,,,,,,,,,,,,,,,,,,,,,,36,107,,,0.07,6,9,29.74,74,28.64,9.94,66,250,,9,,,,,,,,,,,,,,,,,,,,,,,,,,,,,,,,,,,,,SYN08072278 32866 62508 10417 20022 39698 40072 56025 92351 333 10422 20306 555 92800=,FM-12,4,,,,,,,,,,,,,,,,,,,,,,,,,,,03-04-2007 00:00
72278023183,27-08-2024 17:51,FM-15,7,,N,0.5,mi,"TEMP, PRECIP",1107,,"MXMN, SRG",33.4442,-112.0247,CONTRACTOR,,,,,,,,,,,,,,,,,,,,,,,,,,,,29.81,39,105,0,,,,10,29.74,FEW:02 90 SCT:04 120 BKN:07 150,28.64,10,66,240,,7,,,,,,,,,,,,,,,,,,,,,,,,,,,,,,,,,,,,,MET13008/27/24 17:51:01 METAR KPHX 280051Z 24006KT 10SM FEW090 SCT120 BKN150 41/04 A2981 RMK AO2 SLP070 VIRGA CB DSNT NE AND E T04060039,FM-15,7,,,,,,,,,,,,,,,,,,,,,,,,,,,03-04-2007 00:00
72278023183,27-08-2024 18:51,FM-15,7,,N,0.5,mi,"TEMP, PRECIP",1107,,"MXMN, SRG",33.4442,-112.0247,CONTRACTOR,,,,,,,,,,,,,,,,,,,,,,,,,,,,29.8,38,103,0,,,,11,29.73,FEW:02 90 SCT:04 120 SCT:04 150,28.63,10,66,250,,7,,,,,,,,,,,,,,,,,,,,,,,,,,,,,,,,,,,,,MET11708/27/24 18:51:01 METAR KPHX 280151Z 25006KT 10SM FEW090 SCT120 SCT150 39/03 A2980 RMK AO2 SLP069 CB DSNT E T03940033,FM-15,7,,,,,,,,,,,,,,,,,,,,,,,,,,,03-04-2007 00:00
72278023183,27-08-2024 19:51,FM-15,7,,N,0.5,mi,"TEMP, PRECIP",1107,,"MXMN, SRG",33.4442,-112.0247,CONTRACTOR,,,,,,,,,,,,,,,,,,,,,,,,,,,,29.81,38,102,0,,0,3,11,29.74,FEW:02 100 SCT:04 120 BKN:07 150,28.64,10,65,220,,3,,,,,,,,,,,,,,,,,,,,,,,,,,,,,,,,,,,,,MET11308/27/24 19:51:01 METAR KPHX 280251Z 22003KT 10SM FEW100 SCT120 BKN150 39/03 A2981 RMK AO2 SLP072 T03890033 53001,FM-15,7,,,,,,,,,,,,,,,,,,,,,,,,,,,03-04-2007 00:00
72278023183,27-08-2024 20:00,FM-12,4,,N,0.5,mi,"TEMP, PRECIP",1107,,"MXMN, SRG",33.4442,-112.0247,CONTRACTOR,,,,,,,,,,,,,,,,,,,,,,,,,,,,,38,102,,,0,3,11,29.74,,28.64,9.94,65,220,,3,,,,,,,,,,,,,,,,,,,,,,,,,,,,,,,,,,,,,SYN06472278 32966 62203 10389 20033 39698 40072 53001 90251 555 92803=,FM-12,4,,,,,,,,,,,,,,,,,,,,,,,,,,,03-04-2007 00:00
72278023183,27-08-2024 20:51,FM-15,7,,N,0.5,mi,"TEMP, PRECIP",1107,,"MXMN, SRG",33.4442,-112.0247,CONTRACTOR,,,,,,,,,,,,,,,,,,,,,,,,,,,,29.83,41,101,0,,,,13,29.76,SCT:04 120 BKN:07 150 BKN:07 190,28.66,10,66,130,,3,,,,,,,,,,,,,,,,,,,,,,,,,,,,,,,,,,,,,MET10708/27/24 20:51:01 METAR KPHX 280351Z 13003KT 10SM SCT120 BKN150 BKN190 38/05 A2983 RMK AO2 SLP078 T03830050,FM-15,7,,,,,,,,,,,,,,,,,,,,,,,,,,,03-04-2007 00:00
72278023183,27-08-2024 21:51,FM-15,7,,N,0.5,mi,"TEMP, PRECIP",1107,,"MXMN, SRG",33.4442,-112.0247,CONTRACTOR,,,,,,,,,,,,,,,,,,,,,,,,,,,,29.83,44,99,0,,,,15,29.77,FEW:02 110 BKN:07 150 BKN:07 190,28.66,10,66,110,,3,,,,,,,,,,,,,,,,,,,,,,,,,,,,,,,,,,,,,MET10708/27/24 21:51:01 METAR KPHX 280451Z 11003KT 10SM FEW110 BKN150 BKN190 37/07 A2983 RMK AO2 SLP080 T03720067,FM-15,7,,,,,,,,,,,,,,,,,,,,,,,,,,,03-04-2007 00:00
72278023183,27-08-2024 22:51,FM-15,7,,N,0.5,mi,"TEMP, PRECIP",1107,,"MXMN, SRG",33.4442,-112.0247,CONTRACTOR,,,,,,,,,,,,,,,,,,,,,,,,,,,,29.83,46,97,0,,-0.02,1,17,29.77,FEW:02 110 BKN:07 150 BKN:07 170,28.66,10,66,100,,7,,,,,,,,,,,,,,,,,,,,,,,,,,,,,,,,,,,,,MET12508/27/24 22:51:01 METAR KPHX 280551Z 10006KT 10SM FEW110 BKN150 BKN170 36/08 A2983 RMK AO2 SLP080 T03610078 10417 20361 51007,FM-15,7,,,,,,,,,,,,,,,,,,,,,,,,,,,03-04-2007 00:00
72278023183,27-08-2024 23:00,FM-12,4,,N,0.5,mi,"TEMP, PRECIP",1107,,"MXMN, SRG",33.4442,-112.0247,CONTRACTOR,,,,,,,,,,,,,,,,,,,,,,,,,,,,,46,97,,,-0.02,1,17,29.77,,28.66,9.94,66,100,,7,,,,,,,,,,,,,,,,,,,,,,,,,,,,,,,,,,,,,SYN08072278 32966 61006 10361 20078 39705 40080 51007 90551 333 10417 20306 555 92806=,FM-12,4,,,,,,,,,,,,,,,,,,,,,,,,,,,03-04-2007 00:00
72278023183,27-08-2024 23:51,FM-15,7,,N,0.5,mi,"TEMP, PRECIP",1107,,"MXMN, SRG",33.4442,-112.0247,CONTRACTOR,,,,,,,,,,,,,,,,,,,,,,,,,,,,29.85,43,98,0,VCTS:7 ||,,,15,29.78,BKN:07 150 BKN:07 170,28.68,10,66,150,22,15,,,,,,,,,,,,,,,,,,,,,,,,,,,,,,,,,,,,,MET16708/27/24 23:51:01 METAR KPHX 280651Z 15013G19KT 10SM VCTS BKN150 BKN170 37/06 A2985 RMK AO2 TSE50 SLP084 FRQ LTGCGIC DSNT SE AND S CB DSNT SE AND S T03670061 404220294,FM-15,7,,,,,,,,,,,,,,,,,,,,,,,,,,,03-04-2007 00:00
72278023183,27-08-2024 23:59,SOD  ,6,,N,0.5,mi,"TEMP, PRECIP",1107,,"MXMN, SRG",33.4442,-112.0247,CONTRACTOR,,,,,,44,97,17,29.81,28.69,65,5.9,32,4.1,0,108,85,150,25,0,,,160,17,TS,,,,,,,,,,,,,,,,,,,,,,,,,,,,,,,,,,,,,,,,,,,,,,,,,,,,,,,SOD75624 HR PRECIPITATION (IN): 0.00 SNOW DEPTH (IN):0     24 HR SNOWFALL (IN):0.0  WEATHER(CODE):3  24 HR MAX TEMP (F):10824 HR MIN TEMP (F): 85AVERAGE STATION PRESSURE:28.690 MINIMUM SEA LEVEL PRESSURE:29.73 TIME OF OCCURRENCE:1913 PEAK WIND SPEED (MPH): 25 PEAK WIND DIR (DEG):150 PEAK WIND TIME (LST):      FASTEST 2MIN SPEED (MPH): 17FASTEST 2MIN DIR (DEG):160 FASTEST 2MIN TIME (LST):     AVERAGE WIND SPEED (MPH): 5.9 24 HR AVG TEMP (F): 97DEPART FROM NORMAL:  3  HEATING DEGREE DAYS:  0 COOLING DEGREE DAYS: 32 LATEST DAY MAX TEMP (0700-1900 LST):108 LATEST NIGHT MIN TEMP(1900-0800 LST):85 HOURLY INCREMENTAL PRECIPITATION VALUES (IN):.00 0.00 0.00 0.00 0.00 0.00 0.00 0.00 0.00 0.00 0.00 0.00 0.00 0.00 0.00 0.00 0.00 0.00 0.00 0.00 0.00 0.00 0.00 0.00,SOD  ,6,,,,,,,,,,,,,,,,,,,,,,,,,559,1859,03-04-2007 00:00
72278023183,28-08-2024 00:11,FM-16,7,,N,0.5,mi,"TEMP, PRECIP",1107,,"MXMN, SRG",33.4442,-112.0247,CONTRACTOR,,,,,,,,,,,,,,,,,,,,,,,,,,,,29.85,46,98,T,-RA:02 |RA |RA,,,17,,BKN:07 150 OVC:08 170,28.68,10,67,170,36,24,,,,,,,,,,,,,,,,,,,,,,,,,,,,,,,,,,,,,MET17908/28/24 00:11:02 SPECI KPHX 280711Z 17021G31KT 10SM -RA BKN150 OVC170 37/08 A2985 RMK AO2 PK WND 18031/0708 RAB09 FRQ LTGCGIC DSNT SE AND S CB DSNT SE AND S P0000 T03670078 (GEH),FM-16,7,,,,,,,,,,,,,,,,,,,,,,,,,,,03-04-2007 00:00
72278023183,28-08-2024 00:42,FM-16,7,,N,0.5,mi,"TEMP, PRECIP",1107,,"MXMN, SRG",33.4442,-112.0247,CONTRACTOR,,,,,,,,,,,,,,,,,,,,,,,,,,,,29.86,51,95,T,|RA |RA,,,23,,SCT:04 85 BKN:07 110 BKN:07 130,28.69,10,68,210,40,29,,,,,,,,,,,,,,,,,,,,,,,,,,,,,,,,,,,,,MET15408/28/24 00:42:02 SPECI KPHX 280742Z 21025G35KT 10SM -RA SCT085 BKN110 BKN130 35/11 A2986 RMK AO2 PK WND 14042/0721 WSHFT 0722 RAB09 P0000 T03500106 (GEH),FM-16,7,,,,,,,,,,,,,,,,,,,,,,,,,,,03-04-2007 00:00
72278023183,28-08-2024 00:51,FM-15,7,,N,0.5,mi,"TEMP, PRECIP",1107,,"MXMN, SRG",33.4442,-112.0247,CONTRACTOR,,,,,,,,,,,,,,,,,,,,,,,,,,,,29.86,48,96,T,,,,19,29.79,SCT:04 85 BKN:07 110 BKN:07 130,28.69,10,67,210,41,34,,,,,,,,,,,,,,,,,,,,,,,,,,,,,,,,,,,,,MET16208/28/24 00:51:02 METAR KPHX 280751Z 21030G36KT 10SM SCT085 BKN110 BKN130 36/09 A2986 RMK AO2 PK WND 14042/0721 WSHFT 0722 RAB09E46 SLP088 P0000 T03560089 $ (GEH),FM-15,7,,,,,,,,,,,,,,,,,,,,,,,,,,,03-04-2007 00:00
72278023183,28-08-2024 01:51,FM-15,7,,N,0.5,mi,"TEMP, PRECIP",1107,,"MXMN, SRG",33.4442,-112.0247,CONTRACTOR,,,,,,,,,,,,,,,,,,,,,,,,,,,,29.86,48,95,T,,-0.03,1,20,29.79,SCT:04 110 BKN:07 140 BKN:07 170,28.69,10,66,210,,5,,,,,,,,,,,,,,,,,,,,,,,,,,,,,,,,,,,,,MET16208/28/24 01:51:02 METAR KPHX 280851Z 21004KT 10SM SCT110 BKN140 BKN170 35/09 A2986 RMK AO2 PK WND 25036/0753 RAB0755E04 SLP088 P0000 60000 T03500089 51009 $ (GEH),FM-15,7,,,,,,,,,,,,,,,,,,,,,,,,,,,03-04-2007 00:00
72278023183,28-08-2024 02:00,FM-12,4,,N,0.5,mi,"TEMP, PRECIP",1107,,"MXMN, SRG",33.4442,-112.0247,CONTRACTOR,,,,,,,,,,,,,,,,,,,,,,,,,,,,,48,95,,,-0.03,1,20,29.79,,28.69,9.94,66,210,,5,,,,,,,,,,,,,,,,,,,,,,,,,,,,,,,,,,,,,SYN07072278 12966 62104 10350 20089 39715 40088 51009 69907 90851 555 92809=,FM-12,4,,,,,,,,,,,,,,,,,,,,,,,,,,,03-04-2007 00:00
72278023183,28-08-2024 02:51,FM-15,7,,N,0.5,mi,"TEMP, PRECIP",1107,,"MXMN, SRG",33.4442,-112.0247,CONTRACTOR,,,,,,,,,,,,,,,,,,,,,,,,,,,,29.87,54,94,0,,,,26,29.8,FEW:02 65 SCT:04 100 BKN:07 140,28.69,10,69,130,24,16,,,,,,,,,,,,,,,,,,,,,,,,,,,,,,,,,,,,,MET11808/28/24 02:51:02 METAR KPHX 280951Z 13014G21KT 10SM FEW065 SCT100 BKN140 34/12 A2987 RMK AO2 SLP092 T03440122 $ (GEH),FM-15,7,,,,,,,,,,,,,,,,,,,,,,,,,,,03-04-2007 00:00
72278023183,28-08-2024 03:51,FM-15,7,,N,0.5,mi,"TEMP, PRECIP",1107,,"MXMN, SRG",33.4442,-112.0247,CONTRACTOR,,,,,,,,,,,,,,,,,,,,,,,,,,,,29.87,56,92,0,,,,30,29.8,SCT:04 100 BKN:07 140 BKN:07 160,28.69,10,69,140,23,14,,,,,,,,,,,,,,,,,,,,,,,,,,,,,,,,,,,,,MET13608/28/24 03:51:02 METAR KPHX 281051Z 14012G20KT 10SM SCT100 BKN140 BKN160 33/13 A2987 RMK AO2 PK WND 13026/1041 SLP090 T03330133 $ (GEH),FM-15,7,,,,,,,,,,,,,,,,,,,,,,,,,,,03-04-2007 00:00
72278023183,28-08-2024 04:51,FM-15,7,,N,0.5,mi,"TEMP, PRECIP",1107,,"MXMN, SRG",33.4442,-112.0247,CONTRACTOR,,,,,,,,,,,,,,,,,,,,,,,,,,,,29.88,56,91,0,,-0.01,1,31,29.81,SCT:04 140 BKN:07 160 BKN:07 180,28.7,10,69,120,,8,,,,,,,,,,,,,,,,,,,,,,,,,,,,,,,,,,,,,MET13908/28/24 04:51:02 METAR KPHX 281151Z 12007KT 10SM SCT140 BKN160 BKN180 33/13 A2988 RMK AO2 SLP094 60000 T03280133 10372 20328 51005 $ (GEH),FM-15,7,,,,,,,,,,,,,,,,,,,,,,,,,,,03-04-2007 00:00
72278023183,28-08-2024 05:00,FM-12,4,,N,0.5,mi,"TEMP, PRECIP",1107,,"MXMN, SRG",33.4442,-112.0247,CONTRACTOR,,,,,,,,,,,,,,,,,,,,,,,,,,,,,56,91,,,-0.01,1,31,29.81,,28.71,9.94,69,120,,8,,,,,,,,,,,,,,,,,,,,,,,,,,,,,,,,,,,,,SYN08672278 12966 61207 10328 20133 39721 40094 51005 69901 91151 333 10422 20328 555 92812=,FM-12,4,,,,,,,,,,,,,,,,,,,,,,,,,,,03-04-2007 00:00
72278023183,28-08-2024 05:51,FM-15,7,,N,0.5,mi,"TEMP, PRECIP",1107,,"MXMN, SRG",33.4442,-112.0247,CONTRACTOR,,,,,,,,,,,,,,,,,,,,,,,,,,,,29.9,57,90,0,,,,33,29.83,FEW:02 100 BKN:07 140 BKN:07 160,28.72,10,69,100,,10,,,,,,,,,,,,,,,,,,,,,,,,,,,,,,,,,,,,,MET11508/28/24 05:51:02 METAR KPHX 281251Z 10009KT 10SM FEW100 BKN140 BKN160 32/14 A2990 RMK AO2 SLP102 T03220139 $ (GEH),FM-15,7,,,,,,,,,,,,,,,,,,,,,,,,,,,03-04-2007 00:00
72278023183,28-08-2024 06:51,FM-15,7,,N,0.5,mi,"TEMP, PRECIP",1107,,"MXMN, SRG",33.4442,-112.0247,CONTRACTOR,,,,,,,,,,,,,,,,,,,,,,,,,,,,29.91,56,89,0,,,,33,29.85,SCT:04 120 BKN:07 150 BKN:07 170,28.73,10,68,120,,8,,,,,,,,,,,,,,,,,,,,,,,,,,,,,,,,,,,,,MET11208/28/24 06:51:02 METAR KPHX 281351Z 12007KT 10SM SCT120 BKN150 BKN170 32/13 A2991 RMK AO2 SLP108 T03170133 (SH),FM-15,7,,,,,,,,,,,,,,,,,,,,,,,,,,,03-04-2007 00:00
72278023183,28-08-2024 07:51,FM-15,7,,N,0.5,mi,"TEMP, PRECIP",1107,,"MXMN, SRG",33.4442,-112.0247,CONTRACTOR,,,,,,,,,,,,,,,,,,,,,,,,,,,,29.92,55,91,0,,-0.04,1,30,29.85,FEW:02 75 FEW:02 90 BKN:07 110,28.74,10,68,120,,11,,,,,,,,,,,,,,,,,,,,,,,,,,,,,,,,,,,,,MET13508/28/24 07:51:02 METAR KPHX 281451Z 12010KT 10SM FEW075 FEW090 BKN110 33/13 A2992 RMK AO2 SLP110 VIRGA S AND W-NW T03280128 51015 (SH),FM-15,7,,,,,,,,,,,,,,,,,,,,,,,,,,,03-04-2007 00:00
72278023183,28-08-2024 08:00,FM-12,4,,N,0.5,mi,"TEMP, PRECIP",1107,,"MXMN, SRG",33.4442,-112.0247,CONTRACTOR,,,,,,,,,,,,,,,,,,,,,,,,,,,,,55,91,,,-0.04,1,30,29.85,74,28.74,9.94,68,120,,11,,,,,,,,,,,,,,,,,,,,,,,,,,,,,,,,,,,,,SYN06472278 32866 61210 10328 20128 39734 40110 51015 91451 555 92815=,FM-12,4,,,,,,,,,,,,,,,,,,,,,,,,,,,03-04-2007 00:00
72278023183,28-08-2024 08:51,FM-15,7,,N,0.5,mi,"TEMP, PRECIP",1107,,"MXMN, SRG",33.4442,-112.0247,CONTRACTOR,,,,,,,,,,,,,,,,,,,,,,,,,,,,29.93,54,92,T,,,,28,29.86,SCT:04 65 BKN:07 110 BKN:07 140,28.75,10,68,140,23,17,,,,,,,,,,,,,,,,,,,,,,,,,,,,,,,,,,,,,MET14908/28/24 08:51:02 METAR KPHX 281551Z 14015G20KT 10SM SCT065 BKN110 BKN140 33/12 A2993 RMK AO2 RAB18E27 SLP113 VIRGA SE-S AND W-N P0000 T03330122 (SH),FM-15,7,,,,,,,,,,,,,,,,,,,,,,,,,,,03-04-2007 00:00
72278023183,28-08-2024 09:51,FM-15,7,,N,0.5,mi,"TEMP, PRECIP",1107,,"MXMN, SRG",33.4442,-112.0247,CONTRACTOR,,,,,,,,,,,,,,,,,,,,,,,,,,,,29.94,54,94,0,,,,26,29.87,FEW:02 100 SCT:04 120 BKN:07 140,28.76,10,69,120,23,17,,,,,,,,,,,,,,,,,,,,,,,,,,,,,,,,,,,,,MET12708/28/24 09:51:02 METAR KPHX 281651Z 12015G20KT 10SM FEW100 SCT120 BKN140 34/12 A2994 RMK AO2 SLP116 VIRGA ALQDS T03440122 (SH),FM-15,7,,,,,,,,,,,,,,,,,,,,,,,,,,,03-04-2007 00:00
72278023183,28-08-2024 10:51,FM-15,7,,N,0.5,mi,"TEMP, PRECIP",1107,,"MXMN, SRG",33.4442,-112.0247,CONTRACTOR,,,,,,,,,,,,,,,,,,,,,,,,,,,,29.94,54,94,0,,-0.02,1,26,29.88,FEW:02 100 BKN:07 130 BKN:07 170,28.76,10,69,160,,14,,,,,,,,,,,,,,,,,,,,,,,,,,,,,,,,,,,,,MET14908/28/24 10:51:02 METAR KPHX 281751Z 16012KT 10SM FEW100 BKN130 BKN170 34/12 A2994 RMK AO2 SLP117 SHRA DSNT SE 60000 T03440122 10350 20317 51006 (SH),FM-15,7,,,,,,,,,,,,,,,,,,,,,,,,,,,03-04-2007 00:00
72278023183,28-08-2024 11:00,FM-12,4,,N,0.5,mi,"TEMP, PRECIP",1107,,"MXMN, SRG",33.4442,-112.0247,CONTRACTOR,,,,,,,,,,,,,,,,,,,,,,,,,,,,,54,94,,,-0.02,1,26,29.88,,28.77,9.94,69,160,,14,,,,,,,,,,,,,,,,,,,,,,,,,,,,,,,,,,,,,SYN08672278 12966 61612 10344 20122 39741 40117 51006 69901 91751 333 10372 20317 555 92818=,FM-12,4,,,,,,,,,,,,,,,,,,,,,,,,,,,03-04-2007 00:00
72278023183,28-08-2024 11:51,FM-15,7,,N,0.5,mi,"TEMP, PRECIP",1107,,"MXMN, SRG",33.4442,-112.0247,CONTRACTOR,,,,,,,,,,,,,,,,,,,,,,,,,,,,29.93,54,96,0,,,,24,29.87,FEW:02 80 SCT:04 120 BKN:07 150,28.75,10,69,130,,7,,,,,,,,,,,,,,,,,,,,,,,,,,,,,,,,,,,,,MET11208/28/24 11:51:02 METAR KPHX 281851Z 13006KT 10SM FEW080 SCT120 BKN150 36/12 A2993 RMK AO2 SLP114 T03560122 (SH),FM-15,7,,,,,,,,,,,,,,,,,,,,,,,,,,,03-04-2007 00:00
72278023183,28-08-2024 12:51,FM-15,7,,N,0.5,mi,"TEMP, PRECIP",1107,,"MXMN, SRG",33.4442,-112.0247,CONTRACTOR,,,,,,,,,,,,,,,,,,,,,,,,,,,,29.91,55,101,0,,,,22,29.84,FEW:02 80 SCT:04 110 SCT:04 180,28.73,10,71,120,29,13,,,,,,,,,,,,,,,,,,,,,,,,,,,,,,,,,,,,,MET11508/28/24 12:51:02 METAR KPHX 281951Z 12011G25KT 10SM FEW080 SCT110 SCT180 38/13 A2991 RMK AO2 SLP106 T03830128 (SH),FM-15,7,,,,,,,,,,,,,,,,,,,,,,,,,,,03-04-2007 00:00
72278023183,28-08-2024 13:51,FM-15,7,,N,0.5,mi,"TEMP, PRECIP",1107,,"MXMN, SRG",33.4442,-112.0247,CONTRACTOR,,,,,,,,,,,,,,,,,,,,,,,,,,,,29.89,54,101,0,,0.05,8,21,29.82,FEW:02 80 FEW:02 110 SCT:04 160,28.71,10,71,130,17,7,,,,,,,,,,,,,,,,,,,,,,,,,,,,,,,,,,,,,MET15108/28/24 13:51:02 METAR KPHX 282051Z 13006G15KT 10SM FEW080 FEW110 SCT160 38/12 A2989 RMK AO2 SLP099 CB DSNT NE AND NW TCU DSNT NW T03830122 58017 (SH),FM-15,7,,,,,,,,,,,,,,,,,,,,,,,,,,,03-04-2007 00:00
72278023183,28-08-2024 14:00,FM-12,4,,N,0.5,mi,"TEMP, PRECIP",1107,,"MXMN, SRG",33.4442,-112.0247,CONTRACTOR,,,,,,,,,,,,,,,,,,,,,,,,,,,,,54,101,,,0.05,8,21,29.82,74,28.72,9.94,71,130,,7,,,,,,,,,,,,,,,,,,,,,,,,,,,,,,,,,,,,,SYN07472278 32866 61306 10383 20122 39725 40099 58017 92051 333 91015 555 92821=,FM-12,4,,,,,,,,,,,,,,,,,,,,,,,,,,,03-04-2007 00:00
72278023183,28-08-2024 14:51,FM-15,7,,N,0.5,mi,"TEMP, PRECIP",1107,,"MXMN, SRG",33.4442,-112.0247,CONTRACTOR,,,,,,,,,,,,,,,,,,,,,,,,,,,,29.86,52,102,0,,,,19,29.79,FEW:02 80 SCT:04 110 SCT:04 160,28.69,10,70,160,20,9,,,,,,,,,,,,,,,,,,,,,,,,,,,,,,,,,,,,,MET13308/28/24 14:51:02 METAR KPHX 282151Z 16008G17KT 10SM FEW080 SCT110 SCT160 39/11 A2986 RMK AO2 SLP088 CB DSNT NE ACSL S T03890111 (JH),FM-15,7,,,,,,,,,,,,,,,,,,,,,,,,,,,03-04-2007 00:00
72278023183,28-08-2024 15:51,FM-15,7,,N,0.5,mi,"TEMP, PRECIP",1107,,"MXMN, SRG",33.4442,-112.0247,CONTRACTOR,,,,,,,,,,,,,,,,,,,,,,,,,,,,29.83,49,104,0,,,,16,29.77,FEW:02 100 FEW:02 160 FEW:02 180,28.66,10,70,VRB,18,10,,,,,,,,,,,,,,,,,,,,,,,,,,,,,,,,,,,,,MET14408/28/24 15:51:02 METAR KPHX 282251Z 13009G16KT 10SM FEW100 FEW160 FEW180 40/09 A2983 RMK AO2 SLP080 VIRGA NE CB DSNT NE ACSL S T04000094 $ (JH),FM-15,7,,,,,,,,,,,,,,,,,,,,,,,,,,,03-04-2007 00:00
72278023183,28-08-2024 16:51,FM-15,7,,N,0.5,mi,"TEMP, PRECIP",1107,,"MXMN, SRG",33.4442,-112.0247,CONTRACTOR,,,,,,,,,,,,,,,,,,,,,,,,,,,,29.82,48,102,0,,0.06,6,16,29.75,FEW:02 100 SCT:04 160 SCT:04 180,28.65,10,69,170,,8,,,,,,,,,,,,,,,,,,,,,,,,,,,,,,,,,,,,,MET14308/28/24 16:51:02 METAR KPHX 282351Z 17007KT 10SM FEW100 SCT160 SCT180 39/09 A2982 RMK AO2 SLP075 CB DSNT NE T03890089 10406 20344 56022 $ (JH),FM-15,7,,,,,,,,,,,,,,,,,,,,,,,,,,,03-04-2007 00:00
72278023183,28-08-2024 17:00,FM-12,4,,N,0.5,mi,"TEMP, PRECIP",1107,,"MXMN, SRG",33.4442,-112.0247,CONTRACTOR,,,,,,,,,,,,,,,,,,,,,,,,,,,,,48,102,,,0.06,6,16,29.75,,28.65,9.94,69,170,,8,,,,,,,,,,,,,,,,,,,,,,,,,,,,,,,,,,,,,SYN08072278 32966 41707 10389 20089 39702 40075 56022 92351 333 10406 20328 555 92900=,FM-12,4,,,,,,,,,,,,,,,,,,,,,,,,,,,03-04-2007 00:00
72278023183,28-08-2024 17:51,FM-15,7,,N,0.5,mi,"TEMP, PRECIP",1107,,"MXMN, SRG",33.4442,-112.0247,CONTRACTOR,,,,,,,,,,,,,,,,,,,,,,,,,,,,29.83,47,101,0,,,,16,29.76,FEW:02 100 BKN:07 160 BKN:07 190,28.66,10,68,130,,7,,,,,,,,,,,,,,,,,,,,,,,,,,,,,,,,,,,,,MET12008/28/24 17:51:01 METAR KPHX 290051Z 13006KT 10SM FEW100 BKN160 BKN190 38/08 A2983 RMK AO2 SLP078 CB DSNT NE T03830083 $,FM-15,7,,,,,,,,,,,,,,,,,,,,,,,,,,,03-04-2007 00:00
72278023183,28-08-2024 18:51,FM-15,7,,N,0.5,mi,"TEMP, PRECIP",1107,,"MXMN, SRG",33.4442,-112.0247,CONTRACTOR,,,,,,,,,,,,,,,,,,,,,,,,,,,,29.84,49,97,0,,,,20,29.78,FEW:02 100 SCT:04 160 SCT:04 190,28.66,10,67,70,,18,,,,,,,,,,,,,,,,,,,,,,,,,,,,,,,,,,,,,MET13608/28/24 18:51:01 METAR KPHX 290151Z 07016KT 10SM FEW100 SCT160 SCT190 36/09 A2984 RMK AO2 PK WND 08026/0124 SLP084 VIRGA NE T03610094 $,FM-15,7,,,,,,,,,,,,,,,,,,,,,,,,,,,03-04-2007 00:00
72278023183,28-08-2024 19:51,FM-15,7,,N,0.5,mi,"TEMP, PRECIP",1107,,"MXMN, SRG",33.4442,-112.0247,CONTRACTOR,,,,,,,,,,,,,,,,,,,,,,,,,,,,29.85,52,94,0,,-0.03,1,24,29.78,FEW:02 110 FEW:02 160 FEW:02 190,28.68,10,68,90,,14,,,,,,,,,,,,,,,,,,,,,,,,,,,,,,,,,,,,,MET11508/28/24 19:51:01 METAR KPHX 290251Z 09012KT 10SM FEW110 FEW160 FEW190 34/11 A2985 RMK AO2 SLP086 T03440111 51009 $,FM-15,7,,,,,,,,,,,,,,,,,,,,,,,,,,,03-04-2007 00:00
72278023183,28-08-2024 20:00,FM-12,4,,N,0.5,mi,"TEMP, PRECIP",1107,,"MXMN, SRG",33.4442,-112.0247,CONTRACTOR,,,,,,,,,,,,,,,,,,,,,,,,,,,,,52,94,,,-0.03,1,24,29.78,,28.68,9.94,68,90,,14,,,,,,,,,,,,,,,,,,,,,,,,,,,,,,,,,,,,,SYN06472278 32966 20912 10344 20111 39712 40086 51009 90251 555 92903=,FM-12,4,,,,,,,,,,,,,,,,,,,,,,,,,,,03-04-2007 00:00
72278023183,28-08-2024 20:51,FM-15,7,,N,0.5,mi,"TEMP, PRECIP",1107,,"MXMN, SRG",33.4442,-112.0247,CONTRACTOR,,,,,,,,,,,,,,,,,,,,,,,,,,,,29.86,50,93,0,,,,23,29.79,FEW:02 110 FEW:02 160 SCT:04 250,28.69,10,67,130,,7,,,,,,,,,,,,,,,,,,,,,,,,,,,,,,,,,,,,,MET10908/28/24 20:51:01 METAR KPHX 290351Z 13006KT 10SM FEW110 FEW160 SCT250 34/10 A2986 RMK AO2 SLP089 T03390100 $,FM-15,7,,,,,,,,,,,,,,,,,,,,,,,,,,,03-04-2007 00:00
72278023183,28-08-2024 21:51,FM-15,7,,N,0.5,mi,"TEMP, PRECIP",1107,,"MXMN, SRG",33.4442,-112.0247,CONTRACTOR,,,,,,,,,,,,,,,,,,,,,,,,,,,,29.86,50,92,0,,,,24,29.8,FEW:02 110 FEW:02 160 SCT:04 250,28.69,10,66,90,,7,,,,,,,,,,,,,,,,,,,,,,,,,,,,,,,,,,,,,MET10908/28/24 21:51:01 METAR KPHX 290451Z 09006KT 10SM FEW110 FEW160 SCT250 33/10 A2986 RMK AO2 SLP091 T03330100 $,FM-15,7,,,,,,,,,,,,,,,,,,,,,,,,,,,03-04-2007 00:00
72278023183,28-08-2024 22:51,FM-15,7,,N,0.5,mi,"TEMP, PRECIP",1107,,"MXMN, SRG",33.4442,-112.0247,CONTRACTOR,,,,,,,,,,,,,,,,,,,,,,,,,,,,29.87,51,91,0,,-0.02,1,26,29.8,FEW:02 110 BKN:07 160 BKN:07 250,28.69,10,66,110,,7,,,,,,,,,,,,,,,,,,,,,,,,,,,,,,,,,,,,,MET12708/28/24 22:51:01 METAR KPHX 290551Z 11006KT 10SM FEW110 BKN160 BKN250 33/11 A2987 RMK AO2 SLP092 T03280106 10394 20328 51006 $,FM-15,7,,,,,,,,,,,,,,,,,,,,,,,,,,,03-04-2007 00:00
72278023183,28-08-2024 23:00,FM-12,4,,N,0.5,mi,"TEMP, PRECIP",1107,,"MXMN, SRG",33.4442,-112.0247,CONTRACTOR,,,,,,,,,,,,,,,,,,,,,,,,,,,,,51,91,,,-0.02,1,26,29.8,,28.7,9.94,66,110,,7,,,,,,,,,,,,,,,,,,,,,,,,,,,,,,,,,,,,,SYN08072278 32966 61106 10328 20106 39718 40092 51006 90551 333 10394 20328 555 92906=,FM-12,4,,,,,,,,,,,,,,,,,,,,,,,,,,,03-04-2007 00:00
72278023183,28-08-2024 23:51,FM-15,7,,N,0.5,mi,"TEMP, PRECIP",1107,,"MXMN, SRG",33.4442,-112.0247,CONTRACTOR,,,,,,,,,,,,,,,,,,,,,,,,,,,,29.87,53,89,0,,,,29,29.81,FEW:02 110 BKN:07 160 BKN:07 250,28.69,10,67,110,,5,,,,,,,,,,,,,,,,,,,,,,,,,,,,,,,,,,,,,MET11908/28/24 23:51:01 METAR KPHX 290651Z 11004KT 10SM FEW110 BKN160 BKN250 32/12 A2987 RMK AO2 SLP095 T03170117 404060317 $,FM-15,7,,,,,,,,,,,,,,,,,,,,,,,,,,,03-04-2007 00:00
72278023183,28-08-2024 23:59,SOD  ,6,,N,0.5,mi,"TEMP, PRECIP",1107,,"MXMN, SRG",33.4442,-112.0247,CONTRACTOR,,,,,,52,97,24,29.81,28.69,68,11.4,32,4.2,0,105,89,140,48,T,,,210,35,RA,,,,,,,,,,,,,,,,,,,,,,,,,,,,,,,,,,,,,,,,,,,,,,,,,,,,,,,SOD75624 HR PRECIPITATION (IN):    T SNOW DEPTH (IN):0     24 HR SNOWFALL (IN):0.0  WEATHER(CODE):3  24 HR MAX TEMP (F):10524 HR MIN TEMP (F): 89AVERAGE STATION PRESSURE:28.695 MINIMUM SEA LEVEL PRESSURE:29.75 TIME OF OCCURRENCE:1718 PEAK WIND SPEED (MPH): 48 PEAK WIND DIR (DEG):140 PEAK WIND TIME (LST):      FASTEST 2MIN SPEED (MPH): 35FASTEST 2MIN DIR (DEG):210 FASTEST 2MIN TIME (LST):     AVERAGE WIND SPEED (MPH):11.4 24 HR AVG TEMP (F): 97DEPART FROM NORMAL:  3  HEATING DEGREE DAYS:  0 COOLING DEGREE DAYS: 32 LATEST DAY MAX TEMP (0700-1900 LST):105 LATEST NIGHT MIN TEMP(1900-0800 LST):89 HOURLY INCREMENTAL PRECIPITATION VALUES (IN):    T    0.00 0.00 0.00 0.00 0.00 0.00 T    0.00 0.00 0.00 0.00 0.00 0.00 0.00 0.00 0.00 0.00 0.00 0.00 0.00 0.00 0.00,SOD  ,6,,,,,,,,,,,,,,,,,,,,,,,,,600,1857,03-04-2007 00:00
72278023183,29-08-2024 00:51,FM-15,7,,N,0.5,mi,"TEMP, PRECIP",1107,,"MXMN, SRG",33.4442,-112.0247,CONTRACTOR,,,,,,,,,,,,,,,,,,,,,,,,,,,,29.88,53,88,0,,,,30,29.81,FEW:02 110 SCT:04 160,28.7,10,66,90,,7,,,,,,,,,,,,,,,,,,,,,,,,,,,,,,,,,,,,,MET10808/29/24 00:51:02 METAR KPHX 290751Z 09006KT 10SM FEW110 SCT160 31/12 A2988 RMK AO2 SLP095 T03110117 $ (GEH),FM-15,7,,,,,,,,,,,,,,,,,,,,,,,,,,,03-04-2007 00:00
72278023183,29-08-2024 01:51,FM-15,7,,N,0.5,mi,"TEMP, PRECIP",1107,,"MXMN, SRG",33.4442,-112.0247,CONTRACTOR,,,,,,,,,,,,,,,,,,,,,,,,,,,,29.87,54,87,0,,0,0,32,29.8,SCT:04 110 SCT:04 150 SCT:04 180,28.69,10,67,100,,7,,,,,,,,,,,,,,,,,,,,,,,,,,,,,,,,,,,,,MET12108/29/24 01:51:02 METAR KPHX 290851Z 10006KT 10SM SCT110 SCT150 SCT180 31/12 A2987 RMK AO2 SLP093 T03060122 50001 $ (GEH),FM-15,7,,,,,,,,,,,,,,,,,,,,,,,,,,,03-04-2007 00:00
72278023183,29-08-2024 02:00,FM-12,4,,N,0.5,mi,"TEMP, PRECIP",1107,,"MXMN, SRG",33.4442,-112.0247,CONTRACTOR,,,,,,,,,,,,,,,,,,,,,,,,,,,,,54,87,,,0,9,32,29.8,,28.7,9.94,67,100,,7,,,,,,,,,,,,,,,,,,,,,,,,,,,,,,,,,,,,,SYN06472278 32966 41006 10306 20122 39718 40093 50001 90851 555 92909=,FM-12,4,,,,,,,,,,,,,,,,,,,,,,,,,,,03-04-2007 00:00
72278023183,29-08-2024 02:51,FM-15,7,,N,0.5,mi,"TEMP, PRECIP",1107,,"MXMN, SRG",33.4442,-112.0247,CONTRACTOR,,,,,,,,,,,,,,,,,,,,,,,,,,,,29.87,54,87,0,,,,32,29.8,SCT:04 130 BKN:07 160 BKN:07 180,28.69,10,67,80,,11,,,,,,,,,,,,,,,,,,,,,,,,,,,,,,,,,,,,,MET11508/29/24 02:51:02 METAR KPHX 290951Z 08010KT 10SM SCT130 BKN160 BKN180 31/12 A2987 RMK AO2 SLP092 T03060122 $ (GEH),FM-15,7,,,,,,,,,,,,,,,,,,,,,,,,,,,03-04-2007 00:00
72278023183,29-08-2024 03:51,FM-15,7,,N,0.5,mi,"TEMP, PRECIP",1107,,"MXMN, SRG",33.4442,-112.0247,CONTRACTOR,,,,,,,,,,,,,,,,,,,,,,,,,,,,29.88,54,86,0,,,,33,29.81,FEW:02 130 SCT:04 160 SCT:04 180,28.7,10,66,90,,7,,,,,,,,,,,,,,,,,,,,,,,,,,,,,,,,,,,,,MET11508/29/24 03:51:02 METAR KPHX 291051Z 09006KT 10SM FEW130 SCT160 SCT180 30/12 A2988 RMK AO2 SLP095 T03000122 $ (GEH),FM-15,7,,,,,,,,,,,,,,,,,,,,,,,,,,,03-04-2007 00:00
72278023183,29-08-2024 04:51,FM-15,7,,N,0.5,mi,"TEMP, PRECIP",1107,,"MXMN, SRG",33.4442,-112.0247,CONTRACTOR,,,,,,,,,,,,,,,,,,,,,,,,,,,,29.9,55,86,0,,-0.02,3,35,29.83,FEW:02 130 SCT:04 160 SCT:04 180,28.72,10,67,100,,6,,,,,,,,,,,,,,,,,,,,,,,,,,,,,,,,,,,,,MET13308/29/24 04:51:02 METAR KPHX 291151Z 10005KT 10SM FEW130 SCT160 SCT180 30/13 A2990 RMK AO2 SLP102 T03000128 10328 20294 53008 $ (GEH),FM-15,7,,,,,,,,,,,,,,,,,,,,,,,,,,,03-04-2007 00:00
72278023183,29-08-2024 05:00,FM-12,4,,N,0.5,mi,"TEMP, PRECIP",1107,,"MXMN, SRG",33.4442,-112.0247,CONTRACTOR,,,,,,,,,,,,,,,,,,,,,,,,,,,,,55,86,,,-0.02,3,35,29.83,,28.73,9.94,67,100,,6,,,,,,,,,,,,,,,,,,,,,,,,,,,,,,,,,,,,,SYN08072278 32966 41005 10300 20128 39728 40102 53008 91151 333 10406 20294 555 92912=,FM-12,4,,,,,,,,,,,,,,,,,,,,,,,,,,,03-04-2007 00:00
72278023183,29-08-2024 05:51,FM-15,7,,N,0.5,mi,"TEMP, PRECIP",1107,,"MXMN, SRG",33.4442,-112.0247,CONTRACTOR,,,,,,,,,,,,,,,,,,,,,,,,,,,,29.91,56,85,0,,,,37,29.84,FEW:02 130 FEW:02 160 SCT:04 200,28.73,10,67,110,,6,,,,,,,,,,,,,,,,,,,,,,,,,,,,,,,,,,,,,MET11508/29/24 05:51:02 METAR KPHX 291251Z 11005KT 10SM FEW130 FEW160 SCT200 29/13 A2991 RMK AO2 SLP106 T02940133 $ (GEH),FM-15,7,,,,,,,,,,,,,,,,,,,,,,,,,,,03-04-2007 00:00
72278023183,29-08-2024 06:51,FM-15,7,,N,0.5,mi,"TEMP, PRECIP",1107,,"MXMN, SRG",33.4442,-112.0247,CONTRACTOR,,,,,,,,,,,,,,,,,,,,,,,,,,,,29.93,56,86,0,,,,36,29.86,FEW:02 130 FEW:02 160 SCT:04 200,28.75,10,67,100,,6,,,,,,,,,,,,,,,,,,,,,,,,,,,,,,,,,,,,,MET11208/29/24 06:51:02 METAR KPHX 291351Z 10005KT 10SM FEW130 FEW160 SCT200 30/13 A2993 RMK AO2 SLP113 T03000133 (SH),FM-15,7,,,,,,,,,,,,,,,,,,,,,,,,,,,03-04-2007 00:00
72278023183,29-08-2024 07:51,FM-15,7,,N,0.5,mi,"TEMP, PRECIP",1107,,"MXMN, SRG",33.4442,-112.0247,CONTRACTOR,,,,,,,,,,,,,,,,,,,,,,,,,,,,29.94,56,90,0,,-0.04,2,32,29.88,FEW:02 130 FEW:02 160 SCT:04 200,28.76,10,68,0,,0,,,,,,,,,,,,,,,,,,,,,,,,,,,,,,,,,,,,,MET11808/29/24 07:51:02 METAR KPHX 291451Z 00000KT 10SM FEW130 FEW160 SCT200 32/13 A2994 RMK AO2 SLP117 T03220133 52015 (SH),FM-15,7,,,,,,,,,,,,,,,,,,,,,,,,,,,03-04-2007 00:00
72278023183,29-08-2024 08:00,FM-12,4,,N,0.5,mi,"TEMP, PRECIP",1107,,"MXMN, SRG",33.4442,-112.0247,CONTRACTOR,,,,,,,,,,,,,,,,,,,,,,,,,,,,,56,90,,,-0.04,2,32,29.88,,28.77,9.94,68,0,,0,,,,,,,,,,,,,,,,,,,,,,,,,,,,,,,,,,,,,SYN06472278 32966 40000 10322 20133 39741 40117 52015 91451 555 92915=,FM-12,4,,,,,,,,,,,,,,,,,,,,,,,,,,,03-04-2007 00:00
72278023183,29-08-2024 08:51,FM-15,7,,N,0.5,mi,"TEMP, PRECIP",1107,,"MXMN, SRG",33.4442,-112.0247,CONTRACTOR,,,,,,,,,,,,,,,,,,,,,,,,,,,,29.95,54,93,0,,,,27,29.89,FEW:02 130 FEW:02 160 FEW:02 200,28.77,10,68,100,,7,,,,,,,,,,,,,,,,,,,,,,,,,,,,,,,,,,,,,MET11208/29/24 08:51:02 METAR KPHX 291551Z 10006KT 10SM FEW130 FEW160 FEW200 34/12 A2995 RMK AO2 SLP121 T03390122 (SH),FM-15,7,,,,,,,,,,,,,,,,,,,,,,,,,,,03-04-2007 00:00
72278023183,29-08-2024 09:51,FM-15,7,,N,0.5,mi,"TEMP, PRECIP",1107,,"MXMN, SRG",33.4442,-112.0247,CONTRACTOR,,,,,,,,,,,,,,,,,,,,,,,,,,,,29.95,53,96,0,,,,23,29.89,FEW:02 120 SCT:04 170 SCT:04 210,28.77,10,69,150,,8,,,,,,,,,,,,,,,,,,,,,,,,,,,,,,,,,,,,,MET11208/29/24 09:51:02 METAR KPHX 291651Z 15007KT 10SM FEW120 SCT170 SCT210 36/12 A2995 RMK AO2 SLP121 T03560117 (SH),FM-15,7,,,,,,,,,,,,,,,,,,,,,,,,,,,03-04-2007 00:00
72278023183,29-08-2024 10:51,FM-15,7,,N,0.5,mi,"TEMP, PRECIP",1107,,"MXMN, SRG",33.4442,-112.0247,CONTRACTOR,,,,,,,,,,,,,,,,,,,,,,,,,,,,29.94,50,99,0,,0,0,19,29.87,FEW:02 80 FEW:02 120 SCT:04 170,28.76,10,69,120,,3,,,,,,,,,,,,,,,,,,,,,,,,,,,,,,,,,,,,,MET14408/29/24 10:51:02 METAR KPHX 291751Z 12003KT 10SM FEW080 FEW120 SCT170 37/10 A2994 RMK AO2 SLP116 TCU DSNT NW-N T03720100 10372 20294 50000 (SH),FM-15,7,,,,,,,,,,,,,,,,,,,,,,,,,,,03-04-2007 00:00
72278023183,29-08-2024 11:00,FM-12,4,,N,0.5,mi,"TEMP, PRECIP",1107,,"MXMN, SRG",33.4442,-112.0247,CONTRACTOR,,,,,,,,,,,,,,,,,,,,,,,,,,,,,50,99,,,0,9,19,29.87,74,28.77,9.94,69,120,,3,,,,,,,,,,,,,,,,,,,,,,,,,,,,,,,,,,,,,SYN08072278 32866 41203 10372 20100 39741 40116 50000 91751 333 10372 20294 555 92918=,FM-12,4,,,,,,,,,,,,,,,,,,,,,,,,,,,03-04-2007 00:00
72278023183,29-08-2024 11:51,FM-15,7,,N,0.5,mi,"TEMP, PRECIP",1107,,"MXMN, SRG",33.4442,-112.0247,CONTRACTOR,,,,,,,,,,,,,,,,,,,,,,,,,,,,29.92,48,103,0,,,,16,29.85,FEW:02 80 FEW:02 120 SCT:04 170,28.74,10,69,200,,7,,,,,,,,,,,,,,,,,,,,,,,,,,,,,,,,,,,,,MET13408/29/24 11:51:02 METAR KPHX 291851Z 20006KT 10SM FEW080 FEW120 SCT170 39/09 A2992 RMK AO2 SLP110 CB DSNT N TCU DSNT NW T03940089 (SH),FM-15,7,,,,,,,,,,,,,,,,,,,,,,,,,,,03-04-2007 00:00
72278023183,29-08-2024 12:51,FM-15,7,,N,0.5,mi,"TEMP, PRECIP",1107,,"MXMN, SRG",33.4442,-112.0247,CONTRACTOR,,,,,,,,,,,,,,,,,,,,,,,,,,,,29.9,43,103,0,,,,13,29.84,FEW:02 80 FEW:02 120 SCT:04 180,28.72,10,67,320,,6,,,,,,,,,,,,,,,,,,,,,,,,,,,,,,,,,,,,,MET13408/29/24 12:51:02 METAR KPHX 291951Z 32005KT 10SM FEW080 FEW120 SCT180 39/06 A2990 RMK AO2 SLP104 CB DSNT N TCU DSNT NW T03940061 (SH),FM-15,7,,,,,,,,,,,,,,,,,,,,,,,,,,,03-04-2007 00:00
72278023183,29-08-2024 12:52,FM-16,7,,N,0.5,mi,"TEMP, PRECIP",1107,,"MXMN, SRG",33.4442,-112.0247,CONTRACTOR,,,,,,,,,,,,,,,,,,,,,,,,,,,,29.9,43,104,,,,,12,,FEW:02 80 FEW:02 120 SCT:04 180,28.72,10,67,330,,7,,,,,,,,,,,,,,,,,,,,,,,,,,,,,,,,,,,,,MET13608/29/24 12:52:02 SPECI KPHX 291952Z 33006KT 10SM FEW080 FEW120 SCT180 40/06 A2990 RMK AO2 CB DSNT N NE AND NW TCU DSNT S T04000061 (SH),FM-16,7,,,,,,,,,,,,,,,,,,,,,,,,,,,03-04-2007 00:00
72278023183,29-08-2024 13:51,FM-15,7,,N,0.5,mi,"TEMP, PRECIP",1107,,"MXMN, SRG",33.4442,-112.0247,CONTRACTOR,,,,,,,,,,,,,,,,,,,,,,,,,,,,29.88,41,108,0,,0.06,8,10,29.81,FEW:02 80 FEW:02 120 SCT:04 180,28.7,10,68,270,,6,,,,,,,,,,,,,,,,,,,,,,,,,,,,,,,,,,,,,MET13908/29/24 13:51:02 METAR KPHX 292051Z 27005KT 10SM FEW080 FEW120 SCT180 42/05 A2988 RMK AO2 SLP094 CB DSNT N-E S AND NW T04220050 58021 (SH),FM-15,7,,,,,,,,,,,,,,,,,,,,,,,,,,,03-04-2007 00:00
72278023183,29-08-2024 14:00,FM-12,4,,N,0.5,mi,"TEMP, PRECIP",1107,,"MXMN, SRG",33.4442,-112.0247,CONTRACTOR,,,,,,,,,,,,,,,,,,,,,,,,,,,,,41,108,,,0.06,8,10,29.81,74,28.71,9.94,68,270,,6,,,,,,,,,,,,,,,,,,,,,,,,,,,,,,,,,,,,,SYN06472278 32866 42705 10422 20050 39721 40094 58021 92051 555 92921=,FM-12,4,,,,,,,,,,,,,,,,,,,,,,,,,,,03-04-2007 00:00
72278023183,29-08-2024 14:51,FM-15,7,,N,0.5,mi,"TEMP, PRECIP",1107,,"MXMN, SRG",33.4442,-112.0247,CONTRACTOR,,,,,,,,,,,,,,,,,,,,,,,,,,,,29.85,40,107,0,,,,10,29.78,FEW:02 80 FEW:02 120 FEW:02 180,28.68,10,67,320,,14,,,,,,,,,,,,,,,,,,,,,,,,,,,,,,,,,,,,,MET13408/29/24 14:51:02 METAR KPHX 292151Z 32012KT 10SM FEW080 FEW120 FEW180 42/04 A2985 RMK AO2 SLP086 CB DSNT N-E S AND NW T04170044 (ANH),FM-15,7,,,,,,,,,,,,,,,,,,,,,,,,,,,03-04-2007 00:00
72278023183,29-08-2024 15:51,FM-15,7,,N,0.5,mi,"TEMP, PRECIP",1107,,"MXMN, SRG",33.4442,-112.0247,CONTRACTOR,,,,,,,,,,,,,,,,,,,,,,,,,,,,29.83,39,107,0,,,,10,29.76,FEW:02 80 FEW:02 120 SCT:04 150,28.66,10,67,320,,7,,,,,,,,,,,,,,,,,,,,,,,,,,,,,,,,,,,,,MET13808/29/24 15:51:02 METAR KPHX 292251Z 32006KT 10SM FEW080 FEW120 SCT150 42/04 A2983 RMK AO2 SLP078 CB DSNT NE-E TCU DSNT SE T04170039 (ANH),FM-15,7,,,,,,,,,,,,,,,,,,,,,,,,,,,03-04-2007 00:00
72278023183,29-08-2024 16:51,FM-15,7,,N,0.5,mi,"TEMP, PRECIP",1107,,"MXMN, SRG",33.4442,-112.0247,CONTRACTOR,,,,,,,,,,,,,,,,,,,,,,,,,,,,29.82,38,107,0,,0.05,6,9,29.75,FEW:02 80 SCT:04 150 SCT:04 250,28.65,10,67,240,,3,,,,,,,,,,,,,,,,,,,,,,,,,,,,,,,,,,,,,MET14208/29/24 16:51:02 METAR KPHX 292351Z 24003KT 10SM FEW080 SCT150 SCT250 42/03 A2982 RMK AO2 SLP075 CB DSNT NW T04170033 10428 20372 56018 (ANH),FM-15,7,,,,,,,,,,,,,,,,,,,,,,,,,,,03-04-2007 00:00
72278023183,29-08-2024 17:00,FM-12,4,,N,0.5,mi,"TEMP, PRECIP",1107,,"MXMN, SRG",33.4442,-112.0247,CONTRACTOR,,,,,,,,,,,,,,,,,,,,,,,,,,,,,38,107,,,0.05,6,9,29.75,74,28.65,9.94,67,240,,3,,,,,,,,,,,,,,,,,,,,,,,,,,,,,,,,,,,,,SYN08072278 32866 42403 10417 20033 39702 40075 56018 92351 333 10428 20294 555 93000=,FM-12,4,,,,,,,,,,,,,,,,,,,,,,,,,,,03-04-2007 00:00
72278023183,29-08-2024 17:51,FM-15,7,,N,0.5,mi,"TEMP, PRECIP",1107,,"MXMN, SRG",33.4442,-112.0247,CONTRACTOR,,,,,,,,,,,,,,,,,,,,,,,,,,,,29.83,37,107,0,,,,9,29.76,FEW:02 80 SCT:04 120 SCT:04 250,28.66,10,67,330,,8,,,,,,,,,,,,,,,,,,,,,,,,,,,,,,,,,,,,,MET10708/29/24 17:51:01 METAR KPHX 300051Z 33007KT 10SM FEW080 SCT120 SCT250 42/03 A2983 RMK AO2 SLP079 T04170028,FM-15,7,,,,,,,,,,,,,,,,,,,,,,,,,,,03-04-2007 00:00
72278023183,29-08-2024 18:15,FM-16,7,,N,0.5,mi,"TEMP, PRECIP",1107,,"MXMN, SRG",33.4442,-112.0247,CONTRACTOR,,,,,,,,,,,,,,,,,,,,,,,,,,,,29.84,45,103,,,,,14,,FEW:02 80 SCT:04 120 SCT:04 250,28.66,10,68,70,31,22,,,,,,,,,,,,,,,,,,,,,,,,,,,,,,,,,,,,,MET13208/29/24 18:15:01 SPECI KPHX 300115Z 07019G27KT 10SM FEW080 SCT120 SCT250 39/07 A2984 RMK AO2 PK WND 07027/0111 WSHFT 0055 T03940072,FM-16,7,,,,,,,,,,,,,,,,,,,,,,,,,,,03-04-2007 00:00
72278023183,29-08-2024 18:51,FM-15,7,,N,0.5,mi,"TEMP, PRECIP",1107,,"MXMN, SRG",33.4442,-112.0247,CONTRACTOR,,,,,,,,,,,,,,,,,,,,,,,,,,,,29.84,46,100,0,,,,16,29.78,FEW:02 80 SCT:04 120 SCT:04 250,28.66,10,67,80,,15,,,,,,,,,,,,,,,,,,,,,,,,,,,,,,,,,,,,,MET13608/29/24 18:51:01 METAR KPHX 300151Z 08013KT 10SM FEW080 SCT120 SCT250 38/08 A2984 RMK AO2 PK WND 07027/0111 WSHFT 0055 SLP084 T03780078,FM-15,7,,,,,,,,,,,,,,,,,,,,,,,,,,,03-04-2007 00:00
72278023183,29-08-2024 19:51,FM-15,7,,N,0.5,mi,"TEMP, PRECIP",1107,,"MXMN, SRG",33.4442,-112.0247,CONTRACTOR,,,,,,,,,,,,,,,,,,,,,,,,,,,,29.85,46,99,0,,-0.03,1,16,29.78,FEW:02 120 FEW:02 150,28.68,10,67,90,,7,,,,,,,,,,,,,,,,,,,,,,,,,,,,,,,,,,,,,MET10608/29/24 19:51:02 METAR KPHX 300251Z 09006KT 10SM FEW120 FEW150 37/08 A2985 RMK AO2 SLP086 T03720078 51010,FM-15,7,,,,,,,,,,,,,,,,,,,,,,,,,,,03-04-2007 00:00
72278023183,29-08-2024 20:00,FM-12,4,,N,0.5,mi,"TEMP, PRECIP",1107,,"MXMN, SRG",33.4442,-112.0247,CONTRACTOR,,,,,,,,,,,,,,,,,,,,,,,,,,,,,46,99,,,-0.03,1,16,29.78,,28.68,9.94,67,90,,7,,,,,,,,,,,,,,,,,,,,,,,,,,,,,,,,,,,,,SYN06472278 32966 20906 10372 20078 39712 40086 51010 90251 555 93003=,FM-12,4,,,,,,,,,,,,,,,,,,,,,,,,,,,03-04-2007 00:00
72278023183,29-08-2024 20:51,FM-15,7,,N,0.5,mi,"TEMP, PRECIP",1107,,"MXMN, SRG",33.4442,-112.0247,CONTRACTOR,,,,,,,,,,,,,,,,,,,,,,,,,,,,29.87,45,98,0,,,,16,29.8,CLR:00,28.69,10,66,80,,8,,,,,,,,,,,,,,,,,,,,,,,,,,,,,,,,,,,,,MET09008/29/24 20:51:02 METAR KPHX 300351Z 08007KT 10SM CLR 37/07 A2987 RMK AO2 SLP092 T03670072,FM-15,7,,,,,,,,,,,,,,,,,,,,,,,,,,,03-04-2007 00:00
72278023183,29-08-2024 21:51,FM-15,7,,N,0.5,mi,"TEMP, PRECIP",1107,,"MXMN, SRG",33.4442,-112.0247,CONTRACTOR,,,,,,,,,,,,,,,,,,,,,,,,,,,,29.88,45,96,0,,,,17,29.81,FEW:02 150,28.7,10,66,120,,7,,,,,,,,,,,,,,,,,,,,,,,,,,,,,,,,,,,,,MET09308/29/24 21:51:02 METAR KPHX 300451Z 12006KT 10SM FEW150 36/07 A2988 RMK AO2 SLP095 T03560072,FM-15,7,,,,,,,,,,,,,,,,,,,,,,,,,,,03-04-2007 00:00
72278023183,29-08-2024 22:51,FM-15,7,,N,0.5,mi,"TEMP, PRECIP",1107,,"MXMN, SRG",33.4442,-112.0247,CONTRACTOR,,,,,,,,,,,,,,,,,,,,,,,,,,,,29.88,45,95,0,,-0.03,1,18,29.81,FEW:02 150,28.7,10,65,0,,0,,,,,,,,,,,,,,,,,,,,,,,,,,,,,,,,,,,,,MET11108/29/24 22:51:02 METAR KPHX 300551Z 00000KT 10SM FEW150 35/07 A2988 RMK AO2 SLP096 T03500072 10422 20350 51010,FM-15,7,,,,,,,,,,,,,,,,,,,,,,,,,,,03-04-2007 00:00
72278023183,29-08-2024 23:00,FM-12,4,,N,0.5,mi,"TEMP, PRECIP",1107,,"MXMN, SRG",33.4442,-112.0247,CONTRACTOR,,,,,,,,,,,,,,,,,,,,,,,,,,,,,45,95,,,-0.03,1,18,29.81,,28.71,9.94,65,0,,0,,,,,,,,,,,,,,,,,,,,,,,,,,,,,,,,,,,,,SYN08072278 32966 20000 10350 20072 39721 40096 51010 90551 333 10422 20294 555 93006=,FM-12,4,,,,,,,,,,,,,,,,,,,,,,,,,,,03-04-2007 00:00
72278023183,29-08-2024 23:51,FM-15,7,,N,0.5,mi,"TEMP, PRECIP",1107,,"MXMN, SRG",33.4442,-112.0247,CONTRACTOR,,,,,,,,,,,,,,,,,,,,,,,,,,,,29.88,46,95,0,,,,19,29.81,SCT:04 160,28.7,10,66,20,,5,,,,,,,,,,,,,,,,,,,,,,,,,,,,,,,,,,,,,MET10308/29/24 23:51:02 METAR KPHX 300651Z 02004KT 10SM SCT160 35/08 A2988 RMK AO2 SLP095 T03500078 404280294,FM-15,7,,,,,,,,,,,,,,,,,,,,,,,,,,,03-04-2007 00:00
72278023183,29-08-2024 23:59,SOD  ,6,,N,0.5,mi,"TEMP, PRECIP",1107,,"MXMN, SRG",33.4442,-112.0247,CONTRACTOR,,,,,,48,97,21,29.82,28.7,67,6.7,32,4.3,0,109,85,70,31,0,,,70,25,,,,,,,,,,,,,,,,,,,,,,,,,,,,,,,,,,,,,,,,,,,,,,,,,,,,,,,,SOD73924 HR PRECIPITATION (IN): 0.00 SNOW DEPTH (IN):0     24 HR SNOWFALL (IN):0.0  24 HR MAX TEMP (F):10924 HR MIN TEMP (F): 85AVERAGE STATION PRESSURE:28.700 MINIMUM SEA LEVEL PRESSURE:29.75 TIME OF OCCURRENCE:1722 PEAK WIND SPEED (MPH): 31 PEAK WIND DIR (DEG): 70 PEAK WIND TIME (LST):      FASTEST 2MIN SPEED (MPH): 25FASTEST 2MIN DIR (DEG): 70 FASTEST 2MIN TIME (LST):     AVERAGE WIND SPEED (MPH): 6.7 24 HR AVG TEMP (F): 97DEPART FROM NORMAL:  3  HEATING DEGREE DAYS:  0 COOLING DEGREE DAYS: 32 LATEST DAY MAX TEMP (0700-1900 LST):109 LATEST NIGHT MIN TEMP(1900-0800 LST):85 HOURLY INCREMENTAL PRECIPITATION VALUES (IN):.00 0.00 0.00 0.00 0.00 0.00 0.00 0.00 0.00 0.00 0.00 0.00 0.00 0.00 0.00 0.00 0.00 0.00 0.00 0.00 0.00 0.00 0.00 0.00,SOD  ,6,,,,,,,,,,,,,,,,,,,,,,,,,601,1856,03-04-2007 00:00
72278023183,30-08-2024 00:51,FM-15,7,,N,0.5,mi,"TEMP, PRECIP",1107,,"MXMN, SRG",33.4442,-112.0247,CONTRACTOR,,,,,,,,,,,,,,,,,,,,,,,,,,,,29.88,46,93,0,,,,20,29.81,FEW:02 140 FEW:02 160,28.7,10,65,110,,7,,,,,,,,,,,,,,,,,,,,,,,,,,,,,,,,,,,,,MET10608/30/24 00:51:02 METAR KPHX 300751Z 11006KT 10SM FEW140 FEW160 34/08 A2988 RMK AO2 SLP095 T03390078 (GEH),FM-15,7,,,,,,,,,,,,,,,,,,,,,,,,,,,03-04-2007 00:00
72278023183,30-08-2024 01:51,FM-15,7,,N,0.5,mi,"TEMP, PRECIP",1107,,"MXMN, SRG",33.4442,-112.0247,CONTRACTOR,,,,,,,,,,,,,,,,,,,,,,,,,,,,29.88,47,90,0,,0.01,8,23,29.8,CLR:00,28.7,10,64,90,,7,,,,,,,,,,,,,,,,,,,,,,,,,,,,,,,,,,,,,MET10208/30/24 01:51:02 METAR KPHX 300851Z 09006KT 10SM CLR 32/08 A2988 RMK AO2 SLP093 T03220083 58002 (GEH),FM-15,7,,,,,,,,,,,,,,,,,,,,,,,,,,,03-04-2007 00:00
72278023183,30-08-2024 02:00,FM-12,4,,N,0.5,mi,"TEMP, PRECIP",1107,,"MXMN, SRG",33.4442,-112.0247,CONTRACTOR,,,,,,,,,,,,,,,,,,,,,,,,,,,,,47,90,,,0.01,8,23,29.8,,28.71,9.94,64,90,,7,,,,,,,,,,,,,,,,,,,,,,,,,,,,,,,,,,,,,SYN06472278 32966 00906 10322 20083 39721 40093 58002 90851 555 93009=,FM-12,4,,,,,,,,,,,,,,,,,,,,,,,,,,,03-04-2007 00:00
72278023183,30-08-2024 02:51,FM-15,7,,N,0.5,mi,"TEMP, PRECIP",1107,,"MXMN, SRG",33.4442,-112.0247,CONTRACTOR,,,,,,,,,,,,,,,,,,,,,,,,,,,,29.88,47,89,0,,,,23,29.82,FEW:02 160,28.7,10,64,140,,5,,,,,,,,,,,,,,,,,,,,,,,,,,,,,,,,,,,,,MET09908/30/24 02:51:02 METAR KPHX 300951Z 14004KT 10SM FEW160 32/08 A2988 RMK AO2 SLP097 T03170083 (GEH),FM-15,7,,,,,,,,,,,,,,,,,,,,,,,,,,,03-04-2007 00:00
72278023183,30-08-2024 03:51,FM-15,7,,N,0.5,mi,"TEMP, PRECIP",1107,,"MXMN, SRG",33.4442,-112.0247,CONTRACTOR,,,,,,,,,,,,,,,,,,,,,,,,,,,,29.89,47,88,0,,,,24,29.83,CLR:00,28.71,10,64,100,,7,,,,,,,,,,,,,,,,,,,,,,,,,,,,,,,,,,,,,MET09608/30/24 03:51:02 METAR KPHX 301051Z 10006KT 10SM CLR 31/08 A2989 RMK AO2 SLP100 T03110083 (GEH),FM-15,7,,,,,,,,,,,,,,,,,,,,,,,,,,,03-04-2007 00:00
72278023183,30-08-2024 04:51,FM-15,7,,N,0.5,mi,"TEMP, PRECIP",1107,,"MXMN, SRG",33.4442,-112.0247,CONTRACTOR,,,,,,,,,,,,,,,,,,,,,,,,,,,,29.9,48,87,0,,-0.02,3,26,29.83,CLR:00,28.72,10,64,120,,5,,,,,,,,,,,,,,,,,,,,,,,,,,,,,,,,,,,,,MET11408/30/24 04:51:02 METAR KPHX 301151Z 12004KT 10SM CLR 31/09 A2990 RMK AO2 SLP103 T03060089 10361 20306 53008 (GEH),FM-15,7,,,,,,,,,,,,,,,,,,,,,,,,,,,03-04-2007 00:00
72278023183,30-08-2024 05:00,FM-12,4,,N,0.5,mi,"TEMP, PRECIP",1107,,"MXMN, SRG",33.4442,-112.0247,CONTRACTOR,,,,,,,,,,,,,,,,,,,,,,,,,,,,,48,87,,,-0.02,3,26,29.83,,28.73,9.94,64,120,,5,,,,,,,,,,,,,,,,,,,,,,,,,,,,,,,,,,,,,SYN08072278 32966 01204 10306 20089 39728 40103 53008 91151 333 10428 20306 555 93012=,FM-12,4,,,,,,,,,,,,,,,,,,,,,,,,,,,03-04-2007 00:00
72278023183,30-08-2024 05:51,FM-15,7,,N,0.5,mi,"TEMP, PRECIP",1107,,"MXMN, SRG",33.4442,-112.0247,CONTRACTOR,,,,,,,,,,,,,,,,,,,,,,,,,,,,29.92,47,87,0,,,,25,29.85,FEW:02 120,28.74,10,63,130,,7,,,,,,,,,,,,,,,,,,,,,,,,,,,,,,,,,,,,,MET09908/30/24 05:51:02 METAR KPHX 301251Z 13006KT 10SM FEW120 31/08 A2992 RMK AO2 SLP109 T03060083 (GEH),FM-15,7,,,,,,,,,,,,,,,,,,,,,,,,,,,03-04-2007 00:00
72278023183,30-08-2024 06:51,FM-15,7,,N,0.5,mi,"TEMP, PRECIP",1107,,"MXMN, SRG",33.4442,-112.0247,CONTRACTOR,,,,,,,,,,,,,,,,,,,,,,,,,,,,29.94,48,87,0,,,,26,29.87,FEW:02 120 SCT:04 180,28.76,9,64,120,,8,,,,,,,,,,,,,,,,,,,,,,,,,,,,,,,,,,,,,MET10408/30/24 06:51:02 METAR KPHX 301351Z 12007KT 9SM FEW120 SCT180 31/09 A2994 RMK AO2 SLP116 T03060089 (SH),FM-15,7,,,,,,,,,,,,,,,,,,,,,,,,,,,03-04-2007 00:00
72278023183,30-08-2024 07:51,FM-15,7,,N,0.5,mi,"TEMP, PRECIP",1107,,"MXMN, SRG",33.4442,-112.0247,CONTRACTOR,,,,,,,,,,,,,,,,,,,,,,,,,,,,29.96,49,87,0,,-0.05,3,27,29.89,FEW:02 120 SCT:04 180 SCT:04 250,28.78,10,64,130,,8,,,,,,,,,,,,,,,,,,,,,,,,,,,,,,,,,,,,,MET11808/30/24 07:51:02 METAR KPHX 301451Z 13007KT 10SM FEW120 SCT180 SCT250 31/09 A2996 RMK AO2 SLP123 T03060094 53018 (SH),FM-15,7,,,,,,,,,,,,,,,,,,,,,,,,,,,03-04-2007 00:00
72278023183,30-08-2024 08:00,FM-12,4,,N,0.5,mi,"TEMP, PRECIP",1107,,"MXMN, SRG",33.4442,-112.0247,CONTRACTOR,,,,,,,,,,,,,,,,,,,,,,,,,,,,,49,87,,,-0.05,3,27,29.89,,28.79,9.94,64,130,,8,,,,,,,,,,,,,,,,,,,,,,,,,,,,,,,,,,,,,SYN06472278 32966 41307 10306 20094 39748 40123 53018 91451 555 93015=,FM-12,4,,,,,,,,,,,,,,,,,,,,,,,,,,,03-04-2007 00:00
72278023183,30-08-2024 08:51,FM-15,7,,N,0.5,mi,"TEMP, PRECIP",1107,,"MXMN, SRG",33.4442,-112.0247,CONTRACTOR,,,,,,,,,,,,,,,,,,,,,,,,,,,,29.98,48,91,0,,,,23,29.91,FEW:02 80 FEW:02 160 SCT:04 180,28.8,10,65,90,,9,,,,,,,,,,,,,,,,,,,,,,,,,,,,,,,,,,,,,MET12608/30/24 08:51:02 METAR KPHX 301551Z 09008KT 10SM FEW080 FEW160 SCT180 33/09 A2998 RMK AO2 SLP128 SHRA DSNT N-E T03280089 (SH),FM-15,7,,,,,,,,,,,,,,,,,,,,,,,,,,,03-04-2007 00:00
72278023183,30-08-2024 09:51,FM-15,7,,N,0.5,mi,"TEMP, PRECIP",1107,,"MXMN, SRG",33.4442,-112.0247,CONTRACTOR,,,,,,,,,,,,,,,,,,,,,,,,,,,,29.98,48,96,0,,,,19,29.91,FEW:02 80 SCT:04 160 SCT:04 200,28.8,10,67,VRB,,5,,,,,,,,,,,,,,,,,,,,,,,,,,,,,,,,,,,,,MET12608/30/24 09:51:02 METAR KPHX 301651Z VRB04KT 10SM FEW080 SCT160 SCT200 36/09 A2998 RMK AO2 SLP128 SHRA DSNT N-E T03560089 (SH),FM-15,7,,,,,,,,,,,,,,,,,,,,,,,,,,,03-04-2007 00:00
72278023183,30-08-2024 10:51,FM-15,7,,N,0.5,mi,"TEMP, PRECIP",1107,,"MXMN, SRG",33.4442,-112.0247,CONTRACTOR,,,,,,,,,,,,,,,,,,,,,,,,,,,,29.96,47,98,0,,-0.01,0,17,29.9,FEW:02 80 FEW:02 160 SCT:04 200,28.78,10,67,250,,3,,,,,,,,,,,,,,,,,,,,,,,,,,,,,,,,,,,,,MET13008/30/24 10:51:02 METAR KPHX 301751Z 25003KT 10SM FEW080 FEW160 SCT200 37/08 A2996 RMK AO2 SLP124 T03670083 10372 20306 50002 (SH),FM-15,7,,,,,,,,,,,,,,,,,,,,,,,,,,,03-04-2007 00:00
72278023183,30-08-2024 11:00,FM-12,4,,N,0.5,mi,"TEMP, PRECIP",1107,,"MXMN, SRG",33.4442,-112.0247,CONTRACTOR,,,,,,,,,,,,,,,,,,,,,,,,,,,,,47,98,,,0.01,9,17,29.9,74,28.79,9.94,67,250,,3,,,,,,,,,,,,,,,,,,,,,,,,,,,,,,,,,,,,,SYN08072278 32866 42503 10367 20083 39748 40124 50002 91751 333 10372 20306 555 93018=,FM-12,4,,,,,,,,,,,,,,,,,,,,,,,,,,,03-04-2007 00:00
72278023183,30-08-2024 11:51,FM-15,7,,N,0.5,mi,"TEMP, PRECIP",1107,,"MXMN, SRG",33.4442,-112.0247,CONTRACTOR,,,,,,,,,,,,,,,,,,,,,,,,,,,,29.94,45,101,0,,,,15,29.88,FEW:02 80 FEW:02 160 SCT:04 220,28.76,10,67,80,,6,,,,,,,,,,,,,,,,,,,,,,,,,,,,,,,,,,,,,MET11208/30/24 11:51:02 METAR KPHX 301851Z 08005KT 10SM FEW080 FEW160 SCT220 38/07 A2994 RMK AO2 SLP118 T03830072 (SH),FM-15,7,,,,,,,,,,,,,,,,,,,,,,,,,,,03-04-2007 00:00
72278023183,30-08-2024 12:51,FM-15,7,,N,0.5,mi,"TEMP, PRECIP",1107,,"MXMN, SRG",33.4442,-112.0247,CONTRACTOR,,,,,,,,,,,,,,,,,,,,,,,,,,,,29.93,44,103,0,,,,13,29.86,FEW:02 90 FEW:02 160 FEW:02 220,28.75,10,67,340,,6,,,,,,,,,,,,,,,,,,,,,,,,,,,,,,,,,,,,,MET13508/30/24 12:51:02 METAR KPHX 301951Z 34005KT 10SM FEW090 FEW160 FEW220 39/07 A2993 RMK AO2 SLP111 CB DSNT NE TCU DSNT NW T03940067 (SH),FM-15,7,,,,,,,,,,,,,,,,,,,,,,,,,,,03-04-2007 00:00
72278023183,30-08-2024 13:51,FM-15,7,,N,0.5,mi,"TEMP, PRECIP",1107,,"MXMN, SRG",33.4442,-112.0247,CONTRACTOR,,,,,,,,,,,,,,,,,,,,,,,,,,,,29.9,42,104,0,,0.07,8,12,29.83,FEW:02 90 FEW:02 160 SCT:04 220,28.72,10,67,220,,6,,,,,,,,,,,,,,,,,,,,,,,,,,,,,,,,,,,,,MET14308/30/24 13:51:02 METAR KPHX 302051Z 22005KT 10SM FEW090 FEW160 SCT220 40/06 A2990 RMK AO2 SLP101 CB DSNT NE-SE S AND W-NW T04000056 58023 (SH),FM-15,7,,,,,,,,,,,,,,,,,,,,,,,,,,,03-04-2007 00:00
72278023183,30-08-2024 14:00,FM-12,4,,N,0.5,mi,"TEMP, PRECIP",1107,,"MXMN, SRG",33.4442,-112.0247,CONTRACTOR,,,,,,,,,,,,,,,,,,,,,,,,,,,,,42,104,,,0.07,8,12,29.83,,28.73,9.94,67,220,,6,,,,,,,,,,,,,,,,,,,,,,,,,,,,,,,,,,,,,SYN06472278 32966 42205 10400 20056 39728 40101 58023 92051 555 93021=,FM-12,4,,,,,,,,,,,,,,,,,,,,,,,,,,,03-04-2007 00:00
72278023183,30-08-2024 14:51,FM-15,7,,N,0.5,mi,"TEMP, PRECIP",1107,,"MXMN, SRG",33.4442,-112.0247,CONTRACTOR,,,,,,,,,,,,,,,,,,,,,,,,,,,,29.86,40,108,0,,,,10,29.79,FEW:02 90 FEW:02 160 SCT:04 220,28.69,10,68,300,,7,,,,,,,,,,,,,,,,,,,,,,,,,,,,,,,,,,,,,MET12708/30/24 14:51:02 METAR KPHX 302151Z 30006KT 10SM FEW090 FEW160 SCT220 42/04 A2986 RMK AO2 SLP089 CB DSNT ALQDS T04220044 (ADH),FM-15,7,,,,,,,,,,,,,,,,,,,,,,,,,,,03-04-2007 00:00
72278023183,30-08-2024 15:51,FM-15,7,,N,0.5,mi,"TEMP, PRECIP",1107,,"MXMN, SRG",33.4442,-112.0247,CONTRACTOR,,,,,,,,,,,,,,,,,,,,,,,,,,,,29.85,38,108,0,,,,9,29.78,FEW:02 90 FEW:02 160 FEW:02 200,28.68,10,67,310,,10,,,,,,,,,,,,,,,,,,,,,,,,,,,,,,,,,,,,,MET13508/30/24 15:51:02 METAR KPHX 302251Z 31009KT 10SM FEW090 FEW160 FEW200 42/03 A2985 RMK AO2 SLP084 CB DSNT E-SE AND W-NW T04220033 (ADH),FM-15,7,,,,,,,,,,,,,,,,,,,,,,,,,,,03-04-2007 00:00
72278023183,30-08-2024 16:51,FM-15,7,,N,0.5,mi,"TEMP, PRECIP",1107,,"MXMN, SRG",33.4442,-112.0247,CONTRACTOR,,,,,,,,,,,,,,,,,,,,,,,,,,,,29.84,38,108,0,,0.05,6,9,29.77,FEW:02 90 FEW:02 160 FEW:02 200,28.66,10,67,VRB,,6,,,,,,,,,,,,,,,,,,,,,,,,,,,,,,,,,,,,,MET14208/30/24 16:51:02 METAR KPHX 302351Z VRB05KT 10SM FEW090 FEW160 FEW200 42/03 A2984 RMK AO2 SLP082 CB DSNT SE T04220033 10433 20367 56018 (ADH),FM-15,7,,,,,,,,,,,,,,,,,,,,,,,,,,,03-04-2007 00:00
72278023183,30-08-2024 17:00,FM-12,4,,N,0.5,mi,"TEMP, PRECIP",1107,,"MXMN, SRG",33.4442,-112.0247,CONTRACTOR,,,,,,,,,,,,,,,,,,,,,,,,,,,,,38,108,,,0.05,6,9,29.77,,28.67,9.94,67,,,6,,,,,,,,,,,,,,,,,,,,,,,,,,,,,,,,,,,,,SYN08072278 32966 4//05 10422 20033 39708 40082 56018 92351 333 10433 20306 555 93100=,FM-12,4,,,,,,,,,,,,,,,,,,,,,,,,,,,03-04-2007 00:00
72278023183,30-08-2024 17:51,FM-15,7,,N,0.5,mi,"TEMP, PRECIP",1107,,"MXMN, SRG",33.4442,-112.0247,CONTRACTOR,,,,,,,,,,,,,,,,,,,,,,,,,,,,29.85,40,105,0,,,,11,29.78,FEW:02 90 SCT:04 150 BKN:07 180,28.68,10,67,60,28,14,,,,,,,,,,,,,,,,,,,,,,,,,,,,,,,,,,,,,MET14908/30/24 17:51:01 METAR KPHX 310051Z 06012G24KT 10SM FEW090 SCT150 BKN180 41/04 A2985 RMK AO2 SLP084 OCNL LTGCG DSNT NW CB DSNT SE AND NW-N T04060044,FM-15,7,,,,,,,,,,,,,,,,,,,,,,,,,,,03-04-2007 00:00
72278023183,30-08-2024 18:07,FM-16,7,,N,0.5,mi,"TEMP, PRECIP",1107,,"MXMN, SRG",33.4442,-112.0247,CONTRACTOR,,,,,,,,,,,,,,,,,,,,,,,,,,,,29.84,41,105,,,,,11,,FEW:02 90 SCT:04 140 BKN:07 180,28.66,10,67,50,32,23,,,,,,,,,,,,,,,,,,,,,,,,,,,,,,,,,,,,,MET17708/30/24 18:07:01 SPECI KPHX 310107Z 05020G28KT 10SM FEW090 SCT140 BKN180 41/05 A2984 RMK AO2 PK WND 05028/0107 WSHFT 0047 OCNL LTGCG DSNT NW VIRGA CB DSNT SE AND NW-N T04060050,FM-16,7,,,,,,,,,,,,,,,,,,,,,,,,,,,03-04-2007 00:00
72278023183,30-08-2024 18:30,FM-16,7,,N,0.5,mi,"TEMP, PRECIP",1107,,"MXMN, SRG",33.4442,-112.0247,CONTRACTOR,,,,,,,,,,,,,,,,,,,,,,,,,,,,29.85,43,102,,|TS |RA,,,13,,FEW:02 90 SCT:04 140,28.68,10,67,40,31,20,,,,,,,,,,,,,,,,,,,,,,,,,,,,,,,,,,,,,MET18408/30/24 18:30:01 SPECI KPHX 310130Z 04017G27KT 10SM TS FEW090CB SCT140 BKN1 39/06 A2985 RMK AO2 PK WND 05031/0117 WSHFT 0047 TSB30 OCNL LTGCA VC NW TS VC NW MOV W VCSH SW-NW T03890061,FM-16,7,,,,,,,,,,,,,,,,,,,,,,,,,,,03-04-2007 00:00
72278023183,30-08-2024 18:49,FM-16,6,,N,0.5,mi,"TEMP, PRECIP",1107,,"MXMN, SRG",33.4442,-112.0247,CONTRACTOR,,,,,,,,,,,,,,,,,,,,,,,,,,,,29.87,43,102,,,,,13,,FEW:02 90 SCT:04 140 SCT:04 180,28.69,10,67,10,24,16,,,,,,,,,,,,,,,,,,,,,,,,,,,,,,,,,,,,,MET15308/30/24 18:49:03 SPECI KPHX 310149Z 01014G21KT 10SM FEW090 SCT140 SCT180 39/06 A2987 RMK AO2 PK WND 05031/0117 WSHFT 0047 TSB30E48 VCSH SW-NW FIBI (ADH),FM-16,6,,,,,,,,,,,,,,,,,,,,,,,,,,,03-04-2007 00:00
72278023183,30-08-2024 18:51,FM-15,7,,N,0.5,mi,"TEMP, PRECIP",1107,,"MXMN, SRG",33.4442,-112.0247,CONTRACTOR,,,,,,,,,,,,,,,,,,,,,,,,,,,,29.87,42,102,0,,,,13,29.8,FEW:02 90 SCT:04 140 SCT:04 180,28.69,10,67,20,23,16,,,,,,,,,,,,,,,,,,,,,,,,,,,,,,,,,,,,,MET15908/30/24 18:51:01 METAR KPHX 310151Z 02014G20KT 10SM FEW090 SCT140 SCT180 39/06 A2987 RMK AO2 PK WND 05031/0117 WSHFT 0047 TSB30E48 SLP092 VCSH SW-NW T03890056,FM-15,7,,,,,,,,,,,,,,,,,,,,,,,,,,,03-04-2007 00:00
72278023183,30-08-2024 19:51,FM-15,7,,N,0.5,mi,"TEMP, PRECIP",1107,,"MXMN, SRG",33.4442,-112.0247,CONTRACTOR,,,,,,,,,,,,,,,,,,,,,,,,,,,,29.87,42,100,0,,-0.03,3,14,29.81,FEW:02 90 FEW:02 140 SCT:04 180,28.69,10,66,30,,9,,,,,,,,,,,,,,,,,,,,,,,,,,,,,,,,,,,,,MET15008/30/24 19:51:03 METAR KPHX 310251Z 03008KT 10SM FEW090 FEW140 SCT180 38/06 A2987 RMK AO2 SLP094 FRQ LTGICCA DSNT SW CB DSNT SW T03780056 53011 (ADH),FM-15,7,,,,,,,,,,,,,,,,,,,,,,,,,,,03-04-2007 00:00
72278023183,30-08-2024 20:00,FM-12,4,,N,0.5,mi,"TEMP, PRECIP",1107,,"MXMN, SRG",33.4442,-112.0247,CONTRACTOR,,,,,,,,,,,,,,,,,,,,,,,,,,,,,42,100,,,-0.03,3,14,29.81,,28.7,9.94,66,30,,9,,,,,,,,,,,,,,,,,,,,,,,,,,,,,,,,,,,,,SYN06472278 32966 40308 10378 20056 39718 40094 53011 90251 555 93103=,FM-12,4,,,,,,,,,,,,,,,,,,,,,,,,,,,03-04-2007 00:00
72278023183,30-08-2024 20:51,FM-15,7,,N,0.5,mi,"TEMP, PRECIP",1107,,"MXMN, SRG",33.4442,-112.0247,CONTRACTOR,,,,,,,,,,,,,,,,,,,,,,,,,,,,29.9,42,100,0,,,,14,29.83,FEW:02 90 FEW:02 140 SCT:04 180,28.72,10,66,300,,11,,,,,,,,,,,,,,,,,,,,,,,,,,,,,,,,,,,,,MET10708/30/24 20:51:01 METAR KPHX 310351Z 30010KT 10SM FEW090 FEW140 SCT180 38/06 A2990 RMK AO2 SLP101 T03780056,FM-15,7,,,,,,,,,,,,,,,,,,,,,,,,,,,03-04-2007 00:00
72278023183,30-08-2024 21:51,FM-15,7,,N,0.5,mi,"TEMP, PRECIP",1107,,"MXMN, SRG",33.4442,-112.0247,CONTRACTOR,,,,,,,,,,,,,,,,,,,,,,,,,,,,29.92,44,98,0,,,,16,29.85,FEW:02 90 SCT:04 160 BKN:07 180,28.74,10,66,250,,9,,,,,,,,,,,,,,,,,,,,,,,,,,,,,,,,,,,,,MET10708/30/24 21:51:01 METAR KPHX 310451Z 25008KT 10SM FEW090 SCT160 BKN180 37/07 A2992 RMK AO2 SLP109 T03670067,FM-15,7,,,,,,,,,,,,,,,,,,,,,,,,,,,03-04-2007 00:00
72278023183,30-08-2024 22:51,FM-15,7,,N,0.5,mi,"TEMP, PRECIP",1107,,"MXMN, SRG",33.4442,-112.0247,CONTRACTOR,,,,,,,,,,,,,,,,,,,,,,,,,,,,29.91,44,99,0,,-0.04,0,15,29.84,FEW:02 150 SCT:04 190 SCT:04 250,28.73,10,66,300,,8,,,,,,,,,,,,,,,,,,,,,,,,,,,,,,,,,,,,,MET12508/30/24 22:51:01 METAR KPHX 310551Z 30007KT 10SM FEW150 SCT190 SCT250 37/07 A2991 RMK AO2 SLP105 T03720067 10422 20367 50012,FM-15,7,,,,,,,,,,,,,,,,,,,,,,,,,,,03-04-2007 00:00
72278023183,30-08-2024 23:00,FM-12,4,,N,0.5,mi,"TEMP, PRECIP",1107,,"MXMN, SRG",33.4442,-112.0247,CONTRACTOR,,,,,,,,,,,,,,,,,,,,,,,,,,,,,44,99,,,0.04,9,15,29.84,,28.74,9.94,66,300,,8,,,,,,,,,,,,,,,,,,,,,,,,,,,,,,,,,,,,,SYN08072278 32966 43007 10372 20067 39731 40105 50012 90551 333 10422 20306 555 93106=,FM-12,4,,,,,,,,,,,,,,,,,,,,,,,,,,,03-04-2007 00:00
72278023183,30-08-2024 23:51,FM-15,4,,N,0.5,mi,"TEMP, PRECIP",1107,,"MXMN, SRG",33.4442,-112.0247,CONTRACTOR,,,,,,,,,,,,,,,,,,,,,,,,,,,,29.9,44,98,,,,,16,29.83,,,10,,310,,5,,,,,,,,,,,,,,,,,,,,,,,,,,,,,,,,,,,,,MET100METAR KPHX 310651Z 31004KT 10SM FEW150 BKN190 BKN250 37/07 A2990 RMK AO2 SLP100 T03670067 404330306=,FM-15,4,,,,,,,,,,,,,,,,,,,,,,,,,,,03-04-2007 00:00
72278023183,30-08-2024 23:59,SOD  ,6,,N,0.5,mi,"TEMP, PRECIP",1107,,"MXMN, SRG",33.4442,-112.0247,CONTRACTOR,,,,,,45,99,18,29.83,28.72,66,7.6,34,6.5,0,110,87,50,35,0,,,50,26,TS,,,,,,,,,,,,,,,,,,,,,,,,,,,,,,,,,,,,,,,,,,,,,,,,,,,,,,,SOD75624 HR PRECIPITATION (IN): 0.00 SNOW DEPTH (IN):0     24 HR SNOWFALL (IN):0.0  WEATHER(CODE):3  24 HR MAX TEMP (F):11024 HR MIN TEMP (F): 87AVERAGE STATION PRESSURE:28.720 MINIMUM SEA LEVEL PRESSURE:29.77 TIME OF OCCURRENCE:1806 PEAK WIND SPEED (MPH): 35 PEAK WIND DIR (DEG): 50 PEAK WIND TIME (LST):      FASTEST 2MIN SPEED (MPH): 26FASTEST 2MIN DIR (DEG): 50 FASTEST 2MIN TIME (LST):     AVERAGE WIND SPEED (MPH): 7.6 24 HR AVG TEMP (F): 99DEPART FROM NORMAL:  6  HEATING DEGREE DAYS:  0 COOLING DEGREE DAYS: 34 LATEST DAY MAX TEMP (0700-1900 LST):110 LATEST NIGHT MIN TEMP(1900-0800 LST):87 HOURLY INCREMENTAL PRECIPITATION VALUES (IN):.00 0.00 0.00 0.00 0.00 0.00 0.00 0.00 0.00 0.00 0.00 0.00 0.00 0.00 0.00 0.00 0.00 0.00 0.00 0.00 0.00 0.00 0.00 0.00,SOD  ,6,,,,,,,,,,,,,,,,,,,,,,,,,601,1855,03-04-2007 00:00
72278023183,31-08-2024 00:51,FM-15,7,,N,0.5,mi,"TEMP, PRECIP",1107,,"MXMN, SRG",33.4442,-112.0247,CONTRACTOR,,,,,,,,,,,,,,,,,,,,,,,,,,,,29.89,47,94,0,,,,20,29.82,FEW:02 150 BKN:07 200 BKN:07 250,28.71,10,66,110,,3,,,,,,,,,,,,,,,,,,,,,,,,,,,,,,,,,,,,,MET11308/31/24 00:51:02 METAR KPHX 310751Z 11003KT 10SM FEW150 BKN200 BKN250 34/08 A2989 RMK AO2 SLP099 T03440083 (ANH),FM-15,7,,,,,,,,,,,,,,,,,,,,,,,,,,,03-04-2007 00:00
72278023183,31-08-2024 01:51,FM-15,7,,N,0.5,mi,"TEMP, PRECIP",1107,,"MXMN, SRG",33.4442,-112.0247,CONTRACTOR,,,,,,,,,,,,,,,,,,,,,,,,,,,,29.89,46,92,0,,0.02,6,21,29.82,FEW:02 150 BKN:07 200 BKN:07 250,28.71,10,65,100,,6,,,,,,,,,,,,,,,,,,,,,,,,,,,,,,,,,,,,,MET11908/31/24 01:51:02 METAR KPHX 310851Z 10005KT 10SM FEW150 BKN200 BKN250 33/08 A2989 RMK AO2 SLP099 T03330078 56007 (ANH),FM-15,7,,,,,,,,,,,,,,,,,,,,,,,,,,,03-04-2007 00:00
72278023183,31-08-2024 02:00,FM-12,4,,N,0.5,mi,"TEMP, PRECIP",1107,,"MXMN, SRG",33.4442,-112.0247,CONTRACTOR,,,,,,,,,,,,,,,,,,,,,,,,,,,,,46,92,,,0.02,6,21,29.82,,28.72,9.94,65,100,,6,,,,,,,,,,,,,,,,,,,,,,,,,,,,,,,,,,,,,SYN06472278 32966 61005 10333 20078 39725 40099 56007 90851 555 93109=,FM-12,4,,,,,,,,,,,,,,,,,,,,,,,,,,,03-04-2007 00:00
72278023183,31-08-2024 02:51,FM-15,7,,N,0.5,mi,"TEMP, PRECIP",1107,,"MXMN, SRG",33.4442,-112.0247,CONTRACTOR,,,,,,,,,,,,,,,,,,,,,,,,,,,,29.89,45,91,0,,,,20,29.82,SCT:04 170 BKN:07 200 BKN:07 250,28.71,10,64,90,,7,,,,,,,,,,,,,,,,,,,,,,,,,,,,,,,,,,,,,MET11308/31/24 02:51:02 METAR KPHX 310951Z 09006KT 10SM SCT170 BKN200 BKN250 33/07 A2989 RMK AO2 SLP099 T03280072 (ANH),FM-15,7,,,,,,,,,,,,,,,,,,,,,,,,,,,03-04-2007 00:00
72278023183,31-08-2024 03:51,FM-15,7,,N,0.5,mi,"TEMP, PRECIP",1107,,"MXMN, SRG",33.4442,-112.0247,CONTRACTOR,,,,,,,,,,,,,,,,,,,,,,,,,,,,29.9,46,90,0,,,,22,29.83,FEW:02 160 BKN:07 190 BKN:07 250,28.72,10,64,100,,3,,,,,,,,,,,,,,,,,,,,,,,,,,,,,,,,,,,,,MET11308/31/24 03:51:02 METAR KPHX 311051Z 10003KT 10SM FEW160 BKN190 BKN250 32/08 A2990 RMK AO2 SLP102 T03220078 (ANH),FM-15,7,,,,,,,,,,,,,,,,,,,,,,,,,,,03-04-2007 00:00
72278023183,31-08-2024 04:51,FM-15,7,,N,0.5,mi,"TEMP, PRECIP",1107,,"MXMN, SRG",33.4442,-112.0247,CONTRACTOR,,,,,,,,,,,,,,,,,,,,,,,,,,,,29.9,47,90,0,,-0.01,1,23,29.83,FEW:02 150 BKN:07 170 BKN:07 200,28.72,10,64,0,,0,,,,,,,,,,,,,,,,,,,,,,,,,,,,,,,,,,,,,MET13108/31/24 04:51:02 METAR KPHX 311151Z 00000KT 10SM FEW150 BKN170 BKN200 32/08 A2990 RMK AO2 SLP103 T03220083 10372 20322 51005 (ANH),FM-15,7,,,,,,,,,,,,,,,,,,,,,,,,,,,03-04-2007 00:00
72278023183,31-08-2024 05:00,FM-12,4,,N,0.5,mi,"TEMP, PRECIP",1107,,"MXMN, SRG",33.4442,-112.0247,CONTRACTOR,,,,,,,,,,,,,,,,,,,,,,,,,,,,,47,90,,,-0.01,1,23,29.83,,28.73,9.94,64,0,,0,,,,,,,,,,,,,,,,,,,,,,,,,,,,,,,,,,,,,SYN08072278 32966 60000 10322 20083 39728 40103 51005 91151 333 10433 20322 555 93112=,FM-12,4,,,,,,,,,,,,,,,,,,,,,,,,,,,03-04-2007 00:00
72278023183,31-08-2024 05:51,FM-15,7,,N,0.5,mi,"TEMP, PRECIP",1107,,"MXMN, SRG",33.4442,-112.0247,CONTRACTOR,,,,,,,,,,,,,,,,,,,,,,,,,,,,29.91,47,89,0,,,,23,29.85,FEW:02 120 FEW:02 150 SCT:04 170,28.73,10,64,180,,3,,,,,,,,,,,,,,,,,,,,,,,,,,,,,,,,,,,,,MET11908/31/24 05:51:02 METAR KPHX 311251Z 18003KT 10SM FEW120 FEW150 SCT170 32/08 A2991 RMK AO2 SLP108 VIRGA T03170083 (ANH),FM-15,7,,,,,,,,,,,,,,,,,,,,,,,,,,,03-04-2007 00:00
72278023183,31-08-2024 06:51,FM-15,7,,N,0.5,mi,"TEMP, PRECIP",1107,,"MXMN, SRG",33.4442,-112.0247,CONTRACTOR,,,,,,,,,,,,,,,,,,,,,,,,,,,,29.93,47,89,0,,,,23,29.86,FEW:02 120 FEW:02 150 SCT:04 180,28.75,10,64,130,,5,,,,,,,,,,,,,,,,,,,,,,,,,,,,,,,,,,,,,MET11908/31/24 06:51:02 METAR KPHX 311351Z 13004KT 10SM FEW120 FEW150 SCT180 32/08 A2993 RMK AO2 SLP113 VIRGA T03170083 (ANH),FM-15,7,,,,,,,,,,,,,,,,,,,,,,,,,,,03-04-2007 00:00
72278023183,31-08-2024 07:51,FM-15,7,,N,0.5,mi,"TEMP, PRECIP",1107,,"MXMN, SRG",33.4442,-112.0247,CONTRACTOR,,,,,,,,,,,,,,,,,,,,,,,,,,,,29.95,48,90,0,,-0.04,3,24,29.88,FEW:02 120 SCT:04 150 SCT:04 180,28.77,10,65,110,,9,,,,,,,,,,,,,,,,,,,,,,,,,,,,,,,,,,,,,MET12408/31/24 07:51:02 METAR KPHX 311451Z 11008KT 10SM FEW120 SCT150 SCT180 32/09 A2995 RMK AO2 SLP119 VIRGA T03220089 53015 (JH),FM-15,7,,,,,,,,,,,,,,,,,,,,,,,,,,,03-04-2007 00:00
72278023183,31-08-2024 08:00,FM-12,4,,N,0.5,mi,"TEMP, PRECIP",1107,,"MXMN, SRG",33.4442,-112.0247,CONTRACTOR,,,,,,,,,,,,,,,,,,,,,,,,,,,,,48,90,,,-0.04,3,24,29.88,,28.77,9.94,65,110,,9,,,,,,,,,,,,,,,,,,,,,,,,,,,,,,,,,,,,,SYN06472278 32966 41108 10322 20089 39744 40119 53015 91451 555 93115=,FM-12,4,,,,,,,,,,,,,,,,,,,,,,,,,,,03-04-2007 00:00
72278023183,31-08-2024 08:51,FM-15,7,,N,0.5,mi,"TEMP, PRECIP",1107,,"MXMN, SRG",33.4442,-112.0247,CONTRACTOR,,,,,,,,,,,,,,,,,,,,,,,,,,,,29.96,47,93,0,,,,21,29.89,FEW:02 100 SCT:04 130 BKN:07 160,28.78,10,65,120,,9,,,,,,,,,,,,,,,,,,,,,,,,,,,,,,,,,,,,,MET13108/31/24 08:51:02 METAR KPHX 311551Z 12008KT 10SM FEW100 SCT130 BKN160 34/08 A2996 RMK AO2 SLP123 VIRGA SHRA DSNT NW T03390083 (JH),FM-15,7,,,,,,,,,,,,,,,,,,,,,,,,,,,03-04-2007 00:00
72278023183,31-08-2024 09:51,FM-15,7,,N,0.5,mi,"TEMP, PRECIP",1107,,"MXMN, SRG",33.4442,-112.0247,CONTRACTOR,,,,,,,,,,,,,,,,,,,,,,,,,,,,29.96,46,100,0,,,,16,29.89,FEW:02 100 SCT:04 130 SCT:04 160,28.78,10,67,120,,9,,,,,,,,,,,,,,,,,,,,,,,,,,,,,,,,,,,,,MET13108/31/24 09:51:02 METAR KPHX 311651Z 12008KT 10SM FEW100 SCT130 SCT160 38/08 A2996 RMK AO2 SLP123 VIRGA SHRA DSNT NW T03780078 (JH),FM-15,7,,,,,,,,,,,,,,,,,,,,,,,,,,,03-04-2007 00:00
72278023183,31-08-2024 10:51,FM-15,7,,N,0.5,mi,"TEMP, PRECIP",1107,,"MXMN, SRG",33.4442,-112.0247,CONTRACTOR,,,,,,,,,,,,,,,,,,,,,,,,,,,,29.95,46,102,0,,0,0,15,29.88,FEW:02 100 FEW:02 130 SCT:04 160,28.77,10,68,VRB,,5,,,,,,,,,,,,,,,,,,,,,,,,,,,,,,,,,,,,,MET13608/31/24 10:51:02 METAR KPHX 311751Z VRB04KT 10SM FEW100 FEW130 SCT160 39/08 A2995 RMK AO2 SLP119 VIRGA T03890078 10394 20311 50001 (JH),FM-15,7,,,,,,,,,,,,,,,,,,,,,,,,,,,03-04-2007 00:00
72278023183,31-08-2024 11:00,FM-12,4,,N,0.5,mi,"TEMP, PRECIP",1107,,"MXMN, SRG",33.4442,-112.0247,CONTRACTOR,,,,,,,,,,,,,,,,,,,,,,,,,,,,,46,102,,,0,9,15,29.88,,28.77,9.94,68,,,5,,,,,,,,,,,,,,,,,,,,,,,,,,,,,,,,,,,,,SYN08072278 32966 4//04 10389 20078 39744 40119 50001 91751 333 10394 20311 555 93118=,FM-12,4,,,,,,,,,,,,,,,,,,,,,,,,,,,03-04-2007 00:00
72278023183,31-08-2024 11:51,FM-15,7,,N,0.5,mi,"TEMP, PRECIP",1107,,"MXMN, SRG",33.4442,-112.0247,CONTRACTOR,,,,,,,,,,,,,,,,,,,,,,,,,,,,29.93,45,104,0,,,,13,29.86,FEW:02 100 FEW:02 130 SCT:04 160,28.75,10,68,110,,10,,,,,,,,,,,,,,,,,,,,,,,,,,,,,,,,,,,,,MET11808/31/24 11:51:02 METAR KPHX 311851Z 11009KT 10SM FEW100 FEW130 SCT160 40/07 A2993 RMK AO2 SLP111 VIRGA T04000072 (JH),FM-15,7,,,,,,,,,,,,,,,,,,,,,,,,,,,03-04-2007 00:00
72278023183,31-08-2024 12:51,FM-15,7,,N,0.5,mi,"TEMP, PRECIP",1107,,"MXMN, SRG",33.4442,-112.0247,CONTRACTOR,,,,,,,,,,,,,,,,,,,,,,,,,,,,29.9,44,106,0,,,,12,29.83,FEW:02 100 FEW:02 130 FEW:02 160,28.72,10,68,150,18,9,,,,,,,,,,,,,,,,,,,,,,,,,,,,,,,,,,,,,MET12108/31/24 12:51:02 METAR KPHX 311951Z 15008G16KT 10SM FEW100 FEW130 FEW160 41/07 A2990 RMK AO2 SLP100 VIRGA T04110067 (JH),FM-15,7,,,,,,,,,,,,,,,,,,,,,,,,,,,03-04-2007 00:00
72278023183,31-08-2024 13:51,FM-15,7,,N,0.5,mi,"TEMP, PRECIP",1107,,"MXMN, SRG",33.4442,-112.0247,CONTRACTOR,,,,,,,,,,,,,,,,,,,,,,,,,,,,29.86,43,107,0,,0.09,8,11,29.79,FEW:02 100 FEW:02 140 FEW:02 170,28.69,10,68,VRB,,6,,,,,,,,,,,,,,,,,,,,,,,,,,,,,,,,,,,,,MET14408/31/24 13:51:02 METAR KPHX 312051Z VRB05KT 10SM FEW100 FEW140 FEW170 42/06 A2986 RMK AO2 SLP089 VIRGA CB DSNT NE AND NW-N T04170061 58029 (JH),FM-15,7,,,,,,,,,,,,,,,,,,,,,,,,,,,03-04-2007 00:00
72278023183,31-08-2024 14:00,FM-12,4,,N,0.5,mi,"TEMP, PRECIP",1107,,"MXMN, SRG",33.4442,-112.0247,CONTRACTOR,,,,,,,,,,,,,,,,,,,,,,,,,,,,,43,107,,,0.09,8,11,29.79,,28.69,9.94,68,,,6,,,,,,,,,,,,,,,,,,,,,,,,,,,,,,,,,,,,,SYN06472278 32966 2//05 10417 20061 39715 40089 58029 92051 555 93121=,FM-12,4,,,,,,,,,,,,,,,,,,,,,,,,,,,03-04-2007 00:00
72278023183,31-08-2024 14:51,FM-15,7,,N,0.5,mi,"TEMP, PRECIP",1107,,"MXMN, SRG",33.4442,-112.0247,CONTRACTOR,,,,,,,,,,,,,,,,,,,,,,,,,,,,29.82,42,107,0,,,,11,29.75,FEW:02 100 FEW:02 140 FEW:02 180,28.65,10,68,VRB,,5,,,,,,,,,,,,,,,,,,,,,,,,,,,,,,,,,,,,,MET13608/31/24 14:51:02 METAR KPHX 312151Z VRB04KT 10SM FEW100 FEW140 FEW180 42/06 A2982 RMK AO2 SLP076 CB DSNT NE SE AND NW-N T04170056 (ADH),FM-15,7,,,,,,,,,,,,,,,,,,,,,,,,,,,03-04-2007 00:00
72278023183,31-08-2024 15:51,FM-15,7,,N,0.5,mi,"TEMP, PRECIP",1107,,"MXMN, SRG",33.4442,-112.0247,CONTRACTOR,,,,,,,,,,,,,,,,,,,,,,,,,,,,29.8,42,107,0,,,,11,29.72,FEW:02 100 FEW:02 150 FEW:02 250,28.63,10,68,50,,9,,,,,,,,,,,,,,,,,,,,,,,,,,,,,,,,,,,,,MET13508/31/24 15:51:02 METAR KPHX 312251Z 05008KT 10SM FEW100 FEW150 FEW250 42/06 A2980 RMK AO2 SLP066 CB DSNT NE S AND NW-N T04170056 (ADH),FM-15,7,,,,,,,,,,,,,,,,,,,,,,,,,,,03-04-2007 00:00
72278023183,31-08-2024 16:51,FM-15,7,,N,0.5,mi,"TEMP, PRECIP",1107,,"MXMN, SRG",33.4442,-112.0247,CONTRACTOR,,,,,,,,,,,,,,,,,,,,,,,,,,,,29.79,42,106,0,,0.07,6,11,29.72,FEW:02 100 FEW:02 150 SCT:04 250,28.62,10,68,VRB,,3,,,,,,,,,,,,,,,,,,,,,,,,,,,,,,,,,,,,,MET17008/31/24 16:51:02 METAR KPHX 312351Z VRB03KT 10SM FEW100 FEW150 SCT250 41/06 A2979 RMK AO2 SLP064 OCNL LTGCG DSNT E CB DSNT N-E-S AND NW T04110056 10422 20383 56025 (ADH),FM-15,7,,,,,,,,,,,,,,,,,,,,,,,,,,,03-04-2007 00:00
72278023183,31-08-2024 17:00,FM-12,4,,N,0.5,mi,"TEMP, PRECIP",1107,,"MXMN, SRG",33.4442,-112.0247,CONTRACTOR,,,,,,,,,,,,,,,,,,,,,,,,,,,,,42,106,,,0.07,6,11,29.72,,28.62,9.94,68,,,3,,,,,,,,,,,,,,,,,,,,,,,,,,,,,,,,,,,,,SYN08072278 32966 4//03 10411 20056 39692 40064 56025 92351 333 10422 20311 555 90100=,FM-12,4,,,,,,,,,,,,,,,,,,,,,,,,,,,03-04-2007 00:00
72278023183,31-08-2024 17:51,FM-15,7,,N,0.5,mi,"TEMP, PRECIP",1107,,"MXMN, SRG",33.4442,-112.0247,CONTRACTOR,,,,,,,,,,,,,,,,,,,,,,,,,,,,29.79,41,106,0,,,,11,29.72,FEW:02 100 FEW:02 150 SCT:04 250,28.62,10,67,350,,3,,,,,,,,,,,,,,,,,,,,,,,,,,,,,,,,,,,,,MET16908/31/24 17:51:03 METAR KPHX 010051Z 35003KT 10SM FEW100 FEW150 SCT250 41/05 A2979 RMK AO2 SLP064 OCNL LTGCG DSNT N-E CB DSNT N-E-SE AND NW SHRA DSNT N-E T04110050 (ADH),FM-15,7,,,,,,,,,,,,,,,,,,,,,,,,,,,03-04-2007 00:00
72278023183,31-08-2024 18:37,FM-16,7,,N,0.5,mi,"TEMP, PRECIP",1107,,"MXMN, SRG",33.4442,-112.0247,CONTRACTOR,,,,,,,,,,,,,,,,,,,,,,,,,,,,29.82,45,101,,,,,15,,FEW:02 100 SCT:04 150 SCT:04 250,28.65,10,67,,,,,,,,,,,,,,,,,,,,,,,,,,,,,,,,,,,,,,,,MET18108/31/24 18:37:03 SPECI KPHX 010137Z      KT 10SM FEW100 SCT150 SCT250 38/07 A2982 RMK AO2 PK WND 04032/0126 WSHFT 0117 OCNL LTGCG DSNT N-E CB DSNT N-E SHRA DSNT N-E T03830072 (ADH),FM-16,7,,,,,,,,,,,,,,,,,,,,,,,,,,,03-04-2007 00:00
72278023183,31-08-2024 18:39,FM-16,7,,N,0.5,mi,"TEMP, PRECIP",1107,,"MXMN, SRG",33.4442,-112.0247,CONTRACTOR,,,,,,,,,,,,,,,,,,,,,,,,,,,,29.82,45,101,,,,,15,,FEW:02 100 SCT:04 150 SCT:04 250,28.65,10,67,30,32,22,,,,,,,,,,,,,,,,,,,,,,,,,,,,,,,,,,,,,MET18608/31/24 18:39:03 SPECI KPHX 010139Z 03019G28KT 10SM FEW100 SCT150 SCT250 38/07 A2982 RMK AO2 PK WND 04032/0126 WSHFT 0117 OCNL LTGCG DSNT N-E CB DSNT N-E SHRA DSNT N-E T03830072 $ (ADH),FM-16,7,,,,,,,,,,,,,,,,,,,,,,,,,,,03-04-2007 00:00
72278023183,31-08-2024 18:51,FM-15,7,,N,0.5,mi,"TEMP, PRECIP",1107,,"MXMN, SRG",33.4442,-112.0247,CONTRACTOR,,,,,,,,,,,,,,,,,,,,,,,,,,,,29.83,45,100,0,,,,15,29.76,FEW:02 100 SCT:04 150 SCT:04 250,28.66,10,67,50,28,20,,,,,,,,,,,,,,,,,,,,,,,,,,,,,,,,,,,,,MET20108/31/24 18:51:03 METAR KPHX 010151Z 05017G24KT 10SM FEW100 SCT150 SCT250 38/07 A2983 RMK AO2 PK WND 04032/0126 WSHFT 0117 SLP077 OCNL LTGCG DSNT N AND E CB DSNT N AND E SHRA DSNT N-E T03780072 $ (ADH),FM-15,7,,,,,,,,,,,,,,,,,,,,,,,,,,,03-04-2007 00:00
72278023183,31-08-2024 19:51,FM-15,7,,N,0.5,mi,"TEMP, PRECIP",1107,,"MXMN, SRG",33.4442,-112.0247,CONTRACTOR,,,,,,,,,,,,,,,,,,,,,,,,,,,,29.85,45,97,0,,-0.06,3,17,29.78,FEW:02 100 SCT:04 150 SCT:04 250,28.68,10,66,70,,15,,,,,,,,,,,,,,,,,,,,,,,,,,,,,,,,,,,,,MET18408/31/24 19:51:03 METAR KPHX 010251Z 07013KT 10SM FEW100 SCT150 SCT250 36/07 A2985 RMK AO2 PK WND 07030/0230 SLP086 FRQ LTGIC DSNT E-SE CB DSNT E-SE SHRA DSNT E T03610072 53020 $ (ADH),FM-15,7,,,,,,,,,,,,,,,,,,,,,,,,,,,03-04-2007 00:00
72278023183,31-08-2024 20:00,FM-12,4,,N,0.5,mi,"TEMP, PRECIP",1107,,"MXMN, SRG",33.4442,-112.0247,CONTRACTOR,,,,,,,,,,,,,,,,,,,,,,,,,,,,,45,97,,,-0.06,3,17,29.78,,28.68,9.94,66,70,,15,,,,,,,,,,,,,,,,,,,,,,,,,,,,,,,,,,,,,SYN06472278 32966 40713 10361 20072 39712 40086 53020 90251 555 90103=,FM-12,4,,,,,,,,,,,,,,,,,,,,,,,,,,,03-04-2007 00:00
72278023183,31-08-2024 20:51,FM-15,7,,N,0.5,mi,"TEMP, PRECIP",1107,,"MXMN, SRG",33.4442,-112.0247,CONTRACTOR,,,,,,,,,,,,,,,,,,,,,,,,,,,,29.85,45,97,0,,,,17,29.78,FEW:02 100 SCT:04 150 SCT:04 250,28.68,10,66,60,,10,,,,,,,,,,,,,,,,,,,,,,,,,,,,,,,,,,,,,MET14808/31/24 20:51:03 METAR KPHX 010351Z 06009KT 10SM FEW100 SCT150 SCT250 36/07 A2985 RMK AO2 SLP085 FRQ LTGIC DSNT SE-S CB DSNT SE-S T03610072 $ (ADH),FM-15,7,,,,,,,,,,,,,,,,,,,,,,,,,,,03-04-2007 00:00
72278023183,31-08-2024 21:51,FM-15,7,,N,0.5,mi,"TEMP, PRECIP",1107,,"MXMN, SRG",33.4442,-112.0247,CONTRACTOR,,,,,,,,,,,,,,,,,,,,,,,,,,,,29.86,44,97,0,,,,16,29.79,FEW:02 100 SCT:04 150 SCT:04 190,28.69,10,66,170,,7,,,,,,,,,,,,,,,,,,,,,,,,,,,,,,,,,,,,,MET14208/31/24 21:51:03 METAR KPHX 010451Z 17006KT 10SM FEW100 SCT150 SCT190 36/07 A2986 RMK AO2 SLP088 FRQ LTGIC DSNT S CB DSNT S T03610067 $ (ADH),FM-15,7,,,,,,,,,,,,,,,,,,,,,,,,,,,03-04-2007 00:00
72278023183,31-08-2024 22:51,FM-15,7,,N,0.5,mi,"TEMP, PRECIP",1107,,"MXMN, SRG",33.4442,-112.0247,CONTRACTOR,,,,,,,,,,,,,,,,,,,,,,,,,,,,29.88,43,98,0,,-0.03,3,15,29.81,FEW:02 100 SCT:04 150 BKN:07 190,28.7,10,66,10,,10,,,,,,,,,,,,,,,,,,,,,,,,,,,,,,,,,,,,,MET14808/31/24 22:51:03 METAR KPHX 010551Z 01009KT 10SM FEW100 SCT150 BKN190 37/06 A2988 RMK AO2 SLP094 SHRA DSNT NW-N T03670061 10417 20361 53009 $ (ANH),FM-15,7,,,,,,,,,,,,,,,,,,,,,,,,,,,03-04-2007 00:00
72278023183,31-08-2024 23:00,FM-12,4,,N,0.5,mi,"TEMP, PRECIP",1107,,"MXMN, SRG",33.4442,-112.0247,CONTRACTOR,,,,,,,,,,,,,,,,,,,,,,,,,,,,,43,98,,,-0.03,3,15,29.81,,28.71,9.94,66,10,,10,,,,,,,,,,,,,,,,,,,,,,,,,,,,,,,,,,,,,SYN08072278 32966 60109 10367 20061 39721 40094 53009 90551 333 10417 20311 555 90106=,FM-12,4,,,,,,,,,,,,,,,,,,,,,,,,,,,03-04-2007 00:00
72278023183,31-08-2024 23:51,FM-15,7,,N,0.5,mi,"TEMP, PRECIP",1107,,"MXMN, SRG",33.4442,-112.0247,CONTRACTOR,,,,,,,,,,,,,,,,,,,,,,,,,,,,29.86,45,94,0,,,,18,29.79,FEW:02 150 SCT:04 180,28.69,10,65,110,,8,,,,,,,,,,,,,,,,,,,,,,,,,,,,,,,,,,,,,MET11808/31/24 23:51:03 METAR KPHX 010651Z 11007KT 10SM FEW150 SCT180 34/07 A2986 RMK AO2 SLP087 T03440072 404220311 $ (ANH),FM-15,7,,,,,,,,,,,,,,,,,,,,,,,,,,,03-04-2007 00:00
72278023183,31-08-2024 23:59,SOD  ,6,,N,0.5,mi,"TEMP, PRECIP",1107,,"MXMN, SRG",33.4442,-112.0247,CONTRACTOR,,,,,,45,98,16,29.81,28.69,66,6.9,33,5.6,0,108,88,40,37,0,,,60,28,,,,,,,,,,,,,,,,,,,,,,,,,,,,,,,,,,,,,,,,,,,,,,,,,,,,,,,,SOD73024 HR PRECIPITATION (IN):0.00  24 HR MAX TEMP (F):10824 HR MAX TEMP TIME (LST):1642 24 HR MIN TEMP (F):88 24 HR MIN TEMP TIME (LST):0649 AVERAGE STATION PRESSURE:28.695 MINIMUM SEA LEVEL PRESSURE:29.72 TIME OF OCCURRENCE:1808 PEAK WIND SPEED (MPH):37  PEAK WIND DIR (DEG):40  PEAK WIND TIME (LST):1826  FASTEST 2MIN SPEED (MPH):28 FASTEST 2MIN DIR (DEG):60  FASTEST 2MIN TIME (LST):1828 AVERAGE WIND SPEED (MPH):6.9  24 HR AVG TEMP (F):98 HEATING DEGREE DAYS:0   COOLING DEGREE DAYS:33  LATEST DAY MAX TEMP (0700-1900 LST):108 LATEST NIGHT MIN TEMP(1900-0800 LST):88 HOURLY INCREMENTAL PRECIPITATION VALUES (IN):.00 0.00 0.00 0.00 0.00 0.00 0.00 0.00 0.00 0.00 0.00 0.00 0.00 0.00 0.00 0.00 0.00 0.00 0.00 0.00 0.00 0.00 0.00 0.00,SOD  ,6,,,,,,,,,,,,,,,,,,,,,,,,,602,1853,03-04-2007 00:00
72278023183,31-08-2024 23:59,SOM  ,6,7.4,N,0.5,mi,"TEMP, PRECIP",1107,,"MXMN, SRG",33.4442,-112.0247,CONTRACTOR,4092,1045,0,,11,,,,,,,,,,,,,,,,,,,,,0,0,,,,,,,,,,,,,,,,,,3,2,0,31,0,0,5.1,160,0,5,5.4,-0.65,,0.24,22-22,,,,,29.98,7,814,109.4,98.7,29.62,4,1831,88.1,29.8,28.69,0.35,,,885,0,SOM794PCP MTOT:0.35 PCP GT 24HRS:0.24 DATE(S):22 DAYS W/PCP >=.01:3  DAYS W/PCP >=.10:2  DAYS W/ PCP >=.50:0 DAYS W/PCP >=1.00:0 MSDP AMTS W/DATE-TIME TAGS:MIN:5 0.07  22/1926 MIN:10 0.07  22/1926 MIN:15 0.07  22/1926 MIN:20 0.08  18/0247 MIN:30 0.09  18/0254 MIN:45 0.11  22/1924 MIN:60 0.13  22/1926 MIN:80 0.16  22/1926 MIN:100 0.16  22/1926 MIN:120 0.18  22/1926 MIN:150 0.18  22/1926 MIN:180 0.24  22/1926 AVG DLY MIN:88.1  AVG DLY MAX:109.4 AVG MLY TMP:98.8  MIN TMP:79 DATE(S):18 MAX TMP:116 DATE(S):04 03 DAYS MAX <=32:0 DAYS MAX >=90:31 DAYS MIN <=32:0  DAYS MIN  <=0:0  AVG STP:28.685 LWST SLP:29.62 DATE/TIME:041831 HGST SLP:29.98 DATE/TIME:070814 HDD MTH TOT:0 DEP NORM:-2553 SEASON(JUL 1-JUN 30):0 DEP NORM:-25536 CDD MTH TOT:1053 DEP NORM:-2553 SEASON(JAN 1-DEC 31):4132 DEP NORM:-25536,SOM  ,6,45526.80972,45526.80972,45526.80972,45522.11597,45522.12083,45526.80833,45526.80972,45526.80972,45526.80972,45526.80972,45526.80972,45526.80972,0.07,0.07,0.07,0.08,0.09,0.11,0.13,0.16,0.16,0.18,0.18,0.24,,,03-04-2007 00:00
